{
"type": "FeatureCollection",
"name": "EMSN177_FLEX_AOI01_P02REF_PoiP_v01",
"features": [
{ "type": "Feature", "properties": { "obj_type": "Point of Interest", "info": "Administrative buildings", "NAM": "Unknown", "det_method": "Photo-interpretation", "or_src_id": "1", "emsn_id": "EMSN177", "fwc_type": "FLEX", "aoi_id": "1", "name": "Derna", "country": "Libya" }, "geometry": { "type": "Point", "coordinates": [ 22.680997150000053, 32.747400800000037 ] } },
{ "type": "Feature", "properties": { "obj_type": "Point of Interest", "info": "Hotels and similar buildings", "NAM": "Salah Al-Hajj", "det_method": "Photo-interpretation", "or_src_id": "1", "emsn_id": "EMSN177", "fwc_type": "FLEX", "aoi_id": "1", "name": "Derna", "country": "Libya" }, "geometry": { "type": "Point", "coordinates": [ 22.664363300000048, 32.746297100000049 ] } },
{ "type": "Feature", "properties": { "obj_type": "Point of Interest", "info": "School, university and research buildings", "NAM": "Candles School,", "det_method": "Photo-interpretation", "or_src_id": "1", "emsn_id": "EMSN177", "fwc_type": "FLEX", "aoi_id": "1", "name": "Derna", "country": "Libya" }, "geometry": { "type": "Point", "coordinates": [ 22.660847108000041, 32.748753770000064 ] } },
{ "type": "Feature", "properties": { "obj_type": "Point of Interest", "info": "School, university and research buildings", "NAM": "Ibrahim Bakkar School", "det_method": "Photo-interpretation", "or_src_id": "1", "emsn_id": "EMSN177", "fwc_type": "FLEX", "aoi_id": "1", "name": "Derna", "country": "Libya" }, "geometry": { "type": "Point", "coordinates": [ 22.66869530200006, 32.749723419000077 ] } },
{ "type": "Feature", "properties": { "obj_type": "Point of Interest", "info": "Buildings used as places of worship and for religious activities", "NAM": "Al-Ridwan Mosque", "det_method": "Automatic extraction", "or_src_id": "994", "emsn_id": "EMSN177", "fwc_type": "FLEX", "aoi_id": "1", "name": "Derna", "country": "Libya" }, "geometry": { "type": "Point", "coordinates": [ 22.672402294000051, 32.74955784000008 ] } },
{ "type": "Feature", "properties": { "obj_type": "Point of Interest", "info": "Buildings used as places of worship and for religious activities", "NAM": "Abdullah Al-Fasi Mosque", "det_method": "Automatic extraction", "or_src_id": "994", "emsn_id": "EMSN177", "fwc_type": "FLEX", "aoi_id": "1", "name": "Derna", "country": "Libya" }, "geometry": { "type": "Point", "coordinates": [ 22.678156803000036, 32.745229577000032 ] } },
{ "type": "Feature", "properties": { "obj_type": "Point of Interest", "info": "Hotels and similar buildings", "NAM": "Atiya Abdul Jalil Al Qabsi", "det_method": "Photo-interpretation", "or_src_id": "1", "emsn_id": "EMSN177", "fwc_type": "FLEX", "aoi_id": "1", "name": "Derna", "country": "Libya" }, "geometry": { "type": "Point", "coordinates": [ 22.659586469000033, 32.748284545000047 ] } },
{ "type": "Feature", "properties": { "obj_type": "Point of Interest", "info": "School, university and research buildings", "NAM": "Early Derna School", "det_method": "Photo-interpretation", "or_src_id": "1", "emsn_id": "EMSN177", "fwc_type": "FLEX", "aoi_id": "1", "name": "Derna", "country": "Libya" }, "geometry": { "type": "Point", "coordinates": [ 22.662904020000042, 32.745597949000057 ] } },
{ "type": "Feature", "properties": { "obj_type": "Point of Interest", "info": "Cemetery", "NAM": "Derna Cemetery", "det_method": "Photo-interpretation", "or_src_id": "1", "emsn_id": "EMSN177", "fwc_type": "FLEX", "aoi_id": "1", "name": "Derna", "country": "Libya" }, "geometry": { "type": "Point", "coordinates": [ 22.663454367000043, 32.717712213000027 ] } },
{ "type": "Feature", "properties": { "obj_type": "Point of Interest", "info": "Buildings used as places of worship and for religious activities", "NAM": "Al-Miqdad Mosque", "det_method": "Automatic extraction", "or_src_id": "994", "emsn_id": "EMSN177", "fwc_type": "FLEX", "aoi_id": "1", "name": "Derna", "country": "Libya" }, "geometry": { "type": "Point", "coordinates": [ 22.670207213000026, 32.733921302000056 ] } },
{ "type": "Feature", "properties": { "obj_type": "Point of Interest", "info": "Hospital or institutional care buildings", "NAM": "Nour Al-Huda Medical Clinic", "det_method": "Photo-interpretation", "or_src_id": "1", "emsn_id": "EMSN177", "fwc_type": "FLEX", "aoi_id": "1", "name": "Derna", "country": "Libya" }, "geometry": { "type": "Point", "coordinates": [ 22.655678150000028, 32.753894700000046 ] } },
{ "type": "Feature", "properties": { "obj_type": "Point of Interest", "info": "Buildings used as places of worship and for religious activities", "NAM": "Hamza Mosque", "det_method": "Automatic extraction", "or_src_id": "994", "emsn_id": "EMSN177", "fwc_type": "FLEX", "aoi_id": "1", "name": "Derna", "country": "Libya" }, "geometry": { "type": "Point", "coordinates": [ 22.655040580000048, 32.750869754000064 ] } },
{ "type": "Feature", "properties": { "obj_type": "Point of Interest", "info": "Buildings used as places of worship and for religious activities", "NAM": "Assayedah Khadijah Mosque", "det_method": "Automatic extraction", "or_src_id": "1", "emsn_id": "EMSN177", "fwc_type": "FLEX", "aoi_id": "1", "name": "Derna", "country": "Libya" }, "geometry": { "type": "Point", "coordinates": [ 22.659588057000065, 32.749680271000045 ] } },
{ "type": "Feature", "properties": { "obj_type": "Point of Interest", "info": "Buildings used as places of worship and for religious activities", "NAM": "Fatima Al-Zahra Mosque", "det_method": "Photo-interpretation", "or_src_id": "1", "emsn_id": "EMSN177", "fwc_type": "FLEX", "aoi_id": "1", "name": "Derna", "country": "Libya" }, "geometry": { "type": "Point", "coordinates": [ 22.669346074000032, 32.747650397000029 ] } },
{ "type": "Feature", "properties": { "obj_type": "Point of Interest", "info": "Hospital or institutional care buildings", "NAM": "Medical Clinic", "det_method": "Photo-interpretation", "or_src_id": "1", "emsn_id": "EMSN177", "fwc_type": "FLEX", "aoi_id": "1", "name": "Derna", "country": "Libya" }, "geometry": { "type": "Point", "coordinates": [ 22.667979913000067, 32.747794064000061 ] } },
{ "type": "Feature", "properties": { "obj_type": "Point of Interest", "info": "Hotels and similar buildings", "NAM": "Luluaa Dernah Hotel", "det_method": "Photo-interpretation", "or_src_id": "1", "emsn_id": "EMSN177", "fwc_type": "FLEX", "aoi_id": "1", "name": "Derna", "country": "Libya" }, "geometry": { "type": "Point", "coordinates": [ 22.654465835000053, 32.75399559400006 ] } },
{ "type": "Feature", "properties": { "obj_type": "Point of Interest", "info": "School, university and research buildings", "NAM": "Abdul Karim Jibril", "det_method": "Photo-interpretation", "or_src_id": "1", "emsn_id": "EMSN177", "fwc_type": "FLEX", "aoi_id": "1", "name": "Derna", "country": "Libya" }, "geometry": { "type": "Point", "coordinates": [ 22.654803686000037, 32.748167405000061 ] } },
{ "type": "Feature", "properties": { "obj_type": "Point of Interest", "info": "School, university and research buildings", "NAM": "Educational Excellence Company", "det_method": "Photo-interpretation", "or_src_id": "1", "emsn_id": "EMSN177", "fwc_type": "FLEX", "aoi_id": "1", "name": "Derna", "country": "Libya" }, "geometry": { "type": "Point", "coordinates": [ 22.656456614000035, 32.754038120000075 ] } },
{ "type": "Feature", "properties": { "obj_type": "Point of Interest", "info": "Other non-residential buildings", "NAM": "Post Office Derna", "det_method": "Automatic extraction", "or_src_id": "994", "emsn_id": "EMSN177", "fwc_type": "FLEX", "aoi_id": "1", "name": "Derna", "country": "Libya" }, "geometry": { "type": "Point", "coordinates": [ 22.656513975000053, 32.751267380000058 ] } },
{ "type": "Feature", "properties": { "obj_type": "Point of Interest", "info": "School, university and research buildings", "NAM": "Omar Al-Mukhtar Institute for Vocational Training", "det_method": "Photo-interpretation", "or_src_id": "1", "emsn_id": "EMSN177", "fwc_type": "FLEX", "aoi_id": "1", "name": "Derna", "country": "Libya" }, "geometry": { "type": "Point", "coordinates": [ 22.656980255000065, 32.752399409000077 ] } },
{ "type": "Feature", "properties": { "obj_type": "Point of Interest", "info": "Industrial buildings", "NAM": "General Electric Company", "det_method": "Photo-interpretation", "or_src_id": "1", "emsn_id": "EMSN177", "fwc_type": "FLEX", "aoi_id": "1", "name": "Derna", "country": "Libya" }, "geometry": { "type": "Point", "coordinates": [ 22.672118369000032, 32.743658989000039 ] } },
{ "type": "Feature", "properties": { "obj_type": "Point of Interest", "info": "Communication buildings, stations, terminals and associated buildings", "NAM": "Derna lighthouse", "det_method": "Automatic extraction", "or_src_id": "994", "emsn_id": "EMSN177", "fwc_type": "FLEX", "aoi_id": "1", "name": "Derna", "country": "Libya" }, "geometry": { "type": "Point", "coordinates": [ 22.684609538000075, 32.74801426700003 ] } },
{ "type": "Feature", "properties": { "obj_type": "Point of Interest", "info": "School, university and research buildings", "NAM": "Uprising School", "det_method": "Photo-interpretation", "or_src_id": "1", "emsn_id": "EMSN177", "fwc_type": "FLEX", "aoi_id": "1", "name": "Derna", "country": "Libya" }, "geometry": { "type": "Point", "coordinates": [ 22.656172112000036, 32.74798094700003 ] } },
{ "type": "Feature", "properties": { "obj_type": "Point of Interest", "info": "Buildings used as places of worship and for religious activities", "NAM": "Mosque", "det_method": "Automatic extraction", "or_src_id": "994", "emsn_id": "EMSN177", "fwc_type": "FLEX", "aoi_id": "1", "name": "Derna", "country": "Libya" }, "geometry": { "type": "Point", "coordinates": [ 22.681610825000064, 32.699442994000037 ] } },
{ "type": "Feature", "properties": { "obj_type": "Point of Interest", "info": "Hospital or institutional care buildings", "NAM": "Qardaf Martyrs Dispensary", "det_method": "Photo-interpretation", "or_src_id": "1", "emsn_id": "EMSN177", "fwc_type": "FLEX", "aoi_id": "1", "name": "Derna", "country": "Libya" }, "geometry": { "type": "Point", "coordinates": [ 22.681430587000023, 32.697985259000063 ] } },
{ "type": "Feature", "properties": { "obj_type": "Point of Interest", "info": "Buildings used as places of worship and for religious activities", "NAM": "Al Hussein Mosque", "det_method": "Photo-interpretation", "or_src_id": "1", "emsn_id": "EMSN177", "fwc_type": "FLEX", "aoi_id": "1", "name": "Derna", "country": "Libya" }, "geometry": { "type": "Point", "coordinates": [ 22.66167660900004, 32.751580181000065 ] } },
{ "type": "Feature", "properties": { "obj_type": "Point of Interest", "info": "Administrative buildings", "NAM": "General Administration of Al-Wahda Bank", "det_method": "Photo-interpretation", "or_src_id": "1", "emsn_id": "EMSN177", "fwc_type": "FLEX", "aoi_id": "1", "name": "Derna", "country": "Libya" }, "geometry": { "type": "Point", "coordinates": [ 22.669546352000054, 32.748441739000043 ] } },
{ "type": "Feature", "properties": { "obj_type": "Point of Interest", "info": "School, university and research buildings", "NAM": "Higher Institute of Agricultural Technologies Derna", "det_method": "Photo-interpretation", "or_src_id": "1", "emsn_id": "EMSN177", "fwc_type": "FLEX", "aoi_id": "1", "name": "Derna", "country": "Libya" }, "geometry": { "type": "Point", "coordinates": [ 22.683899780000047, 32.688655895000068 ] } },
{ "type": "Feature", "properties": { "obj_type": "Point of Interest", "info": "School, university and research buildings", "NAM": "Al Khansaa Basic Education School", "det_method": "Photo-interpretation", "or_src_id": "1", "emsn_id": "EMSN177", "fwc_type": "FLEX", "aoi_id": "1", "name": "Derna", "country": "Libya" }, "geometry": { "type": "Point", "coordinates": [ 22.653272696000045, 32.751336804000061 ] } },
{ "type": "Feature", "properties": { "obj_type": "Point of Interest", "info": "Administrative buildings", "NAM": "Derna Civil Status", "det_method": "Photo-interpretation", "or_src_id": "1", "emsn_id": "EMSN177", "fwc_type": "FLEX", "aoi_id": "1", "name": "Derna", "country": "Libya" }, "geometry": { "type": "Point", "coordinates": [ 22.656180457000062, 32.750424875000078 ] } },
{ "type": "Feature", "properties": { "obj_type": "Point of Interest", "info": "School, university and research buildings", "NAM": "Ibn Sina School for Basic Education", "det_method": "Photo-interpretation", "or_src_id": "1", "emsn_id": "EMSN177", "fwc_type": "FLEX", "aoi_id": "1", "name": "Derna", "country": "Libya" }, "geometry": { "type": "Point", "coordinates": [ 22.660384040000054, 32.750981375000038 ] } },
{ "type": "Feature", "properties": { "obj_type": "Point of Interest", "info": "School, university and research buildings", "NAM": "Mrs. Khadija Secondary School for Girls", "det_method": "Photo-interpretation", "or_src_id": "1", "emsn_id": "EMSN177", "fwc_type": "FLEX", "aoi_id": "1", "name": "Derna", "country": "Libya" }, "geometry": { "type": "Point", "coordinates": [ 22.659252050000077, 32.751402145000043 ] } },
{ "type": "Feature", "properties": { "obj_type": "Point of Interest", "info": "School, university and research buildings", "NAM": "Baba Shiha School", "det_method": "Photo-interpretation", "or_src_id": "1", "emsn_id": "EMSN177", "fwc_type": "FLEX", "aoi_id": "1", "name": "Derna", "country": "Libya" }, "geometry": { "type": "Point", "coordinates": [ 22.662022784000044, 32.745169583000063 ] } },
{ "type": "Feature", "properties": { "obj_type": "Point of Interest", "info": "Buildings used as places of worship and for religious activities", "NAM": "Abu Huraira Mosque", "det_method": "Automatic extraction", "or_src_id": "994", "emsn_id": "EMSN177", "fwc_type": "FLEX", "aoi_id": "1", "name": "Derna", "country": "Libya" }, "geometry": { "type": "Point", "coordinates": [ 22.650680744000056, 32.753322722000064 ] } },
{ "type": "Feature", "properties": { "obj_type": "Point of Interest", "info": "Cemetery", "NAM": "Jewish Cemetery of Derna", "det_method": "Photo-interpretation", "or_src_id": "1", "emsn_id": "EMSN177", "fwc_type": "FLEX", "aoi_id": "1", "name": "Derna", "country": "Libya" }, "geometry": { "type": "Point", "coordinates": [ 22.624829505000037, 32.767956742000024 ] } },
{ "type": "Feature", "properties": { "obj_type": "Point of Interest", "info": "Cemetery", "NAM": "Old Derna Cemetery", "det_method": "Photo-interpretation", "or_src_id": "1", "emsn_id": "EMSN177", "fwc_type": "FLEX", "aoi_id": "1", "name": "Derna", "country": "Libya" }, "geometry": { "type": "Point", "coordinates": [ 22.621977564000076, 32.769187040000077 ] } },
{ "type": "Feature", "properties": { "obj_type": "Point of Interest", "info": "Buildings used as places of worship and for religious activities", "NAM": "Mosque", "det_method": "Automatic extraction", "or_src_id": "994", "emsn_id": "EMSN177", "fwc_type": "FLEX", "aoi_id": "1", "name": "Derna", "country": "Libya" }, "geometry": { "type": "Point", "coordinates": [ 22.645452791000025, 32.755274192000059 ] } },
{ "type": "Feature", "properties": { "obj_type": "Point of Interest", "info": "School, university and research buildings", "NAM": "Victory School", "det_method": "Automatic extraction", "or_src_id": "994", "emsn_id": "EMSN177", "fwc_type": "FLEX", "aoi_id": "1", "name": "Derna", "country": "Libya" }, "geometry": { "type": "Point", "coordinates": [ 22.631669785000042, 32.756338277000054 ] } },
{ "type": "Feature", "properties": { "obj_type": "Point of Interest", "info": "School, university and research buildings", "NAM": "Faculty of Law -Uni Omar Al Mukhtar", "det_method": "Automatic extraction", "or_src_id": "994", "emsn_id": "EMSN177", "fwc_type": "FLEX", "aoi_id": "1", "name": "Derna", "country": "Libya" }, "geometry": { "type": "Point", "coordinates": [ 22.623870212000043, 32.760577699000066 ] } },
{ "type": "Feature", "properties": { "obj_type": "Point of Interest", "info": "Hospital or institutional care buildings", "NAM": "Health Complex Sheha", "det_method": "Automatic extraction", "or_src_id": "994", "emsn_id": "EMSN177", "fwc_type": "FLEX", "aoi_id": "1", "name": "Derna", "country": "Libya" }, "geometry": { "type": "Point", "coordinates": [ 22.625248243000044, 32.758058443000039 ] } },
{ "type": "Feature", "properties": { "obj_type": "Point of Interest", "info": "School, university and research buildings", "NAM": "Asmaa Secondary School for Girls", "det_method": "Automatic extraction", "or_src_id": "994", "emsn_id": "EMSN177", "fwc_type": "FLEX", "aoi_id": "1", "name": "Derna", "country": "Libya" }, "geometry": { "type": "Point", "coordinates": [ 22.626032332000023, 32.759907201000033 ] } },
{ "type": "Feature", "properties": { "obj_type": "Point of Interest", "info": "Buildings used as places of worship and for religious activities", "NAM": "Abu Bakr Al-Siddiq Mosque", "det_method": "Automatic extraction", "or_src_id": "994", "emsn_id": "EMSN177", "fwc_type": "FLEX", "aoi_id": "1", "name": "Derna", "country": "Libya" }, "geometry": { "type": "Point", "coordinates": [ 22.62733335300004, 32.759845176000056 ] } },
{ "type": "Feature", "properties": { "obj_type": "Point of Interest", "info": "School, university and research buildings", "NAM": "Khawla Bint Al Azur Institute", "det_method": "Automatic extraction", "or_src_id": "994", "emsn_id": "EMSN177", "fwc_type": "FLEX", "aoi_id": "1", "name": "Derna", "country": "Libya" }, "geometry": { "type": "Point", "coordinates": [ 22.651167500000042, 32.755252066000025 ] } },
{ "type": "Feature", "properties": { "obj_type": "Point of Interest", "info": "Office buildings", "NAM": "Unknown", "det_method": "Automatic extraction", "or_src_id": "994", "emsn_id": "EMSN177", "fwc_type": "FLEX", "aoi_id": "1", "name": "Derna", "country": "Libya" }, "geometry": { "type": "Point", "coordinates": [ 22.650808550000022, 32.756278950000024 ] } },
{ "type": "Feature", "properties": { "obj_type": "Point of Interest", "info": "Buildings used as places of worship and for religious activities", "NAM": "Martyrs Mosque", "det_method": "Automatic extraction", "or_src_id": "994", "emsn_id": "EMSN177", "fwc_type": "FLEX", "aoi_id": "1", "name": "Derna", "country": "Libya" }, "geometry": { "type": "Point", "coordinates": [ 22.645124542000076, 32.751620683000056 ] } },
{ "type": "Feature", "properties": { "obj_type": "Point of Interest", "info": "Institutional buildings", "NAM": "Social Security Fund", "det_method": "Photo-interpretation", "or_src_id": "1", "emsn_id": "EMSN177", "fwc_type": "FLEX", "aoi_id": "1", "name": "Derna", "country": "Libya" }, "geometry": { "type": "Point", "coordinates": [ 22.631020493000051, 32.759433989000058 ] } },
{ "type": "Feature", "properties": { "obj_type": "Point of Interest", "info": "Buildings used as places of worship and for religious activities", "NAM": "Al-Basateen Mosque", "det_method": "Photo-interpretation", "or_src_id": "1", "emsn_id": "EMSN177", "fwc_type": "FLEX", "aoi_id": "1", "name": "Derna", "country": "Libya" }, "geometry": { "type": "Point", "coordinates": [ 22.646276938000028, 32.763457276000054 ] } },
{ "type": "Feature", "properties": { "obj_type": "Point of Interest", "info": "Hospital or institutional care buildings", "NAM": "Libyan Red Crescent Society", "det_method": "Automatic extraction", "or_src_id": "994", "emsn_id": "EMSN177", "fwc_type": "FLEX", "aoi_id": "1", "name": "Derna", "country": "Libya" }, "geometry": { "type": "Point", "coordinates": [ 22.650149272000078, 32.763795053000024 ] } },
{ "type": "Feature", "properties": { "obj_type": "Point of Interest", "info": "Buildings used as places of worship and for religious activities", "NAM": "Ali Bin Talib Mosque", "det_method": "Photo-interpretation", "or_src_id": "1", "emsn_id": "EMSN177", "fwc_type": "FLEX", "aoi_id": "1", "name": "Derna", "country": "Libya" }, "geometry": { "type": "Point", "coordinates": [ 22.618623038000067, 32.761673900000062 ] } },
{ "type": "Feature", "properties": { "obj_type": "Point of Interest", "info": "Buildings used as places of worship and for religious activities", "NAM": "Al-Sahaba Mosque", "det_method": "Photo-interpretation", "or_src_id": "1", "emsn_id": "EMSN177", "fwc_type": "FLEX", "aoi_id": "1", "name": "Derna", "country": "Libya" }, "geometry": { "type": "Point", "coordinates": [ 22.642366507000077, 32.761605591000034 ] } },
{ "type": "Feature", "properties": { "obj_type": "Point of Interest", "info": "School, university and research buildings", "NAM": "Al Dhiaa School for Basic Education", "det_method": "Photo-interpretation", "or_src_id": "1", "emsn_id": "EMSN177", "fwc_type": "FLEX", "aoi_id": "1", "name": "Derna", "country": "Libya" }, "geometry": { "type": "Point", "coordinates": [ 22.630770650000045, 32.764729961000057 ] } },
{ "type": "Feature", "properties": { "obj_type": "Point of Interest", "info": "Buildings used as places of worship and for religious activities", "NAM": "Al-Khulafa Al-Rashidun Mosque", "det_method": "Automatic extraction", "or_src_id": "994", "emsn_id": "EMSN177", "fwc_type": "FLEX", "aoi_id": "1", "name": "Derna", "country": "Libya" }, "geometry": { "type": "Point", "coordinates": [ 22.61317710000003, 32.76184285000005 ] } },
{ "type": "Feature", "properties": { "obj_type": "Point of Interest", "info": "Buildings used as places of worship and for religious activities", "NAM": "Unknown", "det_method": "Automatic extraction", "or_src_id": "994", "emsn_id": "EMSN177", "fwc_type": "FLEX", "aoi_id": "1", "name": "Derna", "country": "Libya" }, "geometry": { "type": "Point", "coordinates": [ 22.620472021000069, 32.758593887000075 ] } },
{ "type": "Feature", "properties": { "obj_type": "Point of Interest", "info": "School, university and research buildings", "NAM": "Higher Institute of Science and Technology", "det_method": "Automatic extraction", "or_src_id": "994", "emsn_id": "EMSN177", "fwc_type": "FLEX", "aoi_id": "1", "name": "Derna", "country": "Libya" }, "geometry": { "type": "Point", "coordinates": [ 22.616937759000052, 32.766380195000067 ] } },
{ "type": "Feature", "properties": { "obj_type": "Point of Interest", "info": "School, university and research buildings", "NAM": "Al-Tawfiq Basic Education School", "det_method": "Automatic extraction", "or_src_id": "994", "emsn_id": "EMSN177", "fwc_type": "FLEX", "aoi_id": "1", "name": "Derna", "country": "Libya" }, "geometry": { "type": "Point", "coordinates": [ 22.624103342000069, 32.762898025000027 ] } },
{ "type": "Feature", "properties": { "obj_type": "Point of Interest", "info": "Buildings used as places of worship and for religious activities", "NAM": "Abdullah Bin Masoud Mosque", "det_method": "Automatic extraction", "or_src_id": "994", "emsn_id": "EMSN177", "fwc_type": "FLEX", "aoi_id": "1", "name": "Derna", "country": "Libya" }, "geometry": { "type": "Point", "coordinates": [ 22.613827409000066, 32.764522733000035 ] } },
{ "type": "Feature", "properties": { "obj_type": "Point of Interest", "info": "School, university and research buildings", "NAM": "Unknown", "det_method": "Automatic extraction", "or_src_id": "994", "emsn_id": "EMSN177", "fwc_type": "FLEX", "aoi_id": "1", "name": "Derna", "country": "Libya" }, "geometry": { "type": "Point", "coordinates": [ 22.642051950000052, 32.767181300000061 ] } },
{ "type": "Feature", "properties": { "obj_type": "Point of Interest", "info": "Buildings used as places of worship and for religious activities", "NAM": "Musa bin Nusayr Mosque", "det_method": "Automatic extraction", "or_src_id": "994", "emsn_id": "EMSN177", "fwc_type": "FLEX", "aoi_id": "1", "name": "Derna", "country": "Libya" }, "geometry": { "type": "Point", "coordinates": [ 22.615855563000025, 32.768006411000044 ] } },
{ "type": "Feature", "properties": { "obj_type": "Point of Interest", "info": "Buildings used as places of worship and for religious activities", "NAM": "Al-Rashid Mosque", "det_method": "Automatic extraction", "or_src_id": "994", "emsn_id": "EMSN177", "fwc_type": "FLEX", "aoi_id": "1", "name": "Derna", "country": "Libya" }, "geometry": { "type": "Point", "coordinates": [ 22.638959832000069, 32.762675497000032 ] } },
{ "type": "Feature", "properties": { "obj_type": "Point of Interest", "info": "Buildings used as places of worship and for religious activities", "NAM": "Khaled Ibn Al-Walid Mosque", "det_method": "Photo-interpretation", "or_src_id": "1", "emsn_id": "EMSN177", "fwc_type": "FLEX", "aoi_id": "1", "name": "Derna", "country": "Libya" }, "geometry": { "type": "Point", "coordinates": [ 22.644313347000036, 32.762878510000064 ] } },
{ "type": "Feature", "properties": { "obj_type": "Point of Interest", "info": "School, university and research buildings", "NAM": "Omar Almoktar", "det_method": "Automatic extraction", "or_src_id": "994", "emsn_id": "EMSN177", "fwc_type": "FLEX", "aoi_id": "1", "name": "Derna", "country": "Libya" }, "geometry": { "type": "Point", "coordinates": [ 22.636156709000034, 32.770760424000059 ] } },
{ "type": "Feature", "properties": { "obj_type": "Point of Interest", "info": "School, university and research buildings", "NAM": "Nur Primary School", "det_method": "Automatic extraction", "or_src_id": "994", "emsn_id": "EMSN177", "fwc_type": "FLEX", "aoi_id": "1", "name": "Derna", "country": "Libya" }, "geometry": { "type": "Point", "coordinates": [ 22.64272916300007, 32.770507941000062 ] } },
{ "type": "Feature", "properties": { "obj_type": "Point of Interest", "info": "School, university and research buildings", "NAM": "Martyr Abdel Fattah Amahdi School", "det_method": "Automatic extraction", "or_src_id": "994", "emsn_id": "EMSN177", "fwc_type": "FLEX", "aoi_id": "1", "name": "Derna", "country": "Libya" }, "geometry": { "type": "Point", "coordinates": [ 22.64150772000005, 32.773078594000026 ] } },
{ "type": "Feature", "properties": { "obj_type": "Point of Interest", "info": "Hospital or institutional care buildings", "NAM": "Al Harish Hospital", "det_method": "Automatic extraction", "or_src_id": "994", "emsn_id": "EMSN177", "fwc_type": "FLEX", "aoi_id": "1", "name": "Derna", "country": "Libya" }, "geometry": { "type": "Point", "coordinates": [ 22.641623693000042, 32.77144572900005 ] } },
{ "type": "Feature", "properties": { "obj_type": "Point of Interest", "info": "Institutional buildings", "NAM": "Police Station", "det_method": "Automatic extraction", "or_src_id": "994", "emsn_id": "EMSN177", "fwc_type": "FLEX", "aoi_id": "1", "name": "Derna", "country": "Libya" }, "geometry": { "type": "Point", "coordinates": [ 22.641801529000077, 32.772541485000033 ] } },
{ "type": "Feature", "properties": { "obj_type": "Point of Interest", "info": "Institutional buildings", "NAM": "Social Security Fund-Darna", "det_method": "Photo-interpretation", "or_src_id": "1", "emsn_id": "EMSN177", "fwc_type": "FLEX", "aoi_id": "1", "name": "Derna", "country": "Libya" }, "geometry": { "type": "Point", "coordinates": [ 22.638375236000059, 32.772533649000025 ] } },
{ "type": "Feature", "properties": { "obj_type": "Point of Interest", "info": "School, university and research buildings", "NAM": "Intermediate Institute of Building and Construction", "det_method": "Automatic extraction", "or_src_id": "994", "emsn_id": "EMSN177", "fwc_type": "FLEX", "aoi_id": "1", "name": "Derna", "country": "Libya" }, "geometry": { "type": "Point", "coordinates": [ 22.629332600000055, 32.765581600000075 ] } },
{ "type": "Feature", "properties": { "obj_type": "Point of Interest", "info": "School, university and research buildings", "NAM": "Umm Al-Qura School", "det_method": "Automatic extraction", "or_src_id": "994", "emsn_id": "EMSN177", "fwc_type": "FLEX", "aoi_id": "1", "name": "Derna", "country": "Libya" }, "geometry": { "type": "Point", "coordinates": [ 22.616028319000065, 32.760315838000054 ] } },
{ "type": "Feature", "properties": { "obj_type": "Point of Interest", "info": "School, university and research buildings", "NAM": "Mother of the Believers School", "det_method": "Automatic extraction", "or_src_id": "994", "emsn_id": "EMSN177", "fwc_type": "FLEX", "aoi_id": "1", "name": "Derna", "country": "Libya" }, "geometry": { "type": "Point", "coordinates": [ 22.614649384000074, 32.766337066000062 ] } },
{ "type": "Feature", "properties": { "obj_type": "Point of Interest", "info": "School, university and research buildings", "NAM": "Al-Galaa School for Basic Education", "det_method": "Automatic extraction", "or_src_id": "994", "emsn_id": "EMSN177", "fwc_type": "FLEX", "aoi_id": "1", "name": "Derna", "country": "Libya" }, "geometry": { "type": "Point", "coordinates": [ 22.646575021000046, 32.759721711000054 ] } },
{ "type": "Feature", "properties": { "obj_type": "Point of Interest", "info": "School, university and research buildings", "NAM": "Al Zahraa for Middle Education", "det_method": "Automatic extraction", "or_src_id": "994", "emsn_id": "EMSN177", "fwc_type": "FLEX", "aoi_id": "1", "name": "Derna", "country": "Libya" }, "geometry": { "type": "Point", "coordinates": [ 22.643420300000059, 32.760800750000044 ] } },
{ "type": "Feature", "properties": { "obj_type": "Point of Interest", "info": "Museums and libraries", "NAM": "Unknown", "det_method": "Automatic extraction", "or_src_id": "994", "emsn_id": "EMSN177", "fwc_type": "FLEX", "aoi_id": "1", "name": "Derna", "country": "Libya" }, "geometry": { "type": "Point", "coordinates": [ 22.64748925300006, 32.76874361800003 ] } },
{ "type": "Feature", "properties": { "obj_type": "Point of Interest", "info": "Buildings used as places of worship and for religious activities", "NAM": "Unknown", "det_method": "Automatic extraction", "or_src_id": "994", "emsn_id": "EMSN177", "fwc_type": "FLEX", "aoi_id": "1", "name": "Derna", "country": "Libya" }, "geometry": { "type": "Point", "coordinates": [ 22.630038806000073, 32.76675020700003 ] } },
{ "type": "Feature", "properties": { "obj_type": "Point of Interest", "info": "School, university and research buildings", "NAM": "Jerusalem Secondary School", "det_method": "Automatic extraction", "or_src_id": "994", "emsn_id": "EMSN177", "fwc_type": "FLEX", "aoi_id": "1", "name": "Derna", "country": "Libya" }, "geometry": { "type": "Point", "coordinates": [ 22.630020200000047, 32.767135350000046 ] } },
{ "type": "Feature", "properties": { "obj_type": "Point of Interest", "info": "Hotel buildings", "NAM": "Unknown", "det_method": "Photo-interpretation", "or_src_id": "1", "emsn_id": "EMSN177", "fwc_type": "FLEX", "aoi_id": "1", "name": "Derna", "country": "Libya" }, "geometry": { "type": "Point", "coordinates": [ 22.626056395000035, 32.771708832000058 ] } },
{ "type": "Feature", "properties": { "obj_type": "Point of Interest", "info": "Buildings used as places of worship and for religious activities", "NAM": "Al-Safa and Al-Marwa Mosque", "det_method": "Automatic extraction", "or_src_id": "994", "emsn_id": "EMSN177", "fwc_type": "FLEX", "aoi_id": "1", "name": "Derna", "country": "Libya" }, "geometry": { "type": "Point", "coordinates": [ 22.625769293000076, 32.770241184000042 ] } },
{ "type": "Feature", "properties": { "obj_type": "Point of Interest", "info": "Hotel buildings", "NAM": "Unknown", "det_method": "Automatic extraction", "or_src_id": "994", "emsn_id": "EMSN177", "fwc_type": "FLEX", "aoi_id": "1", "name": "Derna", "country": "Libya" }, "geometry": { "type": "Point", "coordinates": [ 22.64639152500007, 32.769850365000025 ] } },
{ "type": "Feature", "properties": { "obj_type": "Point of Interest", "info": "Hospital or institutional care buildings", "NAM": "Annajah Clinic", "det_method": "Automatic extraction", "or_src_id": "994", "emsn_id": "EMSN177", "fwc_type": "FLEX", "aoi_id": "1", "name": "Derna", "country": "Libya" }, "geometry": { "type": "Point", "coordinates": [ 22.647773391000044, 32.768391708000024 ] } },
{ "type": "Feature", "properties": { "obj_type": "Point of Interest", "info": "Buildings used as places of worship and for religious activities", "NAM": "Unknown", "det_method": "Automatic extraction", "or_src_id": "994", "emsn_id": "EMSN177", "fwc_type": "FLEX", "aoi_id": "1", "name": "Derna", "country": "Libya" }, "geometry": { "type": "Point", "coordinates": [ 22.647788100000071, 32.767896900000039 ] } },
{ "type": "Feature", "properties": { "obj_type": "Point of Interest", "info": "Institutional buildings", "NAM": "Court of Darna", "det_method": "Automatic extraction", "or_src_id": "994", "emsn_id": "EMSN177", "fwc_type": "FLEX", "aoi_id": "1", "name": "Derna", "country": "Libya" }, "geometry": { "type": "Point", "coordinates": [ 22.646981072000074, 32.769208439000067 ] } },
{ "type": "Feature", "properties": { "obj_type": "Point of Interest", "info": "School, university and research buildings", "NAM": "College of Medical Technology", "det_method": "Automatic extraction", "or_src_id": "994", "emsn_id": "EMSN177", "fwc_type": "FLEX", "aoi_id": "1", "name": "Derna", "country": "Libya" }, "geometry": { "type": "Point", "coordinates": [ 22.641171599000074, 32.75604429200007 ] } },
{ "type": "Feature", "properties": { "obj_type": "Point of Interest", "info": "Hospital or institutional care buildings", "NAM": "Derna Education Hospital", "det_method": "Automatic extraction", "or_src_id": "994", "emsn_id": "EMSN177", "fwc_type": "FLEX", "aoi_id": "1", "name": "Derna", "country": "Libya" }, "geometry": { "type": "Point", "coordinates": [ 22.640536859000065, 32.753323257000034 ] } },
{ "type": "Feature", "properties": { "obj_type": "Point of Interest", "info": "Buildings used as places of worship and for religious activities", "NAM": "Zuhair Bin Qais Mosque", "det_method": "Automatic extraction", "or_src_id": "994", "emsn_id": "EMSN177", "fwc_type": "FLEX", "aoi_id": "1", "name": "Derna", "country": "Libya" }, "geometry": { "type": "Point", "coordinates": [ 22.647162850000029, 32.759754500000042 ] } },
{ "type": "Feature", "properties": { "obj_type": "Point of Interest", "info": "Buildings used as places of worship and for religious activities", "NAM": "Zaid bin Thabit Mosque", "det_method": "Photo-interpretation", "or_src_id": "1", "emsn_id": "EMSN177", "fwc_type": "FLEX", "aoi_id": "1", "name": "Derna", "country": "Libya" }, "geometry": { "type": "Point", "coordinates": [ 22.620115374000022, 32.764421244000062 ] } },
{ "type": "Feature", "properties": { "obj_type": "Point of Interest", "info": "School, university and research buildings", "NAM": "School immortality", "det_method": "Photo-interpretation", "or_src_id": "1", "emsn_id": "EMSN177", "fwc_type": "FLEX", "aoi_id": "1", "name": "Derna", "country": "Libya" }, "geometry": { "type": "Point", "coordinates": [ 22.642232430000035, 32.756625253000038 ] } },
{ "type": "Feature", "properties": { "obj_type": "Point of Interest", "info": "Institutional buildings", "NAM": "Police Station", "det_method": "Photo-interpretation", "or_src_id": "1", "emsn_id": "EMSN177", "fwc_type": "FLEX", "aoi_id": "1", "name": "Derna", "country": "Libya" }, "geometry": { "type": "Point", "coordinates": [ 22.572561971000027, 32.785728900000038 ] } },
{ "type": "Feature", "properties": { "obj_type": "Point of Interest", "info": "Industrial buildings", "NAM": "Derna Power Plant", "det_method": "Automatic extraction", "or_src_id": "994", "emsn_id": "EMSN177", "fwc_type": "FLEX", "aoi_id": "1", "name": "Derna", "country": "Libya" }, "geometry": { "type": "Point", "coordinates": [ 22.587321625000072, 32.781059783000046 ] } },
{ "type": "Feature", "properties": { "obj_type": "Point of Interest", "info": "Industrial buildings", "NAM": "Water Desalination Plant - Derna", "det_method": "Automatic extraction", "or_src_id": "994", "emsn_id": "EMSN177", "fwc_type": "FLEX", "aoi_id": "1", "name": "Derna", "country": "Libya" }, "geometry": { "type": "Point", "coordinates": [ 22.586642942000026, 32.780560915000024 ] } },
{ "type": "Feature", "properties": { "obj_type": "Point of Interest", "info": "Public entertainment buildings", "NAM": "Unknown", "det_method": "Photo-interpretation", "or_src_id": "1", "emsn_id": "EMSN177", "fwc_type": "FLEX", "aoi_id": "1", "name": "Derna", "country": "Libya" }, "geometry": { "type": "Point", "coordinates": [ 22.554158113000028, 32.793123760000071 ] } },
{ "type": "Feature", "properties": { "obj_type": "Point of Interest", "info": "Buildings used as places of worship and for religious activities", "NAM": "Dar al-Salam Mosque", "det_method": "Photo-interpretation", "or_src_id": "1", "emsn_id": "EMSN177", "fwc_type": "FLEX", "aoi_id": "1", "name": "Derna", "country": "Libya" }, "geometry": { "type": "Point", "coordinates": [ 22.597911045000046, 32.771104414000035 ] } },
{ "type": "Feature", "properties": { "obj_type": "Point of Interest", "info": "Buildings used as places of worship and for religious activities", "NAM": "Abu Bakr Al-Siddiq Mosque", "det_method": "Automatic extraction", "or_src_id": "994", "emsn_id": "EMSN177", "fwc_type": "FLEX", "aoi_id": "1", "name": "Derna", "country": "Libya" }, "geometry": { "type": "Point", "coordinates": [ 22.607281461000071, 32.768767149000041 ] } },
{ "type": "Feature", "properties": { "obj_type": "Point of Interest", "info": "School, university and research buildings", "NAM": "Al-Siddiq School Police Station", "det_method": "Automatic extraction", "or_src_id": "994", "emsn_id": "EMSN177", "fwc_type": "FLEX", "aoi_id": "1", "name": "Derna", "country": "Libya" }, "geometry": { "type": "Point", "coordinates": [ 22.605705261000026, 32.76536292000003 ] } },
{ "type": "Feature", "properties": { "obj_type": "Point of Interest", "info": "School, university and research buildings", "NAM": "Unknown", "det_method": "Automatic extraction", "or_src_id": "994", "emsn_id": "EMSN177", "fwc_type": "FLEX", "aoi_id": "1", "name": "Derna", "country": "Libya" }, "geometry": { "type": "Point", "coordinates": [ 22.514910979000035, 32.65993439500005 ] } },
{ "type": "Feature", "properties": { "obj_type": "Point of Interest", "info": "Institutional buildings", "NAM": "Al-Fattayah Police Station", "det_method": "Photo-interpretation", "or_src_id": "1", "emsn_id": "EMSN177", "fwc_type": "FLEX", "aoi_id": "1", "name": "Derna", "country": "Libya" }, "geometry": { "type": "Point", "coordinates": [ 22.681423317000053, 32.698521824000068 ] } },
{ "type": "Feature", "properties": { "obj_type": "Point of Interest", "info": "School, university and research buildings", "NAM": "Martyrs Mosque on Friday", "det_method": "Photo-interpretation", "or_src_id": "1", "emsn_id": "EMSN177", "fwc_type": "FLEX", "aoi_id": "1", "name": "Derna", "country": "Libya" }, "geometry": { "type": "Point", "coordinates": [ 22.597419607000063, 32.736023679000027 ] } },
{ "type": "Feature", "properties": { "obj_type": "Point of Interest", "info": "Institutional buildings", "NAM": "Derna Police Traffic Department Center", "det_method": "Automatic extraction", "or_src_id": "994", "emsn_id": "EMSN177", "fwc_type": "FLEX", "aoi_id": "1", "name": "Derna", "country": "Libya" }, "geometry": { "type": "Point", "coordinates": [ 22.641735825000069, 32.770108174000029 ] } },
{ "type": "Feature", "properties": { "obj_type": "Point of Interest", "info": "Waterfalls", "NAM": "Derna Waterfall", "det_method": "Photo-interpretation", "or_src_id": "1", "emsn_id": "EMSN177", "fwc_type": "FLEX", "aoi_id": "1", "name": "Derna", "country": "Libya" }, "geometry": { "type": "Point", "coordinates": [ 22.615115800000069, 32.718380600000046 ] } }
]
}
