{
"type": "FeatureCollection",
"name": "EMSN177_FLEX_AOI01_P02REF_SettlementP_v01",
"features": [
{ "type": "Feature", "properties": { "obj_type": "Placename", "info": "Locality", "NAM": "Sahil Al Mili", "det_method": "Ancillary data", "or_src_id": "993", "emsn_id": "EMSN177", "fwc_type": "FLEX", "aoi_id": "1", "name": "Derna", "country": "Libya" }, "geometry": { "type": "Point", "coordinates": [ 22.66689, 32.75331 ] } },
{ "type": "Feature", "properties": { "obj_type": "Placename", "info": "Locality", "NAM": "Qalat An Nazurah", "det_method": "Ancillary data", "or_src_id": "993", "emsn_id": "EMSN177", "fwc_type": "FLEX", "aoi_id": "1", "name": "Derna", "country": "Libya" }, "geometry": { "type": "Point", "coordinates": [ 22.61197, 32.75097 ] } },
{ "type": "Feature", "properties": { "obj_type": "Placename", "info": "Locality", "NAM": "Ra's Bu Azzah", "det_method": "Ancillary data", "or_src_id": "993", "emsn_id": "EMSN177", "fwc_type": "FLEX", "aoi_id": "1", "name": "Derna", "country": "Libya" }, "geometry": { "type": "Point", "coordinates": [ 22.644470001000059, 32.77501 ] } },
{ "type": "Feature", "properties": { "obj_type": "Placename", "info": "Locality", "NAM": "Sirat Bu Umayyir", "det_method": "Ancillary data", "or_src_id": "993", "emsn_id": "EMSN177", "fwc_type": "FLEX", "aoi_id": "1", "name": "Derna", "country": "Libya" }, "geometry": { "type": "Point", "coordinates": [ 22.64997, 32.72665 ] } },
{ "type": "Feature", "properties": { "obj_type": "Placename", "info": "Locality", "NAM": "Halq Az Zahhaf", "det_method": "Ancillary data", "or_src_id": "993", "emsn_id": "EMSN177", "fwc_type": "FLEX", "aoi_id": "1", "name": "Derna", "country": "Libya" }, "geometry": { "type": "Point", "coordinates": [ 22.61954, 32.72904 ] } },
{ "type": "Feature", "properties": { "obj_type": "Placename", "info": "Locality", "NAM": "Qalat Sidi Abd Allah", "det_method": "Ancillary data", "or_src_id": "993", "emsn_id": "EMSN177", "fwc_type": "FLEX", "aoi_id": "1", "name": "Derna", "country": "Libya" }, "geometry": { "type": "Point", "coordinates": [ 22.60083, 32.74944 ] } },
{ "type": "Feature", "properties": { "obj_type": "Placename", "info": "City", "NAM": "Derna", "det_method": "Ancillary data", "or_src_id": "993", "emsn_id": "EMSN177", "fwc_type": "FLEX", "aoi_id": "1", "name": "Derna", "country": "Libya" }, "geometry": { "type": "Point", "coordinates": [ 22.63669, 32.76704 ] } },
{ "type": "Feature", "properties": { "obj_type": "Placename", "info": "Locality", "NAM": "Ra's Al Mataris", "det_method": "Ancillary data", "or_src_id": "993", "emsn_id": "EMSN177", "fwc_type": "FLEX", "aoi_id": "1", "name": "Derna", "country": "Libya" }, "geometry": { "type": "Point", "coordinates": [ 22.65234, 32.76687 ] } },
{ "type": "Feature", "properties": { "obj_type": "Placename", "info": "Locality", "NAM": "Qalat Shihah", "det_method": "Ancillary data", "or_src_id": "993", "emsn_id": "EMSN177", "fwc_type": "FLEX", "aoi_id": "1", "name": "Derna", "country": "Libya" }, "geometry": { "type": "Point", "coordinates": [ 22.61121, 32.75696 ] } },
{ "type": "Feature", "properties": { "obj_type": "Placename", "info": "Locality", "NAM": "Qalat Qarnu", "det_method": "Ancillary data", "or_src_id": "993", "emsn_id": "EMSN177", "fwc_type": "FLEX", "aoi_id": "1", "name": "Derna", "country": "Libya" }, "geometry": { "type": "Point", "coordinates": [ 22.589239999000029, 32.67015 ] } },
{ "type": "Feature", "properties": { "obj_type": "Placename", "info": "Locality", "NAM": "Ghawt Qarnu", "det_method": "Ancillary data", "or_src_id": "993", "emsn_id": "EMSN177", "fwc_type": "FLEX", "aoi_id": "1", "name": "Derna", "country": "Libya" }, "geometry": { "type": "Point", "coordinates": [ 22.58936, 32.67805 ] } },
{ "type": "Feature", "properties": { "obj_type": "Placename", "info": "Locality", "NAM": "Sahl Aqilah", "det_method": "Ancillary data", "or_src_id": "993", "emsn_id": "EMSN177", "fwc_type": "FLEX", "aoi_id": "1", "name": "Derna", "country": "Libya" }, "geometry": { "type": "Point", "coordinates": [ 22.58237, 32.77291 ] } },
{ "type": "Feature", "properties": { "obj_type": "Placename", "info": "Locality", "NAM": "QAlat Al Ghirariyah", "det_method": "Ancillary data", "or_src_id": "993", "emsn_id": "EMSN177", "fwc_type": "FLEX", "aoi_id": "1", "name": "Derna", "country": "Libya" }, "geometry": { "type": "Point", "coordinates": [ 22.59321, 32.76114 ] } },
{ "type": "Feature", "properties": { "obj_type": "Placename", "info": "Locality", "NAM": "Ra's Bu Musafir", "det_method": "Ancillary data", "or_src_id": "993", "emsn_id": "EMSN177", "fwc_type": "FLEX", "aoi_id": "1", "name": "Derna", "country": "Libya" }, "geometry": { "type": "Point", "coordinates": [ 22.58695, 32.78366 ] } },
{ "type": "Feature", "properties": { "obj_type": "Placename", "info": "Locality", "NAM": "Al Hatiyah", "det_method": "Ancillary data", "or_src_id": "993", "emsn_id": "EMSN177", "fwc_type": "FLEX", "aoi_id": "1", "name": "Derna", "country": "Libya" }, "geometry": { "type": "Point", "coordinates": [ 22.56036, 32.78418 ] } },
{ "type": "Feature", "properties": { "obj_type": "Placename", "info": "Locality", "NAM": "Qarat Al Ghirariyah", "det_method": "Ancillary data", "or_src_id": "993", "emsn_id": "EMSN177", "fwc_type": "FLEX", "aoi_id": "1", "name": "Derna", "country": "Libya" }, "geometry": { "type": "Point", "coordinates": [ 22.56667, 32.75 ] } },
{ "type": "Feature", "properties": { "obj_type": "Placename", "info": "Locality", "NAM": "Ghawt Bu Mijanah", "det_method": "Ancillary data", "or_src_id": "993", "emsn_id": "EMSN177", "fwc_type": "FLEX", "aoi_id": "1", "name": "Derna", "country": "Libya" }, "geometry": { "type": "Point", "coordinates": [ 22.56877, 32.69214 ] } },
{ "type": "Feature", "properties": { "obj_type": "Placename", "info": "Village", "NAM": "Al Fataieh-Darnah", "det_method": "Ancillary data", "or_src_id": "994", "emsn_id": "EMSN177", "fwc_type": "FLEX", "aoi_id": "1", "name": "Derna", "country": "Libya" }, "geometry": { "type": "Point", "coordinates": [ 22.680484300000046, 32.700199100000077 ] } }
]
}
