{
"type": "FeatureCollection",
"name": "EMSN177_FLEX_AOI01_P02REF_SpotHeight_v01",
"features": [
{ "type": "Feature", "properties": { "obj_type": "Spot Elevation Point", "NAM": "Unknown", "MSL": 264.0, "det_method": "Modelling", "or_src_id": "981", "emsn_id": "EMSN177", "fwc_type": "FLEX", "aoi_id": "1", "name": "Derna", "country": "Libya" }, "geometry": { "type": "Point", "coordinates": [ 22.56598671100005, 32.769733372000076 ] } },
{ "type": "Feature", "properties": { "obj_type": "Spot Elevation Point", "NAM": "Unknown", "MSL": 261.0, "det_method": "Modelling", "or_src_id": "981", "emsn_id": "EMSN177", "fwc_type": "FLEX", "aoi_id": "1", "name": "Derna", "country": "Libya" }, "geometry": { "type": "Point", "coordinates": [ 22.552931156000056, 32.765844483000024 ] } },
{ "type": "Feature", "properties": { "obj_type": "Spot Elevation Point", "NAM": "Unknown", "MSL": 51.0, "det_method": "Modelling", "or_src_id": "981", "emsn_id": "EMSN177", "fwc_type": "FLEX", "aoi_id": "1", "name": "Derna", "country": "Libya" }, "geometry": { "type": "Point", "coordinates": [ 22.619875600000057, 32.765844483000024 ] } },
{ "type": "Feature", "properties": { "obj_type": "Spot Elevation Point", "NAM": "Unknown", "MSL": 201.0, "det_method": "Modelling", "or_src_id": "981", "emsn_id": "EMSN177", "fwc_type": "FLEX", "aoi_id": "1", "name": "Derna", "country": "Libya" }, "geometry": { "type": "Point", "coordinates": [ 22.546542267000063, 32.75501114900004 ] } },
{ "type": "Feature", "properties": { "obj_type": "Spot Elevation Point", "NAM": "Unknown", "MSL": 250.0, "det_method": "Modelling", "or_src_id": "981", "emsn_id": "EMSN177", "fwc_type": "FLEX", "aoi_id": "1", "name": "Derna", "country": "Libya" }, "geometry": { "type": "Point", "coordinates": [ 22.560153378000052, 32.754455594000035 ] } },
{ "type": "Feature", "properties": { "obj_type": "Spot Elevation Point", "NAM": "Unknown", "MSL": 228.0, "det_method": "Modelling", "or_src_id": "981", "emsn_id": "EMSN177", "fwc_type": "FLEX", "aoi_id": "1", "name": "Derna", "country": "Libya" }, "geometry": { "type": "Point", "coordinates": [ 22.543208934000063, 32.753344483000035 ] } },
{ "type": "Feature", "properties": { "obj_type": "Spot Elevation Point", "NAM": "Unknown", "MSL": 266.0, "det_method": "Modelling", "or_src_id": "981", "emsn_id": "EMSN177", "fwc_type": "FLEX", "aoi_id": "1", "name": "Derna", "country": "Libya" }, "geometry": { "type": "Point", "coordinates": [ 22.569042267000043, 32.753344483000035 ] } },
{ "type": "Feature", "properties": { "obj_type": "Spot Elevation Point", "NAM": "Unknown", "MSL": 151.0, "det_method": "Modelling", "or_src_id": "981", "emsn_id": "EMSN177", "fwc_type": "FLEX", "aoi_id": "1", "name": "Derna", "country": "Libya" }, "geometry": { "type": "Point", "coordinates": [ 22.544320044000074, 32.752233372000035 ] } },
{ "type": "Feature", "properties": { "obj_type": "Spot Elevation Point", "NAM": "Unknown", "MSL": 199.0, "det_method": "Modelling", "or_src_id": "981", "emsn_id": "EMSN177", "fwc_type": "FLEX", "aoi_id": "1", "name": "Derna", "country": "Libya" }, "geometry": { "type": "Point", "coordinates": [ 22.620153378000055, 32.752233372000035 ] } },
{ "type": "Feature", "properties": { "obj_type": "Spot Elevation Point", "NAM": "Unknown", "MSL": 50.0, "det_method": "Modelling", "or_src_id": "981", "emsn_id": "EMSN177", "fwc_type": "FLEX", "aoi_id": "1", "name": "Derna", "country": "Libya" }, "geometry": { "type": "Point", "coordinates": [ 22.689597822000053, 32.744455594000044 ] } },
{ "type": "Feature", "properties": { "obj_type": "Spot Elevation Point", "NAM": "Unknown", "MSL": 152.0, "det_method": "Modelling", "or_src_id": "981", "emsn_id": "EMSN177", "fwc_type": "FLEX", "aoi_id": "1", "name": "Derna", "country": "Libya" }, "geometry": { "type": "Point", "coordinates": [ 22.614597823000054, 32.743344483000044 ] } },
{ "type": "Feature", "properties": { "obj_type": "Spot Elevation Point", "NAM": "Unknown", "MSL": 104.0, "det_method": "Modelling", "or_src_id": "981", "emsn_id": "EMSN177", "fwc_type": "FLEX", "aoi_id": "1", "name": "Derna", "country": "Libya" }, "geometry": { "type": "Point", "coordinates": [ 22.630986711000048, 32.740566706000038 ] } },
{ "type": "Feature", "properties": { "obj_type": "Spot Elevation Point", "NAM": "Unknown", "MSL": 254.0, "det_method": "Modelling", "or_src_id": "981", "emsn_id": "EMSN177", "fwc_type": "FLEX", "aoi_id": "1", "name": "Derna", "country": "Libya" }, "geometry": { "type": "Point", "coordinates": [ 22.636264489000041, 32.739733372000046 ] } },
{ "type": "Feature", "properties": { "obj_type": "Spot Elevation Point", "NAM": "Unknown", "MSL": 302.0, "det_method": "Modelling", "or_src_id": "981", "emsn_id": "EMSN177", "fwc_type": "FLEX", "aoi_id": "1", "name": "Derna", "country": "Libya" }, "geometry": { "type": "Point", "coordinates": [ 22.533486711000023, 32.739455594000049 ] } },
{ "type": "Feature", "properties": { "obj_type": "Spot Elevation Point", "NAM": "Unknown", "MSL": 254.0, "det_method": "Modelling", "or_src_id": "981", "emsn_id": "EMSN177", "fwc_type": "FLEX", "aoi_id": "1", "name": "Derna", "country": "Libya" }, "geometry": { "type": "Point", "coordinates": [ 22.608208934000061, 32.738622261000046 ] } },
{ "type": "Feature", "properties": { "obj_type": "Spot Elevation Point", "NAM": "Unknown", "MSL": 301.0, "det_method": "Modelling", "or_src_id": "981", "emsn_id": "EMSN177", "fwc_type": "FLEX", "aoi_id": "1", "name": "Derna", "country": "Libya" }, "geometry": { "type": "Point", "coordinates": [ 22.536264489000075, 32.738344483000049 ] } },
{ "type": "Feature", "properties": { "obj_type": "Spot Elevation Point", "NAM": "Unknown", "MSL": 252.0, "det_method": "Modelling", "or_src_id": "981", "emsn_id": "EMSN177", "fwc_type": "FLEX", "aoi_id": "1", "name": "Derna", "country": "Libya" }, "geometry": { "type": "Point", "coordinates": [ 22.665431156000068, 32.738344483000049 ] } },
{ "type": "Feature", "properties": { "obj_type": "Spot Elevation Point", "NAM": "Unknown", "MSL": 105.0, "det_method": "Modelling", "or_src_id": "981", "emsn_id": "EMSN177", "fwc_type": "FLEX", "aoi_id": "1", "name": "Derna", "country": "Libya" }, "geometry": { "type": "Point", "coordinates": [ 22.633486711000046, 32.736955594000051 ] } },
{ "type": "Feature", "properties": { "obj_type": "Spot Elevation Point", "NAM": "Unknown", "MSL": 255.0, "det_method": "Modelling", "or_src_id": "981", "emsn_id": "EMSN177", "fwc_type": "FLEX", "aoi_id": "1", "name": "Derna", "country": "Libya" }, "geometry": { "type": "Point", "coordinates": [ 22.657097823000072, 32.735288928000045 ] } },
{ "type": "Feature", "properties": { "obj_type": "Spot Elevation Point", "NAM": "Unknown", "MSL": 256.0, "det_method": "Modelling", "or_src_id": "981", "emsn_id": "EMSN177", "fwc_type": "FLEX", "aoi_id": "1", "name": "Derna", "country": "Libya" }, "geometry": { "type": "Point", "coordinates": [ 22.625986711000053, 32.734455594000053 ] } },
{ "type": "Feature", "properties": { "obj_type": "Spot Elevation Point", "NAM": "Unknown", "MSL": 254.0, "det_method": "Modelling", "or_src_id": "981", "emsn_id": "EMSN177", "fwc_type": "FLEX", "aoi_id": "1", "name": "Derna", "country": "Libya" }, "geometry": { "type": "Point", "coordinates": [ 22.602375599000027, 32.732511149000061 ] } },
{ "type": "Feature", "properties": { "obj_type": "Spot Elevation Point", "NAM": "Unknown", "MSL": 253.0, "det_method": "Modelling", "or_src_id": "981", "emsn_id": "EMSN177", "fwc_type": "FLEX", "aoi_id": "1", "name": "Derna", "country": "Libya" }, "geometry": { "type": "Point", "coordinates": [ 22.584320044000037, 32.730844483000055 ] } },
{ "type": "Feature", "properties": { "obj_type": "Spot Elevation Point", "NAM": "Unknown", "MSL": 250.0, "det_method": "Modelling", "or_src_id": "981", "emsn_id": "EMSN177", "fwc_type": "FLEX", "aoi_id": "1", "name": "Derna", "country": "Libya" }, "geometry": { "type": "Point", "coordinates": [ 22.632931156000041, 32.730288927000061 ] } },
{ "type": "Feature", "properties": { "obj_type": "Spot Elevation Point", "NAM": "Unknown", "MSL": 158.0, "det_method": "Modelling", "or_src_id": "981", "emsn_id": "EMSN177", "fwc_type": "FLEX", "aoi_id": "1", "name": "Derna", "country": "Libya" }, "geometry": { "type": "Point", "coordinates": [ 22.589320045000022, 32.72917781600006 ] } },
{ "type": "Feature", "properties": { "obj_type": "Spot Elevation Point", "NAM": "Unknown", "MSL": 263.0, "det_method": "Modelling", "or_src_id": "981", "emsn_id": "EMSN177", "fwc_type": "FLEX", "aoi_id": "1", "name": "Derna", "country": "Libya" }, "geometry": { "type": "Point", "coordinates": [ 22.579597822000039, 32.726400039000055 ] } },
{ "type": "Feature", "properties": { "obj_type": "Spot Elevation Point", "NAM": "Unknown", "MSL": 110.0, "det_method": "Modelling", "or_src_id": "981", "emsn_id": "EMSN177", "fwc_type": "FLEX", "aoi_id": "1", "name": "Derna", "country": "Libya" }, "geometry": { "type": "Point", "coordinates": [ 22.620431155000063, 32.725288927000065 ] } },
{ "type": "Feature", "properties": { "obj_type": "Spot Elevation Point", "NAM": "Unknown", "MSL": 251.0, "det_method": "Modelling", "or_src_id": "981", "emsn_id": "EMSN177", "fwc_type": "FLEX", "aoi_id": "1", "name": "Derna", "country": "Libya" }, "geometry": { "type": "Point", "coordinates": [ 22.58848671100003, 32.721400039000059 ] } },
{ "type": "Feature", "properties": { "obj_type": "Spot Elevation Point", "NAM": "Unknown", "MSL": 261.0, "det_method": "Modelling", "or_src_id": "981", "emsn_id": "EMSN177", "fwc_type": "FLEX", "aoi_id": "1", "name": "Derna", "country": "Libya" }, "geometry": { "type": "Point", "coordinates": [ 22.566820044000053, 32.720288928000059 ] } },
{ "type": "Feature", "properties": { "obj_type": "Spot Elevation Point", "NAM": "Unknown", "MSL": 251.0, "det_method": "Modelling", "or_src_id": "981", "emsn_id": "EMSN177", "fwc_type": "FLEX", "aoi_id": "1", "name": "Derna", "country": "Libya" }, "geometry": { "type": "Point", "coordinates": [ 22.676264489000062, 32.719177816000069 ] } },
{ "type": "Feature", "properties": { "obj_type": "Spot Elevation Point", "NAM": "Unknown", "MSL": 261.0, "det_method": "Modelling", "or_src_id": "981", "emsn_id": "EMSN177", "fwc_type": "FLEX", "aoi_id": "1", "name": "Derna", "country": "Libya" }, "geometry": { "type": "Point", "coordinates": [ 22.559042267000052, 32.717788928000061 ] } },
{ "type": "Feature", "properties": { "obj_type": "Spot Elevation Point", "NAM": "Unknown", "MSL": 254.0, "det_method": "Modelling", "or_src_id": "981", "emsn_id": "EMSN177", "fwc_type": "FLEX", "aoi_id": "1", "name": "Derna", "country": "Libya" }, "geometry": { "type": "Point", "coordinates": [ 22.596820044000026, 32.717788927000072 ] } },
{ "type": "Feature", "properties": { "obj_type": "Spot Elevation Point", "NAM": "Unknown", "MSL": 250.0, "det_method": "Modelling", "or_src_id": "981", "emsn_id": "EMSN177", "fwc_type": "FLEX", "aoi_id": "1", "name": "Derna", "country": "Libya" }, "geometry": { "type": "Point", "coordinates": [ 22.640986711000039, 32.715288928000064 ] } },
{ "type": "Feature", "properties": { "obj_type": "Spot Elevation Point", "NAM": "Unknown", "MSL": 251.0, "det_method": "Modelling", "or_src_id": "981", "emsn_id": "EMSN177", "fwc_type": "FLEX", "aoi_id": "1", "name": "Derna", "country": "Libya" }, "geometry": { "type": "Point", "coordinates": [ 22.639320044000044, 32.711400038000079 ] } },
{ "type": "Feature", "properties": { "obj_type": "Spot Elevation Point", "NAM": "Unknown", "MSL": 258.0, "det_method": "Modelling", "or_src_id": "981", "emsn_id": "EMSN177", "fwc_type": "FLEX", "aoi_id": "1", "name": "Derna", "country": "Libya" }, "geometry": { "type": "Point", "coordinates": [ 22.632375600000046, 32.709733372000073 ] } },
{ "type": "Feature", "properties": { "obj_type": "Spot Elevation Point", "NAM": "Unknown", "MSL": 312.0, "det_method": "Modelling", "or_src_id": "981", "emsn_id": "EMSN177", "fwc_type": "FLEX", "aoi_id": "1", "name": "Derna", "country": "Libya" }, "geometry": { "type": "Point", "coordinates": [ 22.535431156000072, 32.708900038000024 ] } },
{ "type": "Feature", "properties": { "obj_type": "Spot Elevation Point", "NAM": "Unknown", "MSL": 300.0, "det_method": "Modelling", "or_src_id": "981", "emsn_id": "EMSN177", "fwc_type": "FLEX", "aoi_id": "1", "name": "Derna", "country": "Libya" }, "geometry": { "type": "Point", "coordinates": [ 22.521820045000027, 32.708622261000073 ] } },
{ "type": "Feature", "properties": { "obj_type": "Spot Elevation Point", "NAM": "Unknown", "MSL": 253.0, "det_method": "Modelling", "or_src_id": "981", "emsn_id": "EMSN177", "fwc_type": "FLEX", "aoi_id": "1", "name": "Derna", "country": "Libya" }, "geometry": { "type": "Point", "coordinates": [ 22.639320044000044, 32.707788927000024 ] } },
{ "type": "Feature", "properties": { "obj_type": "Spot Elevation Point", "NAM": "Unknown", "MSL": 99.0, "det_method": "Modelling", "or_src_id": "981", "emsn_id": "EMSN177", "fwc_type": "FLEX", "aoi_id": "1", "name": "Derna", "country": "Libya" }, "geometry": { "type": "Point", "coordinates": [ 22.620153378000055, 32.707511149000027 ] } },
{ "type": "Feature", "properties": { "obj_type": "Spot Elevation Point", "NAM": "Unknown", "MSL": 252.0, "det_method": "Modelling", "or_src_id": "981", "emsn_id": "EMSN177", "fwc_type": "FLEX", "aoi_id": "1", "name": "Derna", "country": "Libya" }, "geometry": { "type": "Point", "coordinates": [ 22.646264489000032, 32.706677816000024 ] } },
{ "type": "Feature", "properties": { "obj_type": "Spot Elevation Point", "NAM": "Unknown", "MSL": 250.0, "det_method": "Modelling", "or_src_id": "981", "emsn_id": "EMSN177", "fwc_type": "FLEX", "aoi_id": "1", "name": "Derna", "country": "Libya" }, "geometry": { "type": "Point", "coordinates": [ 22.542097822000073, 32.706400039000073 ] } },
{ "type": "Feature", "properties": { "obj_type": "Spot Elevation Point", "NAM": "Unknown", "MSL": 270.0, "det_method": "Modelling", "or_src_id": "981", "emsn_id": "EMSN177", "fwc_type": "FLEX", "aoi_id": "1", "name": "Derna", "country": "Libya" }, "geometry": { "type": "Point", "coordinates": [ 22.614875600000062, 32.703344483000024 ] } },
{ "type": "Feature", "properties": { "obj_type": "Spot Elevation Point", "NAM": "Unknown", "MSL": 301.0, "det_method": "Modelling", "or_src_id": "981", "emsn_id": "EMSN177", "fwc_type": "FLEX", "aoi_id": "1", "name": "Derna", "country": "Libya" }, "geometry": { "type": "Point", "coordinates": [ 22.570708933000049, 32.696122261000028 ] } },
{ "type": "Feature", "properties": { "obj_type": "Spot Elevation Point", "NAM": "Unknown", "MSL": 350.0, "det_method": "Modelling", "or_src_id": "981", "emsn_id": "EMSN177", "fwc_type": "FLEX", "aoi_id": "1", "name": "Derna", "country": "Libya" }, "geometry": { "type": "Point", "coordinates": [ 22.530431156000077, 32.684733372000039 ] } },
{ "type": "Feature", "properties": { "obj_type": "Spot Elevation Point", "NAM": "Unknown", "MSL": 303.0, "det_method": "Modelling", "or_src_id": "981", "emsn_id": "EMSN177", "fwc_type": "FLEX", "aoi_id": "1", "name": "Derna", "country": "Libya" }, "geometry": { "type": "Point", "coordinates": [ 22.577653378000036, 32.684455594000042 ] } },
{ "type": "Feature", "properties": { "obj_type": "Spot Elevation Point", "NAM": "Unknown", "MSL": 250.0, "det_method": "Modelling", "or_src_id": "981", "emsn_id": "EMSN177", "fwc_type": "FLEX", "aoi_id": "1", "name": "Derna", "country": "Libya" }, "geometry": { "type": "Point", "coordinates": [ 22.679320044000065, 32.678344483000046 ] } },
{ "type": "Feature", "properties": { "obj_type": "Spot Elevation Point", "NAM": "Unknown", "MSL": 302.0, "det_method": "Modelling", "or_src_id": "981", "emsn_id": "EMSN177", "fwc_type": "FLEX", "aoi_id": "1", "name": "Derna", "country": "Libya" }, "geometry": { "type": "Point", "coordinates": [ 22.614320044000067, 32.671955594000053 ] } },
{ "type": "Feature", "properties": { "obj_type": "Spot Elevation Point", "NAM": "Unknown", "MSL": 307.0, "det_method": "Modelling", "or_src_id": "981", "emsn_id": "EMSN177", "fwc_type": "FLEX", "aoi_id": "1", "name": "Derna", "country": "Libya" }, "geometry": { "type": "Point", "coordinates": [ 22.578208933000042, 32.671400039000048 ] } },
{ "type": "Feature", "properties": { "obj_type": "Spot Elevation Point", "NAM": "Unknown", "MSL": 309.0, "det_method": "Modelling", "or_src_id": "981", "emsn_id": "EMSN177", "fwc_type": "FLEX", "aoi_id": "1", "name": "Derna", "country": "Libya" }, "geometry": { "type": "Point", "coordinates": [ 22.560153378000052, 32.670844483000053 ] } },
{ "type": "Feature", "properties": { "obj_type": "Spot Elevation Point", "NAM": "Unknown", "MSL": 310.0, "det_method": "Modelling", "or_src_id": "981", "emsn_id": "EMSN177", "fwc_type": "FLEX", "aoi_id": "1", "name": "Derna", "country": "Libya" }, "geometry": { "type": "Point", "coordinates": [ 22.596542266000029, 32.669455594000055 ] } },
{ "type": "Feature", "properties": { "obj_type": "Spot Elevation Point", "NAM": "Unknown", "MSL": 301.0, "det_method": "Modelling", "or_src_id": "981", "emsn_id": "EMSN177", "fwc_type": "FLEX", "aoi_id": "1", "name": "Derna", "country": "Libya" }, "geometry": { "type": "Point", "coordinates": [ 22.580986712000026, 32.66890003900005 ] } },
{ "type": "Feature", "properties": { "obj_type": "Spot Elevation Point", "NAM": "Unknown", "MSL": 300.0, "det_method": "Modelling", "or_src_id": "981", "emsn_id": "EMSN177", "fwc_type": "FLEX", "aoi_id": "1", "name": "Derna", "country": "Libya" }, "geometry": { "type": "Point", "coordinates": [ 22.619875600000057, 32.668900038000061 ] } },
{ "type": "Feature", "properties": { "obj_type": "Spot Elevation Point", "NAM": "Unknown", "MSL": 301.0, "det_method": "Modelling", "or_src_id": "981", "emsn_id": "EMSN177", "fwc_type": "FLEX", "aoi_id": "1", "name": "Derna", "country": "Libya" }, "geometry": { "type": "Point", "coordinates": [ 22.622375600000055, 32.660288927000067 ] } },
{ "type": "Feature", "properties": { "obj_type": "Spot Elevation Point", "NAM": "Unknown", "MSL": 303.0, "det_method": "Modelling", "or_src_id": "981", "emsn_id": "EMSN177", "fwc_type": "FLEX", "aoi_id": "1", "name": "Derna", "country": "Libya" }, "geometry": { "type": "Point", "coordinates": [ 22.582375600000034, 32.656955594000067 ] } },
{ "type": "Feature", "properties": { "obj_type": "Spot Elevation Point", "NAM": "Unknown", "MSL": 300.0, "det_method": "Modelling", "or_src_id": "981", "emsn_id": "EMSN177", "fwc_type": "FLEX", "aoi_id": "1", "name": "Derna", "country": "Libya" }, "geometry": { "type": "Point", "coordinates": [ 22.599320044000024, 32.656400038000072 ] } },
{ "type": "Feature", "properties": { "obj_type": "Spot Elevation Point", "NAM": "Unknown", "MSL": 204.0, "det_method": "Modelling", "or_src_id": "981", "emsn_id": "EMSN177", "fwc_type": "FLEX", "aoi_id": "1", "name": "Derna", "country": "Libya" }, "geometry": { "type": "Point", "coordinates": [ 22.576820044000044, 32.654733372000067 ] } },
{ "type": "Feature", "properties": { "obj_type": "Spot Elevation Point", "NAM": "Unknown", "MSL": 351.0, "det_method": "Modelling", "or_src_id": "981", "emsn_id": "EMSN177", "fwc_type": "FLEX", "aoi_id": "1", "name": "Derna", "country": "Libya" }, "geometry": { "type": "Point", "coordinates": [ 22.567097822000051, 32.649455594000074 ] } },
{ "type": "Feature", "properties": { "obj_type": "Spot Elevation Point", "NAM": "Unknown", "MSL": 304.0, "det_method": "Modelling", "or_src_id": "981", "emsn_id": "EMSN177", "fwc_type": "FLEX", "aoi_id": "1", "name": "Derna", "country": "Libya" }, "geometry": { "type": "Point", "coordinates": [ 22.600708933000078, 32.648344483000074 ] } },
{ "type": "Feature", "properties": { "obj_type": "Spot Elevation Point", "NAM": "Unknown", "MSL": 348.0, "det_method": "Modelling", "or_src_id": "981", "emsn_id": "EMSN177", "fwc_type": "FLEX", "aoi_id": "1", "name": "Derna", "country": "Libya" }, "geometry": { "type": "Point", "coordinates": [ 22.570708934000038, 32.644455594000078 ] } },
{ "type": "Feature", "properties": { "obj_type": "Spot Elevation Point", "NAM": "Unknown", "MSL": 300.0, "det_method": "Modelling", "or_src_id": "981", "emsn_id": "EMSN177", "fwc_type": "FLEX", "aoi_id": "1", "name": "Derna", "country": "Libya" }, "geometry": { "type": "Point", "coordinates": [ 22.623764489000052, 32.643344483000078 ] } },
{ "type": "Feature", "properties": { "obj_type": "Spot Elevation Point", "NAM": "Unknown", "MSL": 349.0, "det_method": "Modelling", "or_src_id": "981", "emsn_id": "EMSN177", "fwc_type": "FLEX", "aoi_id": "1", "name": "Derna", "country": "Libya" }, "geometry": { "type": "Point", "coordinates": [ 22.568764489000046, 32.642511149000029 ] } }
]
}
