{
"type": "FeatureCollection",
"name": "EMSN177_FLEX_AOI01_P02REF_IndustryL_v01",
"features": [
{ "type": "Feature", "properties": { "obj_type": "Power Line", "FUN": "Fully functional", "det_method": "Ancillary data", "or_src_id": "994", "emsn_id": "EMSN177", "fwc_type": "FLEX", "aoi_id": "1", "name": "Derna", "country": "Libya" }, "geometry": { "type": "MultiLineString", "coordinates": [ [ [ 22.664742500000045, 32.719497500000045 ], [ 22.661995, 32.719698400000027 ], [ 22.659831800000063, 32.71727560000005 ], [ 22.657438100000036, 32.714600300000029 ], [ 22.65713850000003, 32.71181880000006 ], [ 22.656860300000062, 32.709051400000078 ], [ 22.656512600000042, 32.705722900000069 ], [ 22.65626670000006, 32.703368100000034 ], [ 22.655943100000059, 32.70026960000007 ], [ 22.655637, 32.697339700000043 ], [ 22.655324300000075, 32.694345 ], [ 22.655002300000035, 32.691262300000062 ], [ 22.654688800000031, 32.688260600000035 ], [ 22.654437600000051, 32.685844100000054 ], [ 22.654267774000061, 32.684210746000076 ], [ 22.654138899000031, 32.682971200000054 ], [ 22.653810800000031, 32.67981530000003 ], [ 22.653481800000066, 32.676647200000048 ], [ 22.653157600000043, 32.673524 ], [ 22.652831500000048, 32.67038320000006 ], [ 22.652518500000042, 32.667460700000049 ], [ 22.652229300000045, 32.664568200000076 ], [ 22.655453, 32.663054700000032 ], [ 22.658591400000034, 32.661581100000035 ], [ 22.661619500000029, 32.660159400000055 ], [ 22.66477179900005, 32.658675900000048 ], [ 22.667784800000049, 32.657258 ], [ 22.671010800000033, 32.655730500000061 ], [ 22.674000700000079, 32.65432560000005 ], [ 22.674471933000063, 32.654104182000026 ] ] ] } },
{ "type": "Feature", "properties": { "obj_type": "Power Line", "FUN": "Fully functional", "det_method": "Ancillary data", "or_src_id": "994", "emsn_id": "EMSN177", "fwc_type": "FLEX", "aoi_id": "1", "name": "Derna", "country": "Libya" }, "geometry": { "type": "MultiLineString", "coordinates": [ [ [ 22.664638500000024, 32.719381200000043 ], [ 22.662324800000079, 32.719340400000078 ], [ 22.659997400000066, 32.716795400000024 ], [ 22.657884900000056, 32.714484800000037 ], [ 22.657658400000059, 32.712347600000044 ], [ 22.657323200000064, 32.709050800000057 ], [ 22.657077300000026, 32.706557600000053 ], [ 22.656769200000042, 32.703602800000056 ], [ 22.656446, 32.70072440000007 ], [ 22.656160800000066, 32.697910200000024 ], [ 22.655833400000063, 32.694736600000056 ], [ 22.655548399000054, 32.691950500000075 ], [ 22.655245401000059, 32.688988700000039 ], [ 22.654955800000039, 32.686184300000036 ], [ 22.654751249000071, 32.684204368000053 ], [ 22.654673100000025, 32.683447900000033 ], [ 22.654352700000061, 32.68039710000005 ], [ 22.654021700000044, 32.677283300000056 ], [ 22.653703900000039, 32.674294400000065 ], [ 22.653388, 32.671152500000062 ], [ 22.653051100000027, 32.667942 ], [ 22.652741200000037, 32.664806200000044 ], [ 22.655743800000039, 32.663418500000034 ], [ 22.658826200000078, 32.661993900000027 ], [ 22.661831500000062, 32.660604900000067 ], [ 22.665108500000031, 32.659085 ], [ 22.668156600000032, 32.657671300000061 ], [ 22.671414900000059, 32.65616 ], [ 22.674524100000042, 32.654717800000071 ], [ 22.674650482000061, 32.654659184000025 ] ] ] } },
{ "type": "Feature", "properties": { "obj_type": "Power Line", "FUN": "Fully functional", "det_method": "Ancillary data", "or_src_id": "994", "emsn_id": "EMSN177", "fwc_type": "FLEX", "aoi_id": "1", "name": "Derna", "country": "Libya" }, "geometry": { "type": "MultiLineString", "coordinates": [ [ [ 22.665386200000057, 32.718593600000077 ], [ 22.667351300000064, 32.719415800000036 ] ] ] } },
{ "type": "Feature", "properties": { "obj_type": "Power Line", "FUN": "Fully functional", "det_method": "Ancillary data", "or_src_id": "994", "emsn_id": "EMSN177", "fwc_type": "FLEX", "aoi_id": "1", "name": "Derna", "country": "Libya" }, "geometry": { "type": "MultiLineString", "coordinates": [ [ [ 22.655717500000037, 32.729930800000034 ], [ 22.656793400000026, 32.727407 ], [ 22.657870100000025, 32.724875100000077 ], [ 22.658695300000034, 32.722930600000041 ], [ 22.659461700000065, 32.721160600000076 ], [ 22.65974249900006, 32.720506500000056 ] ] ] } },
{ "type": "Feature", "properties": { "obj_type": "Power Line", "FUN": "Fully functional", "det_method": "Ancillary data", "or_src_id": "994", "emsn_id": "EMSN177", "fwc_type": "FLEX", "aoi_id": "1", "name": "Derna", "country": "Libya" }, "geometry": { "type": "MultiLineString", "coordinates": [ [ [ 22.65974249900006, 32.720506500000056 ], [ 22.661989500000061, 32.720659800000078 ], [ 22.662292, 32.72006 ], [ 22.664684400000056, 32.720125900000028 ], [ 22.664828700000044, 32.719601200000056 ] ] ] } },
{ "type": "Feature", "properties": { "obj_type": "Power Line", "FUN": "Fully functional", "det_method": "Ancillary data", "or_src_id": "994", "emsn_id": "EMSN177", "fwc_type": "FLEX", "aoi_id": "1", "name": "Derna", "country": "Libya" }, "geometry": { "type": "MultiLineString", "coordinates": [ [ [ 22.668906401000072, 32.742610100000036 ], [ 22.665264600000057, 32.743319600000063 ], [ 22.662223400000073, 32.743909200000076 ], [ 22.659114200000033, 32.744515900000067 ], [ 22.65516290000005, 32.745362100000079 ], [ 22.655975600000033, 32.742491100000052 ], [ 22.65434810000005, 32.739292300000045 ], [ 22.652929, 32.73651540000003 ], [ 22.653692, 32.734696800000052 ], [ 22.655717500000037, 32.729930800000034 ] ] ] } },
{ "type": "Feature", "properties": { "obj_type": "Power Line", "FUN": "Fully functional", "det_method": "Ancillary data", "or_src_id": "994", "emsn_id": "EMSN177", "fwc_type": "FLEX", "aoi_id": "1", "name": "Derna", "country": "Libya" }, "geometry": { "type": "MultiLineString", "coordinates": [ [ [ 22.702517500000056, 32.743988 ], [ 22.703332787000022, 32.743715276000046 ] ] ] } },
{ "type": "Feature", "properties": { "obj_type": "Dam", "FUN": "Fully functional", "det_method": "Ancillary data", "or_src_id": "994", "emsn_id": "EMSN177", "fwc_type": "FLEX", "aoi_id": "1", "name": "Derna", "country": "Libya" }, "geometry": { "type": "MultiLineString", "coordinates": [ [ [ 22.614723401000049, 32.633673900000076 ], [ 22.616257700000062, 32.633574500000066 ] ] ] } },
{ "type": "Feature", "properties": { "obj_type": "Dam", "FUN": "Fully functional", "det_method": "Ancillary data", "or_src_id": "994", "emsn_id": "EMSN177", "fwc_type": "FLEX", "aoi_id": "1", "name": "Derna", "country": "Libya" }, "geometry": { "type": "MultiLineString", "coordinates": [ [ [ 22.612566900000047, 32.643142200000057 ], [ 22.616204, 32.642844100000048 ] ] ] } },
{ "type": "Feature", "properties": { "obj_type": "Dam", "FUN": "Fully functional", "det_method": "Ancillary data", "or_src_id": "994", "emsn_id": "EMSN177", "fwc_type": "FLEX", "aoi_id": "1", "name": "Derna", "country": "Libya" }, "geometry": { "type": "MultiLineString", "coordinates": [ [ [ 22.617319800000075, 32.64941170000003 ], [ 22.618081600000039, 32.650233800000024 ] ] ] } },
{ "type": "Feature", "properties": { "obj_type": "Dam", "FUN": "Fully functional", "det_method": "Ancillary data", "or_src_id": "994", "emsn_id": "EMSN177", "fwc_type": "FLEX", "aoi_id": "1", "name": "Derna", "country": "Libya" }, "geometry": { "type": "MultiLineString", "coordinates": [ [ [ 22.605067500000075, 32.650269900000069 ], [ 22.605217700000026, 32.649700800000062 ] ] ] } },
{ "type": "Feature", "properties": { "obj_type": "Dam", "FUN": "Fully functional", "det_method": "Ancillary data", "or_src_id": "994", "emsn_id": "EMSN177", "fwc_type": "FLEX", "aoi_id": "1", "name": "Derna", "country": "Libya" }, "geometry": { "type": "MultiLineString", "coordinates": [ [ [ 22.604134100000067, 32.654393600000049 ], [ 22.60434870000006, 32.653874200000075 ] ] ] } },
{ "type": "Feature", "properties": { "obj_type": "Dam", "FUN": "Fully functional", "det_method": "Ancillary data", "or_src_id": "994", "emsn_id": "EMSN177", "fwc_type": "FLEX", "aoi_id": "1", "name": "Derna", "country": "Libya" }, "geometry": { "type": "MultiLineString", "coordinates": [ [ [ 22.600711600000068, 32.652541800000051 ], [ 22.601071, 32.652347600000041 ] ] ] } },
{ "type": "Feature", "properties": { "obj_type": "Dam", "FUN": "Fully functional", "det_method": "Photo-interpretation", "or_src_id": "1", "emsn_id": "EMSN177", "fwc_type": "FLEX", "aoi_id": "1", "name": "Derna", "country": "Libya" }, "geometry": { "type": "MultiLineString", "coordinates": [ [ [ 22.648426821000044, 32.64671131800003 ], [ 22.648959200000036, 32.645870500000058 ], [ 22.649570700000027, 32.644937700000071 ], [ 22.650109800000052, 32.644086300000026 ], [ 22.650482700000055, 32.643508100000076 ] ] ] } },
{ "type": "Feature", "properties": { "obj_type": "Dam", "FUN": "Fully functional", "det_method": "Ancillary data", "or_src_id": "994", "emsn_id": "EMSN177", "fwc_type": "FLEX", "aoi_id": "1", "name": "Derna", "country": "Libya" }, "geometry": { "type": "MultiLineString", "coordinates": [ [ [ 22.601586, 32.736644400000046 ], [ 22.601614300000051, 32.736550600000044 ], [ 22.601632900000027, 32.736477500000035 ] ] ] } },
{ "type": "Feature", "properties": { "obj_type": "Dam", "FUN": "Fully functional", "det_method": "Ancillary data", "or_src_id": "994", "emsn_id": "EMSN177", "fwc_type": "FLEX", "aoi_id": "1", "name": "Derna", "country": "Libya" }, "geometry": { "type": "MultiLineString", "coordinates": [ [ [ 22.600891300000058, 32.736484200000064 ], [ 22.600891300000058, 32.736378200000047 ], [ 22.600899300000037, 32.736297 ] ] ] } },
{ "type": "Feature", "properties": { "obj_type": "Dam", "FUN": "Fully functional", "det_method": "Ancillary data", "or_src_id": "994", "emsn_id": "EMSN177", "fwc_type": "FLEX", "aoi_id": "1", "name": "Derna", "country": "Libya" }, "geometry": { "type": "MultiLineString", "coordinates": [ [ [ 22.600081300000056, 32.736353400000041 ], [ 22.600090800000032, 32.736242700000048 ], [ 22.600094700000056, 32.736161600000059 ] ] ] } },
{ "type": "Feature", "properties": { "obj_type": "Power Line", "FUN": "Fully functional", "det_method": "Ancillary data", "or_src_id": "994", "emsn_id": "EMSN177", "fwc_type": "FLEX", "aoi_id": "1", "name": "Derna", "country": "Libya" }, "geometry": { "type": "MultiLineString", "coordinates": [ [ [ 22.551052509000044, 32.78643489500007 ], [ 22.554636800000026, 32.785028300000079 ], [ 22.557968, 32.783721200000059 ], [ 22.561343800000031, 32.78237880000006 ], [ 22.563945600000068, 32.78134620000003 ], [ 22.567134300000077, 32.780090100000052 ], [ 22.570467800000074, 32.778773900000033 ], [ 22.573394400000041, 32.777618300000029 ], [ 22.576534500000037, 32.776400700000067 ], [ 22.582929400000069, 32.773872800000049 ], [ 22.585696600000063, 32.772365 ], [ 22.588680200000056, 32.770784900000024 ], [ 22.592029700000069, 32.768964200000028 ], [ 22.595202300000039, 32.767227400000024 ], [ 22.598598300000049, 32.765435900000057 ], [ 22.601216200000067, 32.764019 ], [ 22.604351400000041, 32.762335300000075 ], [ 22.606889701000057, 32.760165100000052 ], [ 22.610357896000039, 32.757195249000063 ], [ 22.611177, 32.756493800000044 ], [ 22.615670300000033, 32.754391800000064 ], [ 22.622158200000058, 32.75332910000003 ] ] ] } },
{ "type": "Feature", "properties": { "obj_type": "Power Line", "FUN": "Fully functional", "det_method": "Ancillary data", "or_src_id": "994", "emsn_id": "EMSN177", "fwc_type": "FLEX", "aoi_id": "1", "name": "Derna", "country": "Libya" }, "geometry": { "type": "MultiLineString", "coordinates": [ [ [ 22.551167873000054, 32.786739693000072 ], [ 22.55250970000003, 32.786216300000035 ], [ 22.555334400000049, 32.785180100000048 ], [ 22.558562900000027, 32.783934600000066 ], [ 22.561352, 32.782879700000024 ], [ 22.564348600000073, 32.781736600000045 ], [ 22.567453300000068, 32.780552300000068 ], [ 22.58176480000003, 32.775981100000024 ], [ 22.602446300000054, 32.763979100000029 ], [ 22.604860200000076, 32.762578100000042 ], [ 22.606929300000047, 32.76076340000003 ], [ 22.608789, 32.759145100000069 ], [ 22.61036821600004, 32.757768527000053 ], [ 22.611401500000056, 32.756867800000066 ], [ 22.613433300000054, 32.755689100000041 ], [ 22.615572800000052, 32.755175200000053 ], [ 22.617381500000079, 32.754804800000045 ], [ 22.619559500000037, 32.754312 ], [ 22.623569700000075, 32.753414900000053 ] ] ] } },
{ "type": "Feature", "properties": { "obj_type": "Power Line", "FUN": "Fully functional", "det_method": "Ancillary data", "or_src_id": "994", "emsn_id": "EMSN177", "fwc_type": "FLEX", "aoi_id": "1", "name": "Derna", "country": "Libya" }, "geometry": { "type": "MultiLineString", "coordinates": [ [ [ 22.626973899000063, 32.754796400000032 ], [ 22.626978100000031, 32.75168130000003 ], [ 22.625499900000023, 32.749319200000059 ], [ 22.630669100000034, 32.746317 ], [ 22.63348940000003, 32.744757200000038 ], [ 22.63594420000004, 32.743363300000055 ], [ 22.637824700000067, 32.739917 ], [ 22.641476700000055, 32.738696 ], [ 22.644900100000029, 32.737551500000052 ], [ 22.648417800000061, 32.736400100000026 ], [ 22.651165500000047, 32.735468500000025 ], [ 22.652190500000074, 32.733389400000078 ], [ 22.652598430000069, 32.732561910000072 ], [ 22.652621900000042, 32.732514300000048 ], [ 22.653858700000058, 32.730005700000049 ], [ 22.655063100000064, 32.727564100000052 ], [ 22.656446600000038, 32.724759500000062 ], [ 22.657835401000057, 32.721943800000076 ], [ 22.65926520000005, 32.719027200000028 ], [ 22.658939700000076, 32.715880200000072 ], [ 22.658593800000062, 32.712524900000062 ], [ 22.658259300000054, 32.709281100000055 ], [ 22.65795490000005, 32.706328400000075 ], [ 22.657615800000031, 32.703039800000056 ], [ 22.657269800000051, 32.699589500000059 ], [ 22.656932501000028, 32.6965 ], [ 22.656639100000064, 32.693580300000065 ], [ 22.656378600000039, 32.690988700000048 ], [ 22.656059299000049, 32.687822800000049 ], [ 22.655713800000058, 32.684472500000027 ], [ 22.655686422000031, 32.684192027000051 ], [ 22.655407900000057, 32.681338600000061 ], [ 22.655076700000052, 32.67818630000005 ], [ 22.654739500000062, 32.674976800000024 ], [ 22.654397500000073, 32.671690600000034 ], [ 22.654112001000044, 32.668747400000029 ], [ 22.653799400000025, 32.665821900000026 ], [ 22.657133800000054, 32.664371500000073 ], [ 22.66082380000006, 32.662763400000074 ], [ 22.664008500000023, 32.661375600000042 ], [ 22.667377400000078, 32.65990940000006 ], [ 22.670982700000025, 32.658342100000027 ], [ 22.67438020000003, 32.656851200000062 ], [ 22.675233964000029, 32.656472822000069 ] ] ] } },
{ "type": "Feature", "properties": { "obj_type": "Power Line", "FUN": "Fully functional", "det_method": "Ancillary data", "or_src_id": "994", "emsn_id": "EMSN177", "fwc_type": "FLEX", "aoi_id": "1", "name": "Derna", "country": "Libya" }, "geometry": { "type": "MultiLineString", "coordinates": [ [ [ 22.593615700000043, 32.766149800000051 ], [ 22.594882100000063, 32.761745200000064 ], [ 22.595691, 32.759237600000063 ], [ 22.596249905000036, 32.757117039000036 ], [ 22.596423600000037, 32.756458 ], [ 22.5971, 32.753860600000053 ], [ 22.597842900000046, 32.751034600000025 ], [ 22.598522700000046, 32.748444100000029 ], [ 22.599256300000036, 32.745631400000036 ], [ 22.59995390000006, 32.742993200000058 ], [ 22.600728200000049, 32.740038900000059 ], [ 22.601371700000072, 32.737554100000068 ], [ 22.602087500000039, 32.734881 ], [ 22.602870200000041, 32.731827400000043 ], [ 22.60366, 32.728819400000077 ], [ 22.604497900000069, 32.72562460000006 ], [ 22.607755700000041, 32.724606100000074 ], [ 22.611010800000031, 32.723631700000055 ], [ 22.613947, 32.722687 ], [ 22.615620900000067, 32.722143800000026 ], [ 22.621516300000053, 32.720332300000052 ], [ 22.624492400000065, 32.719417700000065 ], [ 22.627701, 32.718431700000053 ], [ 22.631159400000058, 32.718899600000043 ], [ 22.634708, 32.719353800000079 ], [ 22.638438, 32.719823500000075 ], [ 22.642137500000047, 32.720314700000074 ], [ 22.64583870000007, 32.720786700000076 ], [ 22.649481601000048, 32.721267600000033 ], [ 22.652396744000043, 32.721631814000034 ], [ 22.656941600000039, 32.722199500000045 ] ] ] } },
{ "type": "Feature", "properties": { "obj_type": "Power Line", "FUN": "Fully functional", "det_method": "Ancillary data", "or_src_id": "994", "emsn_id": "EMSN177", "fwc_type": "FLEX", "aoi_id": "1", "name": "Derna", "country": "Libya" }, "geometry": { "type": "MultiLineString", "coordinates": [ [ [ 22.550082521000036, 32.783872049000024 ], [ 22.551039600000024, 32.783576 ], [ 22.554299700000058, 32.782674800000052 ], [ 22.560358200000053, 32.780886600000031 ], [ 22.563277300000038, 32.780026600000042 ], [ 22.566524, 32.779061100000035 ] ] ] } },
{ "type": "Feature", "properties": { "obj_type": "Power Line", "FUN": "Fully functional", "det_method": "Ancillary data", "or_src_id": "994", "emsn_id": "EMSN177", "fwc_type": "FLEX", "aoi_id": "1", "name": "Derna", "country": "Libya" }, "geometry": { "type": "MultiLineString", "coordinates": [ [ [ 22.581056400000023, 32.772118100000057 ], [ 22.582001800000057, 32.769593200000031 ], [ 22.581300400000032, 32.767584800000066 ], [ 22.583408700000064, 32.766353400000071 ], [ 22.586399300000039, 32.764600900000062 ], [ 22.589564300000063, 32.762779600000044 ] ] ] } },
{ "type": "Feature", "properties": { "obj_type": "Dam", "FUN": "Fully functional", "det_method": "Ancillary data", "or_src_id": "994", "emsn_id": "EMSN177", "fwc_type": "FLEX", "aoi_id": "1", "name": "Derna", "country": "Libya" }, "geometry": { "type": "MultiLineString", "coordinates": [ [ [ 22.579786100000035, 32.666549900000064 ], [ 22.579706700000031, 32.666250700000035 ] ] ] } },
{ "type": "Feature", "properties": { "obj_type": "Dam", "FUN": "Fully functional", "det_method": "Ancillary data", "or_src_id": "994", "emsn_id": "EMSN177", "fwc_type": "FLEX", "aoi_id": "1", "name": "Derna", "country": "Libya" }, "geometry": { "type": "MultiLineString", "coordinates": [ [ [ 22.583363, 32.662355800000057 ], [ 22.583577600000069, 32.662644900000032 ] ] ] } },
{ "type": "Feature", "properties": { "obj_type": "Dam", "FUN": "Fully functional", "det_method": "Ancillary data", "or_src_id": "994", "emsn_id": "EMSN177", "fwc_type": "FLEX", "aoi_id": "1", "name": "Derna", "country": "Libya" }, "geometry": { "type": "MultiLineString", "coordinates": [ [ [ 22.578223900000069, 32.666235100000051 ], [ 22.578242700000033, 32.666113200000041 ] ] ] } },
{ "type": "Feature", "properties": { "obj_type": "Dam", "FUN": "Fully functional", "det_method": "Ancillary data", "or_src_id": "994", "emsn_id": "EMSN177", "fwc_type": "FLEX", "aoi_id": "1", "name": "Derna", "country": "Libya" }, "geometry": { "type": "MultiLineString", "coordinates": [ [ [ 22.58241890000005, 32.661728100000062 ], [ 22.582668400000045, 32.66196750000006 ] ] ] } }
]
}
