{
"type": "FeatureCollection",
"name": "EMSN177_FLEX_AOI01_P02REF_BoundaryA_v01",
"features": [
{ "type": "Feature", "properties": { "obj_type": "Administrative Region", "info": "International", "NAM": "Libya", "det_method": "Ancillary data", "or_src_id": "989", "emsn_id": "EMSN177", "fwc_type": "FLEX", "aoi_id": "1", "name": "Derna", "country": "Libya" }, "geometry": { "type": "MultiPolygon", "coordinates": [ [ [ [ 22.560972, 32.800694 ], [ 22.56097199900006, 32.800415 ], [ 22.561527, 32.800415 ], [ 22.561527, 32.80014 ], [ 22.561806, 32.80014 ], [ 22.561787, 32.799824 ], [ 22.562361, 32.799862 ], [ 22.562347, 32.799553 ], [ 22.562639, 32.799583 ], [ 22.562639, 32.799393 ], [ 22.562639, 32.799305 ], [ 22.563473, 32.799305 ], [ 22.563465, 32.799015 ], [ 22.564028, 32.799026 ], [ 22.564028, 32.798748 ], [ 22.564861, 32.798752 ], [ 22.564861, 32.797886 ], [ 22.564861, 32.797791 ], [ 22.564861, 32.797684 ], [ 22.564583, 32.797638 ], [ 22.564583, 32.796806 ], [ 22.564306, 32.796806 ], [ 22.564306, 32.796528 ], [ 22.564028, 32.796528 ], [ 22.564028, 32.796249 ], [ 22.563749, 32.796249 ], [ 22.563749, 32.795971 ], [ 22.563473, 32.795971 ], [ 22.563473, 32.795418 ], [ 22.563194, 32.795418 ], [ 22.563194, 32.795139 ], [ 22.563042, 32.795139 ], [ 22.562918, 32.795139 ], [ 22.562918, 32.794582 ], [ 22.562639, 32.794582 ], [ 22.562639, 32.794029 ], [ 22.562361, 32.794029 ], [ 22.562361, 32.792641 ], [ 22.562639, 32.792641 ], [ 22.562639, 32.792362 ], [ 22.562918, 32.792362 ], [ 22.562918, 32.792084 ], [ 22.563194, 32.792084 ], [ 22.563194, 32.791805 ], [ 22.563473, 32.791805 ], [ 22.563473, 32.791527 ], [ 22.563749, 32.791527 ], [ 22.563749, 32.791248 ], [ 22.564028, 32.791248 ], [ 22.564028, 32.790974 ], [ 22.564306, 32.790974 ], [ 22.564306, 32.790695 ], [ 22.565405, 32.790695 ], [ 22.566528, 32.790695 ], [ 22.566528, 32.790417 ], [ 22.567362, 32.790417 ], [ 22.567362, 32.790138 ], [ 22.567083, 32.790138 ], [ 22.567083, 32.78986 ], [ 22.566771, 32.78986 ], [ 22.566528, 32.78986 ], [ 22.566528, 32.789585 ], [ 22.56625, 32.789585 ], [ 22.56625, 32.789307 ], [ 22.566528, 32.789307 ], [ 22.566527999000073, 32.789028 ], [ 22.567638, 32.789028 ], [ 22.567638, 32.78875 ], [ 22.568472, 32.78875 ], [ 22.568472, 32.788471 ], [ 22.569584, 32.788471 ], [ 22.569584, 32.788193 ], [ 22.570269, 32.788193 ], [ 22.570417001000067, 32.788193 ], [ 22.570417, 32.78812 ], [ 22.570417, 32.787918 ], [ 22.571527001000049, 32.787918 ], [ 22.571527, 32.78764 ], [ 22.574862, 32.78764 ], [ 22.574862, 32.787361 ], [ 22.578461, 32.787361 ], [ 22.579208, 32.787361 ], [ 22.581028, 32.787361 ], [ 22.582083, 32.787361 ], [ 22.582083, 32.787083 ], [ 22.582916, 32.787083 ], [ 22.582916, 32.786804 ], [ 22.584028, 32.786804 ], [ 22.584028, 32.78653 ], [ 22.584864, 32.78653 ], [ 22.584864, 32.786251 ], [ 22.585974, 32.786251 ], [ 22.585974, 32.785973 ], [ 22.58625, 32.785973 ], [ 22.58625, 32.785694 ], [ 22.586527, 32.785694 ], [ 22.586527, 32.785137 ], [ 22.586805, 32.785137 ], [ 22.586805, 32.784584 ], [ 22.587086, 32.784584 ], [ 22.587086, 32.784496 ], [ 22.587086, 32.784306 ], [ 22.58736, 32.784306 ], [ 22.58736, 32.78397 ], [ 22.58736, 32.783848 ], [ 22.58736, 32.783749 ], [ 22.587482, 32.783749 ], [ 22.587614, 32.783703 ], [ 22.587639, 32.783474 ], [ 22.587942, 32.783516 ], [ 22.587917, 32.783195 ], [ 22.588196, 32.783195 ], [ 22.588196, 32.782639 ], [ 22.588472, 32.782639 ], [ 22.588472, 32.782082 ], [ 22.588751, 32.782082 ], [ 22.588751, 32.781422 ], [ 22.588751, 32.780693 ], [ 22.589027, 32.780693 ], [ 22.589027001000034, 32.779583 ], [ 22.590139, 32.779583 ], [ 22.590139001000068, 32.779305 ], [ 22.591427, 32.779305 ], [ 22.591528, 32.779305 ], [ 22.591528, 32.779026 ], [ 22.592083, 32.779026 ], [ 22.592083, 32.778751 ], [ 22.59264, 32.778751 ], [ 22.59264, 32.778473 ], [ 22.592916, 32.778473 ], [ 22.592916001000049, 32.778194 ], [ 22.593195, 32.778194 ], [ 22.593195, 32.777916 ], [ 22.593472, 32.777916 ], [ 22.593472, 32.777637 ], [ 22.594028, 32.777637 ], [ 22.594028, 32.777363 ], [ 22.594305, 32.777363 ], [ 22.594305, 32.777084 ], [ 22.594584, 32.777084 ], [ 22.594584, 32.776806 ], [ 22.59485999900005, 32.776806 ], [ 22.59486, 32.776249 ], [ 22.597918, 32.776249 ], [ 22.597918, 32.77597 ], [ 22.599306, 32.77597 ], [ 22.599306, 32.775696 ], [ 22.600695, 32.775696 ], [ 22.600695, 32.775417 ], [ 22.601807, 32.775417 ], [ 22.601807, 32.775139 ], [ 22.602701, 32.775139 ], [ 22.603195, 32.775139 ], [ 22.603205, 32.774998 ], [ 22.603212, 32.774849 ], [ 22.603622, 32.774872 ], [ 22.604303, 32.774906 ], [ 22.604305, 32.774666 ], [ 22.604305, 32.774582 ], [ 22.604572001000065, 32.774582 ], [ 22.60486, 32.774582 ], [ 22.60486, 32.774494 ], [ 22.60486, 32.774307 ], [ 22.605417, 32.774307 ], [ 22.605416999000056, 32.774029 ], [ 22.605972, 32.774029 ], [ 22.605972, 32.77375 ], [ 22.606527, 32.77375 ], [ 22.606527, 32.773472 ], [ 22.610056, 32.773472 ], [ 22.610695, 32.773472 ], [ 22.610695, 32.77375 ], [ 22.611803, 32.77375 ], [ 22.611803, 32.774029 ], [ 22.612638, 32.774029 ], [ 22.612638, 32.774307 ], [ 22.613262, 32.774307 ], [ 22.614586, 32.774307 ], [ 22.614586, 32.774166 ], [ 22.614586, 32.774029 ], [ 22.614861, 32.774029 ], [ 22.614861, 32.77375 ], [ 22.615139, 32.77375 ], [ 22.615139, 32.773472 ], [ 22.615417001000026, 32.773472 ], [ 22.615417, 32.773193 ], [ 22.626806, 32.773193 ], [ 22.626806, 32.773472 ], [ 22.634305999000048, 32.773472 ], [ 22.634306, 32.77375 ], [ 22.634806, 32.77375 ], [ 22.638193, 32.77375 ], [ 22.638193, 32.774029 ], [ 22.63875, 32.774029 ], [ 22.63875, 32.774307 ], [ 22.63895, 32.774307 ], [ 22.639582, 32.774307 ], [ 22.639582001000065, 32.774582 ], [ 22.640696, 32.774582 ], [ 22.640696, 32.77486 ], [ 22.641527, 32.77486 ], [ 22.641527, 32.775139 ], [ 22.642361, 32.775139 ], [ 22.642361, 32.775417 ], [ 22.642918, 32.775417 ], [ 22.642918, 32.775513 ], [ 22.642918, 32.775696 ], [ 22.643749, 32.775696 ], [ 22.643749, 32.775814 ], [ 22.643749, 32.77597 ], [ 22.644306, 32.77597 ], [ 22.644306, 32.775791 ], [ 22.644306, 32.775696 ], [ 22.644586999000069, 32.775696 ], [ 22.644585, 32.775513 ], [ 22.644583, 32.775417 ], [ 22.644775, 32.775417 ], [ 22.644861, 32.775417 ], [ 22.644861, 32.77528 ], [ 22.644861, 32.775139 ], [ 22.644949, 32.775139 ], [ 22.64514, 32.775139 ], [ 22.645139999000037, 32.774837 ], [ 22.64514, 32.774582 ], [ 22.6453, 32.774582 ], [ 22.645416, 32.774582 ], [ 22.645416, 32.774395 ], [ 22.645416, 32.77375 ], [ 22.645695, 32.77375 ], [ 22.645695, 32.773193 ], [ 22.645971, 32.773193 ], [ 22.645971, 32.77264 ], [ 22.64625, 32.77264 ], [ 22.64625, 32.772362 ], [ 22.646528, 32.772362 ], [ 22.646528, 32.772083 ], [ 22.646805, 32.772083 ], [ 22.646805, 32.771526 ], [ 22.647083, 32.771526 ], [ 22.647082999000077, 32.771252 ], [ 22.647362, 32.771252 ], [ 22.647362, 32.770973 ], [ 22.647638, 32.770973 ], [ 22.647638, 32.770695 ], [ 22.647917, 32.770695 ], [ 22.647917, 32.770416 ], [ 22.648195, 32.770416 ], [ 22.648195, 32.769859 ], [ 22.648472, 32.769859 ], [ 22.648471999000037, 32.769585 ], [ 22.64875, 32.769585 ], [ 22.64875, 32.769306 ], [ 22.649027, 32.769306 ], [ 22.649027, 32.768749 ], [ 22.649305, 32.768749 ], [ 22.649305, 32.768471 ], [ 22.649584, 32.768471 ], [ 22.649584, 32.768196 ], [ 22.65097, 32.768196 ], [ 22.65097, 32.767918 ], [ 22.652025, 32.767918 ], [ 22.652639, 32.767918 ], [ 22.652639, 32.767696 ], [ 22.652794, 32.767639 ], [ 22.652914, 32.767639 ], [ 22.652914, 32.767361 ], [ 22.653193, 32.767361 ], [ 22.653193, 32.767082 ], [ 22.653749, 32.767082 ], [ 22.653749, 32.766804 ], [ 22.654028, 32.766804 ], [ 22.654028, 32.766529 ], [ 22.654306, 32.766529 ], [ 22.654306, 32.766251 ], [ 22.654585, 32.766251 ], [ 22.654585, 32.765972 ], [ 22.654861, 32.765972 ], [ 22.654861, 32.765694 ], [ 22.655138, 32.765694 ], [ 22.655138, 32.765415 ], [ 22.655416, 32.765415 ], [ 22.655416, 32.765141 ], [ 22.655790001000071, 32.765141 ], [ 22.655972, 32.765141 ], [ 22.655972, 32.764904 ], [ 22.65625, 32.764862 ], [ 22.65625, 32.764584 ], [ 22.656527999000048, 32.764584 ], [ 22.656528, 32.764305 ], [ 22.656807, 32.764305 ], [ 22.656807, 32.764027 ], [ 22.657084, 32.764027 ], [ 22.657084, 32.763748 ], [ 22.657362, 32.763748 ], [ 22.657362, 32.763474 ], [ 22.657919, 32.763474 ], [ 22.657919, 32.763195 ], [ 22.658194, 32.763195 ], [ 22.658194, 32.762917 ], [ 22.658751, 32.762917 ], [ 22.658751, 32.76236 ], [ 22.657919, 32.76236 ], [ 22.657919, 32.762638 ], [ 22.657362, 32.762638 ], [ 22.657362, 32.762917 ], [ 22.656807, 32.762917 ], [ 22.656807, 32.763195 ], [ 22.655416, 32.763195 ], [ 22.655416, 32.763474 ], [ 22.655138, 32.763474 ], [ 22.655138, 32.763748 ], [ 22.654585, 32.763748 ], [ 22.654585, 32.764027 ], [ 22.653475, 32.764027 ], [ 22.653475, 32.763195 ], [ 22.653193, 32.763195 ], [ 22.653193, 32.761528 ], [ 22.654028, 32.761528 ], [ 22.654028, 32.76125 ], [ 22.654861, 32.76125 ], [ 22.654861, 32.761528 ], [ 22.655138, 32.761528 ], [ 22.655138, 32.761806 ], [ 22.655972, 32.761806 ], [ 22.65597199900003, 32.762085 ], [ 22.656807, 32.762085 ], [ 22.656807, 32.76236 ], [ 22.657362, 32.76236 ], [ 22.657362, 32.76125 ], [ 22.657084, 32.76125 ], [ 22.657084, 32.760971 ], [ 22.656807, 32.760971 ], [ 22.656807, 32.760693 ], [ 22.656662001000029, 32.760693 ], [ 22.656528, 32.760693 ], [ 22.656528, 32.760139 ], [ 22.65625, 32.760139 ], [ 22.65625, 32.759861 ], [ 22.655972, 32.759861 ], [ 22.655972, 32.759583 ], [ 22.655697, 32.759583 ], [ 22.655697, 32.759029 ], [ 22.65597199900003, 32.759029 ], [ 22.65597199900003, 32.758472 ], [ 22.65625, 32.758472 ], [ 22.65625, 32.758194 ], [ 22.656528, 32.758194 ], [ 22.656528, 32.757915 ], [ 22.656807, 32.757915 ], [ 22.656807, 32.757362 ], [ 22.657084, 32.757362 ], [ 22.657084, 32.757084 ], [ 22.657919, 32.757084 ], [ 22.657919, 32.756805 ], [ 22.658907, 32.756805 ], [ 22.659027, 32.756805 ], [ 22.659027, 32.756721 ], [ 22.659027, 32.756527 ], [ 22.659306, 32.756527 ], [ 22.659306, 32.756248 ], [ 22.660181, 32.756248 ], [ 22.661528, 32.756248 ], [ 22.661528, 32.755974 ], [ 22.662083, 32.755974 ], [ 22.662083, 32.755695 ], [ 22.66264, 32.755695 ], [ 22.662640001000057, 32.755463 ], [ 22.662781, 32.755417 ], [ 22.663195, 32.755417 ], [ 22.663195, 32.755283 ], [ 22.663195, 32.755138 ], [ 22.663470999000026, 32.755138 ], [ 22.663471, 32.75486 ], [ 22.664028, 32.75486 ], [ 22.664028, 32.754581 ], [ 22.664581, 32.754581 ], [ 22.664581, 32.754307 ], [ 22.665138, 32.754307 ], [ 22.665138, 32.754028 ], [ 22.666729, 32.754028 ], [ 22.66736, 32.754028 ], [ 22.66736, 32.753803 ], [ 22.66736, 32.753471 ], [ 22.667639, 32.753471 ], [ 22.667639, 32.752918 ], [ 22.668196, 32.752918 ], [ 22.668196, 32.753193 ], [ 22.668472001000055, 32.753193 ], [ 22.668472, 32.753448 ], [ 22.668472, 32.75375 ], [ 22.669306, 32.75375 ], [ 22.669306, 32.753471 ], [ 22.672916, 32.753471 ], [ 22.672916, 32.753193 ], [ 22.673195, 32.753193 ], [ 22.673195, 32.752735 ], [ 22.673195, 32.75264 ], [ 22.673471, 32.75264 ], [ 22.673471, 32.752083 ], [ 22.67375, 32.752083 ], [ 22.67375, 32.751804 ], [ 22.676508, 32.751804 ], [ 22.677361, 32.751804 ], [ 22.677361, 32.751553 ], [ 22.67746, 32.751526 ], [ 22.677917, 32.751526 ], [ 22.677917, 32.751389 ], [ 22.677917, 32.751251 ], [ 22.678474, 32.751251 ], [ 22.678474, 32.750973 ], [ 22.679028, 32.750973 ], [ 22.679028, 32.750694 ], [ 22.683195, 32.750694 ], [ 22.683195, 32.750973 ], [ 22.684029, 32.750973 ], [ 22.684029, 32.750694 ], [ 22.684584, 32.750694 ], [ 22.684584, 32.750416 ], [ 22.685417, 32.750416 ], [ 22.68541699900004, 32.750137 ], [ 22.685972, 32.750137 ], [ 22.685972, 32.749863 ], [ 22.686527, 32.749863 ], [ 22.686527001000059, 32.749027 ], [ 22.686251001000073, 32.749027 ], [ 22.686251, 32.748474 ], [ 22.689306, 32.748474 ], [ 22.689306, 32.748749 ], [ 22.690142, 32.748749 ], [ 22.690142, 32.748474 ], [ 22.690695, 32.74847 ], [ 22.690695, 32.748196 ], [ 22.690971, 32.748196 ], [ 22.690971, 32.747917 ], [ 22.694027, 32.747917 ], [ 22.694027, 32.748196 ], [ 22.694305, 32.748196 ], [ 22.694305, 32.74847 ], [ 22.694586, 32.748474 ], [ 22.694586, 32.748684 ], [ 22.694586, 32.749027 ], [ 22.694771, 32.749027 ], [ 22.69486, 32.749027 ], [ 22.69486, 32.749306 ], [ 22.695139, 32.749306 ], [ 22.695139, 32.748928 ], [ 22.695139, 32.748749 ], [ 22.695417, 32.748749 ], [ 22.695417, 32.748554 ], [ 22.695417, 32.748196 ], [ 22.695696, 32.748196 ], [ 22.695696, 32.747917 ], [ 22.696808, 32.747917 ], [ 22.696808, 32.747639 ], [ 22.698195, 32.747639 ], [ 22.698195001000045, 32.74736 ], [ 22.699305, 32.74736 ], [ 22.699306, 32.747082 ], [ 22.700695, 32.747082 ], [ 22.700695, 32.746807 ], [ 22.701529, 32.746807 ], [ 22.701529, 32.746529 ], [ 22.70236, 32.746529 ], [ 22.70236, 32.74625 ], [ 22.702917, 32.74625 ], [ 22.702917, 32.745972 ], [ 22.703753, 32.745972 ], [ 22.703753, 32.745693 ], [ 22.703981472000066, 32.745693 ], [ 22.660923677000028, 32.611968466000064 ], [ 22.501928169000053, 32.656434532000048 ], [ 22.556457908000027, 32.800694 ], [ 22.559973, 32.800694 ], [ 22.560123, 32.800694 ], [ 22.560972, 32.800694 ] ] ] ] } },
{ "type": "Feature", "properties": { "obj_type": "Administrative Region", "info": "National", "NAM": "Derna", "det_method": "Ancillary data", "or_src_id": "989", "emsn_id": "EMSN177", "fwc_type": "FLEX", "aoi_id": "1", "name": "Derna", "country": "Libya" }, "geometry": { "type": "MultiPolygon", "coordinates": [ [ [ [ 22.560972, 32.800694 ], [ 22.56097199900006, 32.800415 ], [ 22.561527, 32.800415 ], [ 22.561527, 32.80014 ], [ 22.561806, 32.80014 ], [ 22.561787, 32.799824 ], [ 22.562361, 32.799862 ], [ 22.562347, 32.799553 ], [ 22.562639, 32.799583 ], [ 22.562639, 32.799393 ], [ 22.562639, 32.799305 ], [ 22.563473, 32.799305 ], [ 22.563465, 32.799015 ], [ 22.564028, 32.799026 ], [ 22.564028, 32.798748 ], [ 22.564861, 32.798752 ], [ 22.564861, 32.797886 ], [ 22.564861, 32.797791 ], [ 22.564861, 32.797684 ], [ 22.564583, 32.797638 ], [ 22.564583, 32.796806 ], [ 22.564306, 32.796806 ], [ 22.564306, 32.796528 ], [ 22.564028, 32.796528 ], [ 22.564028, 32.796249 ], [ 22.563749, 32.796249 ], [ 22.563749, 32.795971 ], [ 22.563473, 32.795971 ], [ 22.563473, 32.795418 ], [ 22.563194, 32.795418 ], [ 22.563194, 32.795139 ], [ 22.563042, 32.795139 ], [ 22.562918, 32.795139 ], [ 22.562918, 32.794582 ], [ 22.562639, 32.794582 ], [ 22.562639, 32.794029 ], [ 22.562361, 32.794029 ], [ 22.562361, 32.792641 ], [ 22.562639, 32.792641 ], [ 22.562639, 32.792362 ], [ 22.562918, 32.792362 ], [ 22.562918, 32.792084 ], [ 22.563194, 32.792084 ], [ 22.563194, 32.791805 ], [ 22.563473, 32.791805 ], [ 22.563473, 32.791527 ], [ 22.563749, 32.791527 ], [ 22.563749, 32.791248 ], [ 22.564028, 32.791248 ], [ 22.564028, 32.790974 ], [ 22.564306, 32.790974 ], [ 22.564306, 32.790695 ], [ 22.565405, 32.790695 ], [ 22.566528, 32.790695 ], [ 22.566528, 32.790417 ], [ 22.567362, 32.790417 ], [ 22.567362, 32.790138 ], [ 22.567083, 32.790138 ], [ 22.567083, 32.78986 ], [ 22.566771, 32.78986 ], [ 22.566528, 32.78986 ], [ 22.566528, 32.789585 ], [ 22.56625, 32.789585 ], [ 22.56625, 32.789307 ], [ 22.566528, 32.789307 ], [ 22.566527999000073, 32.789028 ], [ 22.567638, 32.789028 ], [ 22.567638, 32.78875 ], [ 22.568472, 32.78875 ], [ 22.568472, 32.788471 ], [ 22.569584, 32.788471 ], [ 22.569584, 32.788193 ], [ 22.570269, 32.788193 ], [ 22.570417001000067, 32.788193 ], [ 22.570417, 32.78812 ], [ 22.570417, 32.787918 ], [ 22.571527001000049, 32.787918 ], [ 22.571527, 32.78764 ], [ 22.574862, 32.78764 ], [ 22.574862, 32.787361 ], [ 22.578461, 32.787361 ], [ 22.579208, 32.787361 ], [ 22.581028, 32.787361 ], [ 22.582083, 32.787361 ], [ 22.582083, 32.787083 ], [ 22.582916, 32.787083 ], [ 22.582916, 32.786804 ], [ 22.584028, 32.786804 ], [ 22.584028, 32.78653 ], [ 22.584864, 32.78653 ], [ 22.584864, 32.786251 ], [ 22.585974, 32.786251 ], [ 22.585974, 32.785973 ], [ 22.58625, 32.785973 ], [ 22.58625, 32.785694 ], [ 22.586527, 32.785694 ], [ 22.586527, 32.785137 ], [ 22.586805, 32.785137 ], [ 22.586805, 32.784584 ], [ 22.587086, 32.784584 ], [ 22.587086, 32.784496 ], [ 22.587086, 32.784306 ], [ 22.58736, 32.784306 ], [ 22.58736, 32.78397 ], [ 22.58736, 32.783848 ], [ 22.58736, 32.783749 ], [ 22.587482, 32.783749 ], [ 22.587614, 32.783703 ], [ 22.587639, 32.783474 ], [ 22.587942, 32.783516 ], [ 22.587917, 32.783195 ], [ 22.588196, 32.783195 ], [ 22.588196, 32.782639 ], [ 22.588472, 32.782639 ], [ 22.588472, 32.782082 ], [ 22.588751, 32.782082 ], [ 22.588751, 32.781422 ], [ 22.588751, 32.780693 ], [ 22.589027, 32.780693 ], [ 22.589027001000034, 32.779583 ], [ 22.590139, 32.779583 ], [ 22.590139001000068, 32.779305 ], [ 22.591427, 32.779305 ], [ 22.591528, 32.779305 ], [ 22.591528, 32.779026 ], [ 22.592083, 32.779026 ], [ 22.592083, 32.778751 ], [ 22.59264, 32.778751 ], [ 22.59264, 32.778473 ], [ 22.592916, 32.778473 ], [ 22.592916001000049, 32.778194 ], [ 22.593195, 32.778194 ], [ 22.593195, 32.777916 ], [ 22.593472, 32.777916 ], [ 22.593472, 32.777637 ], [ 22.594028, 32.777637 ], [ 22.594028, 32.777363 ], [ 22.594305, 32.777363 ], [ 22.594305, 32.777084 ], [ 22.594584, 32.777084 ], [ 22.594584, 32.776806 ], [ 22.59485999900005, 32.776806 ], [ 22.59486, 32.776249 ], [ 22.597918, 32.776249 ], [ 22.597918, 32.77597 ], [ 22.599306, 32.77597 ], [ 22.599306, 32.775696 ], [ 22.600695, 32.775696 ], [ 22.600695, 32.775417 ], [ 22.601807, 32.775417 ], [ 22.601807, 32.775139 ], [ 22.602701, 32.775139 ], [ 22.603195, 32.775139 ], [ 22.603205, 32.774998 ], [ 22.603212, 32.774849 ], [ 22.603622, 32.774872 ], [ 22.604303, 32.774906 ], [ 22.604305, 32.774666 ], [ 22.604305, 32.774582 ], [ 22.604572001000065, 32.774582 ], [ 22.60486, 32.774582 ], [ 22.60486, 32.774494 ], [ 22.60486, 32.774307 ], [ 22.605417, 32.774307 ], [ 22.605416999000056, 32.774029 ], [ 22.605972, 32.774029 ], [ 22.605972, 32.77375 ], [ 22.606527, 32.77375 ], [ 22.606527, 32.773472 ], [ 22.610056, 32.773472 ], [ 22.610695, 32.773472 ], [ 22.610695, 32.77375 ], [ 22.611803, 32.77375 ], [ 22.611803, 32.774029 ], [ 22.612638, 32.774029 ], [ 22.612638, 32.774307 ], [ 22.613262, 32.774307 ], [ 22.614586, 32.774307 ], [ 22.614586, 32.774166 ], [ 22.614586, 32.774029 ], [ 22.614861, 32.774029 ], [ 22.614861, 32.77375 ], [ 22.615139, 32.77375 ], [ 22.615139, 32.773472 ], [ 22.615417001000026, 32.773472 ], [ 22.615417, 32.773193 ], [ 22.626806, 32.773193 ], [ 22.626806, 32.773472 ], [ 22.634305999000048, 32.773472 ], [ 22.634306, 32.77375 ], [ 22.634806, 32.77375 ], [ 22.638193, 32.77375 ], [ 22.638193, 32.774029 ], [ 22.63875, 32.774029 ], [ 22.63875, 32.774307 ], [ 22.63895, 32.774307 ], [ 22.639582, 32.774307 ], [ 22.639582001000065, 32.774582 ], [ 22.640696, 32.774582 ], [ 22.640696, 32.77486 ], [ 22.641527, 32.77486 ], [ 22.641527, 32.775139 ], [ 22.642361, 32.775139 ], [ 22.642361, 32.775417 ], [ 22.642918, 32.775417 ], [ 22.642918, 32.775513 ], [ 22.642918, 32.775696 ], [ 22.643749, 32.775696 ], [ 22.643749, 32.775814 ], [ 22.643749, 32.77597 ], [ 22.644306, 32.77597 ], [ 22.644306, 32.775791 ], [ 22.644306, 32.775696 ], [ 22.644586999000069, 32.775696 ], [ 22.644585, 32.775513 ], [ 22.644583, 32.775417 ], [ 22.644775, 32.775417 ], [ 22.644861, 32.775417 ], [ 22.644861, 32.77528 ], [ 22.644861, 32.775139 ], [ 22.644949, 32.775139 ], [ 22.64514, 32.775139 ], [ 22.645139999000037, 32.774837 ], [ 22.64514, 32.774582 ], [ 22.6453, 32.774582 ], [ 22.645416, 32.774582 ], [ 22.645416, 32.774395 ], [ 22.645416, 32.77375 ], [ 22.645695, 32.77375 ], [ 22.645695, 32.773193 ], [ 22.645971, 32.773193 ], [ 22.645971, 32.77264 ], [ 22.64625, 32.77264 ], [ 22.64625, 32.772362 ], [ 22.646528, 32.772362 ], [ 22.646528, 32.772083 ], [ 22.646805, 32.772083 ], [ 22.646805, 32.771526 ], [ 22.647083, 32.771526 ], [ 22.647082999000077, 32.771252 ], [ 22.647362, 32.771252 ], [ 22.647362, 32.770973 ], [ 22.647638, 32.770973 ], [ 22.647638, 32.770695 ], [ 22.647917, 32.770695 ], [ 22.647917, 32.770416 ], [ 22.648195, 32.770416 ], [ 22.648195, 32.769859 ], [ 22.648472, 32.769859 ], [ 22.648471999000037, 32.769585 ], [ 22.64875, 32.769585 ], [ 22.64875, 32.769306 ], [ 22.649027, 32.769306 ], [ 22.649027, 32.768749 ], [ 22.649305, 32.768749 ], [ 22.649305, 32.768471 ], [ 22.649584, 32.768471 ], [ 22.649584, 32.768196 ], [ 22.65097, 32.768196 ], [ 22.65097, 32.767918 ], [ 22.652025, 32.767918 ], [ 22.652639, 32.767918 ], [ 22.652639, 32.767696 ], [ 22.652794, 32.767639 ], [ 22.652914, 32.767639 ], [ 22.652914, 32.767361 ], [ 22.653193, 32.767361 ], [ 22.653193, 32.767082 ], [ 22.653749, 32.767082 ], [ 22.653749, 32.766804 ], [ 22.654028, 32.766804 ], [ 22.654028, 32.766529 ], [ 22.654306, 32.766529 ], [ 22.654306, 32.766251 ], [ 22.654585, 32.766251 ], [ 22.654585, 32.765972 ], [ 22.654861, 32.765972 ], [ 22.654861, 32.765694 ], [ 22.655138, 32.765694 ], [ 22.655138, 32.765415 ], [ 22.655416, 32.765415 ], [ 22.655416, 32.765141 ], [ 22.655790001000071, 32.765141 ], [ 22.655972, 32.765141 ], [ 22.655972, 32.764904 ], [ 22.65625, 32.764862 ], [ 22.65625, 32.764584 ], [ 22.656527999000048, 32.764584 ], [ 22.656528, 32.764305 ], [ 22.656807, 32.764305 ], [ 22.656807, 32.764027 ], [ 22.657084, 32.764027 ], [ 22.657084, 32.763748 ], [ 22.657362, 32.763748 ], [ 22.657362, 32.763474 ], [ 22.657919, 32.763474 ], [ 22.657919, 32.763195 ], [ 22.658194, 32.763195 ], [ 22.658194, 32.762917 ], [ 22.658751, 32.762917 ], [ 22.658751, 32.76236 ], [ 22.657919, 32.76236 ], [ 22.657919, 32.762638 ], [ 22.657362, 32.762638 ], [ 22.657362, 32.762917 ], [ 22.656807, 32.762917 ], [ 22.656807, 32.763195 ], [ 22.655416, 32.763195 ], [ 22.655416, 32.763474 ], [ 22.655138, 32.763474 ], [ 22.655138, 32.763748 ], [ 22.654585, 32.763748 ], [ 22.654585, 32.764027 ], [ 22.653475, 32.764027 ], [ 22.653475, 32.763195 ], [ 22.653193, 32.763195 ], [ 22.653193, 32.761528 ], [ 22.654028, 32.761528 ], [ 22.654028, 32.76125 ], [ 22.654861, 32.76125 ], [ 22.654861, 32.761528 ], [ 22.655138, 32.761528 ], [ 22.655138, 32.761806 ], [ 22.655972, 32.761806 ], [ 22.65597199900003, 32.762085 ], [ 22.656807, 32.762085 ], [ 22.656807, 32.76236 ], [ 22.657362, 32.76236 ], [ 22.657362, 32.76125 ], [ 22.657084, 32.76125 ], [ 22.657084, 32.760971 ], [ 22.656807, 32.760971 ], [ 22.656807, 32.760693 ], [ 22.656662001000029, 32.760693 ], [ 22.656528, 32.760693 ], [ 22.656528, 32.760139 ], [ 22.65625, 32.760139 ], [ 22.65625, 32.759861 ], [ 22.655972, 32.759861 ], [ 22.655972, 32.759583 ], [ 22.655697, 32.759583 ], [ 22.655697, 32.759029 ], [ 22.65597199900003, 32.759029 ], [ 22.65597199900003, 32.758472 ], [ 22.65625, 32.758472 ], [ 22.65625, 32.758194 ], [ 22.656528, 32.758194 ], [ 22.656528, 32.757915 ], [ 22.656807, 32.757915 ], [ 22.656807, 32.757362 ], [ 22.657084, 32.757362 ], [ 22.657084, 32.757084 ], [ 22.657919, 32.757084 ], [ 22.657919, 32.756805 ], [ 22.658907, 32.756805 ], [ 22.659027, 32.756805 ], [ 22.659027, 32.756721 ], [ 22.659027, 32.756527 ], [ 22.659306, 32.756527 ], [ 22.659306, 32.756248 ], [ 22.660181, 32.756248 ], [ 22.661528, 32.756248 ], [ 22.661528, 32.755974 ], [ 22.662083, 32.755974 ], [ 22.662083, 32.755695 ], [ 22.66264, 32.755695 ], [ 22.662640001000057, 32.755463 ], [ 22.662781, 32.755417 ], [ 22.663195, 32.755417 ], [ 22.663195, 32.755283 ], [ 22.663195, 32.755138 ], [ 22.663470999000026, 32.755138 ], [ 22.663471, 32.75486 ], [ 22.664028, 32.75486 ], [ 22.664028, 32.754581 ], [ 22.664581, 32.754581 ], [ 22.664581, 32.754307 ], [ 22.665138, 32.754307 ], [ 22.665138, 32.754028 ], [ 22.666729, 32.754028 ], [ 22.66736, 32.754028 ], [ 22.66736, 32.753803 ], [ 22.66736, 32.753471 ], [ 22.667639, 32.753471 ], [ 22.667639, 32.752918 ], [ 22.668196, 32.752918 ], [ 22.668196, 32.753193 ], [ 22.668472001000055, 32.753193 ], [ 22.668472, 32.753448 ], [ 22.668472, 32.75375 ], [ 22.669306, 32.75375 ], [ 22.669306, 32.753471 ], [ 22.672916, 32.753471 ], [ 22.672916, 32.753193 ], [ 22.673195, 32.753193 ], [ 22.673195, 32.752735 ], [ 22.673195, 32.75264 ], [ 22.673471, 32.75264 ], [ 22.673471, 32.752083 ], [ 22.67375, 32.752083 ], [ 22.67375, 32.751804 ], [ 22.676508, 32.751804 ], [ 22.677361, 32.751804 ], [ 22.677361, 32.751553 ], [ 22.67746, 32.751526 ], [ 22.677917, 32.751526 ], [ 22.677917, 32.751389 ], [ 22.677917, 32.751251 ], [ 22.678474, 32.751251 ], [ 22.678474, 32.750973 ], [ 22.679028, 32.750973 ], [ 22.679028, 32.750694 ], [ 22.683195, 32.750694 ], [ 22.683195, 32.750973 ], [ 22.684029, 32.750973 ], [ 22.684029, 32.750694 ], [ 22.684584, 32.750694 ], [ 22.684584, 32.750416 ], [ 22.685417, 32.750416 ], [ 22.68541699900004, 32.750137 ], [ 22.685972, 32.750137 ], [ 22.685972, 32.749863 ], [ 22.686527, 32.749863 ], [ 22.686527001000059, 32.749027 ], [ 22.686251001000073, 32.749027 ], [ 22.686251, 32.748474 ], [ 22.689306, 32.748474 ], [ 22.689306, 32.748749 ], [ 22.690142, 32.748749 ], [ 22.690142, 32.748474 ], [ 22.690695, 32.74847 ], [ 22.690695, 32.748196 ], [ 22.690971, 32.748196 ], [ 22.690971, 32.747917 ], [ 22.694027, 32.747917 ], [ 22.694027, 32.748196 ], [ 22.694305, 32.748196 ], [ 22.694305, 32.74847 ], [ 22.694586, 32.748474 ], [ 22.694586, 32.748684 ], [ 22.694586, 32.749027 ], [ 22.694771, 32.749027 ], [ 22.69486, 32.749027 ], [ 22.69486, 32.749306 ], [ 22.695139, 32.749306 ], [ 22.695139, 32.748928 ], [ 22.695139, 32.748749 ], [ 22.695417, 32.748749 ], [ 22.695417, 32.748554 ], [ 22.695417, 32.748196 ], [ 22.695696, 32.748196 ], [ 22.695696, 32.747917 ], [ 22.696808, 32.747917 ], [ 22.696808, 32.747639 ], [ 22.698195, 32.747639 ], [ 22.698195001000045, 32.74736 ], [ 22.699305, 32.74736 ], [ 22.699306, 32.747082 ], [ 22.700695, 32.747082 ], [ 22.700695, 32.746807 ], [ 22.701529, 32.746807 ], [ 22.701529, 32.746529 ], [ 22.70236, 32.746529 ], [ 22.70236, 32.74625 ], [ 22.702917, 32.74625 ], [ 22.702917, 32.745972 ], [ 22.703753, 32.745972 ], [ 22.703753, 32.745693 ], [ 22.703981472000066, 32.745693 ], [ 22.660923677000028, 32.611968466000064 ], [ 22.501928169000053, 32.656434532000048 ], [ 22.556457908000027, 32.800694 ], [ 22.559973, 32.800694 ], [ 22.560123, 32.800694 ], [ 22.560972, 32.800694 ] ] ] ] } }
]
}
