{
"type": "FeatureCollection",
"name": "EMSN177_FLEX_AOI01_P02REF_HidrologyA",
"crs": { "type": "name", "properties": { "name": "urn:ogc:def:crs:OGC:1.3:CRS84" } },
"features": [
{ "type": "Feature", "properties": { "obj_type": "Lake", "NAM": "Unknown", "HYP": "Perennial", "det_method": "Ancillary data", "or_src_id": "994", "emsn_id": "EMSN177", "fwc_type": "FLEX", "aoi_id": "1", "name": "Derna", "country": "Libya" }, "geometry": { "type": "MultiPolygon", "coordinates": [ [ [ [ 22.652771944834289, 32.741960527845528 ], [ 22.652951400520777, 32.74203470033499 ], [ 22.653033600446356, 32.742130899636635 ], [ 22.65313019964243, 32.742242200043648 ], [ 22.653291099481851, 32.742314399900437 ], [ 22.653459199514746, 32.742266299618841 ], [ 22.653301899725058, 32.742088800451597 ], [ 22.653148099671661, 32.74194740017078 ], [ 22.652983600167055, 32.741839099617536 ], [ 22.652804700418034, 32.741751899742034 ], [ 22.652767850849283, 32.741738822711653 ], [ 22.652681311277121, 32.741720820840193 ], [ 22.652606336350459, 32.741697468642684 ], [ 22.652475836758953, 32.741694894632488 ], [ 22.65243367819059, 32.741705472672585 ], [ 22.652400727868063, 32.741756020446559 ], [ 22.652401626385483, 32.741804689636027 ], [ 22.652426105489671, 32.741845888459345 ], [ 22.652467310878954, 32.741875413255109 ], [ 22.652528656490887, 32.741894649429192 ], [ 22.652683503487481, 32.741931266262704 ], [ 22.652771944834289, 32.741960527845528 ] ] ] ] } },
{ "type": "Feature", "properties": { "obj_type": "Ocean\/Sea", "NAM": "Libyan Sea", "HYP": "Not applicable", "det_method": "Photo-interpretation", "or_src_id": "1", "emsn_id": "EMSN177", "fwc_type": "FLEX", "aoi_id": "1", "name": "Derna", "country": "Libya" }, "geometry": { "type": "MultiPolygon", "coordinates": [ [ [ [ 22.586938683682881, 32.783819677112675 ], [ 22.586912987250599, 32.783776642694562 ], [ 22.586849899922772, 32.78376580005186 ], [ 22.58671450030992, 32.783763600387879 ], [ 22.586621900532752, 32.783801900432906 ], [ 22.586542799905377, 32.783880800007978 ], [ 22.586502599724177, 32.783974399659577 ], [ 22.586495899599591, 32.784030799827249 ], [ 22.586552199700389, 32.784151399989412 ], [ 22.586580611863734, 32.784220085090446 ], [ 22.58667799371467, 32.784252522875285 ], [ 22.586933777302097, 32.784338769948903 ], [ 22.587090601263906, 32.784420304429659 ], [ 22.587142888136768, 32.784580720118512 ], [ 22.587130567352983, 32.784682296796234 ], [ 22.587061334617669, 32.784760729803587 ], [ 22.586942039435066, 32.784804002493452 ], [ 22.586743907669735, 32.784782649950827 ], [ 22.586623765048792, 32.784778205925427 ], [ 22.586425527497461, 32.784750887983897 ], [ 22.586157738865406, 32.784784109385349 ], [ 22.586032192391873, 32.784887640427769 ], [ 22.586025485911989, 32.784893170284263 ], [ 22.58602117805021, 32.785048337877065 ], [ 22.586047792403924, 32.785084678484914 ], [ 22.586108300161175, 32.785167299599074 ], [ 22.586133800194851, 32.785228200183333 ], [ 22.586124400087122, 32.78531049992263 ], [ 22.586088200387916, 32.785459299781593 ], [ 22.585968800491351, 32.785690399626134 ], [ 22.585557100349806, 32.786124499802831 ], [ 22.585430999950852, 32.786239499843425 ], [ 22.585227199872097, 32.786345499954237 ], [ 22.58462640044073, 32.786432300058692 ], [ 22.584357999944785, 32.786464399842956 ], [ 22.584291799828431, 32.786472300347278 ], [ 22.584226100193394, 32.786473500398209 ], [ 22.584138199506096, 32.786449199734143 ], [ 22.583915599572737, 32.78633540012423 ], [ 22.583778799933921, 32.786240700096137 ], [ 22.583703700277997, 32.786213599994433 ], [ 22.583611199922263, 32.786217000224482 ], [ 22.583368400144124, 32.786307199948638 ], [ 22.583293300125881, 32.786355699873106 ], [ 22.583190099591906, 32.786448099961923 ], [ 22.583143099633471, 32.786492100196831 ], [ 22.583057299870692, 32.786521399777776 ], [ 22.582861500327773, 32.786563100428715 ], [ 22.582634800204072, 32.786541700274341 ], [ 22.582422900459154, 32.786513499769796 ], [ 22.582280799775347, 32.786478500370883 ], [ 22.582113100367756, 32.78641090033716 ], [ 22.581940099551673, 32.786346600445711 ], [ 22.581771200233749, 32.786346599981826 ], [ 22.581723600024031, 32.78637030042637 ], [ 22.581681300427086, 32.786405299969111 ], [ 22.581658500031427, 32.786485300114485 ], [ 22.581608900381514, 32.786529300152012 ], [ 22.581552599573453, 32.78653150028628 ], [ 22.5814868004123, 32.786507899912877 ], [ 22.581392999705393, 32.786465000156397 ], [ 22.581277599652868, 32.78646499987078 ], [ 22.5811877998993, 32.786483099873735 ], [ 22.581020100285262, 32.786565400193226 ], [ 22.580924900123648, 32.786652200215279 ], [ 22.580888000148388, 32.786672500293221 ], [ 22.580839099662114, 32.786665700171049 ], [ 22.580774699804927, 32.786627400213149 ], [ 22.580699600200465, 32.786554099865903 ], [ 22.580546700442913, 32.786553000187865 ], [ 22.580444799921626, 32.78659810000925 ], [ 22.580338899952341, 32.786743500158416 ], [ 22.580270499510053, 32.786830299710012 ], [ 22.580168500444149, 32.786912599577747 ], [ 22.579991500097691, 32.786997200368553 ], [ 22.579776899740434, 32.787017499852183 ], [ 22.57953080047923, 32.787007899690728 ], [ 22.579325000401415, 32.786987000171536 ], [ 22.57909569998316, 32.786927299967907 ], [ 22.578855599494045, 32.786760400009122 ], [ 22.578720200431995, 32.786628500228105 ], [ 22.578653099982382, 32.786557499607838 ], [ 22.5786008002264, 32.786543399780925 ], [ 22.578544499618172, 32.786559700173477 ], [ 22.578502900519812, 32.786619500014744 ], [ 22.57845060019131, 32.786653299618386 ], [ 22.578371500091851, 32.786683700307606 ], [ 22.577967800078508, 32.786762699817729 ], [ 22.577864500113165, 32.786756999780692 ], [ 22.577789400039308, 32.786726599572283 ], [ 22.57771830034957, 32.78667700012452 ], [ 22.577682100343075, 32.786674699907735 ], [ 22.577637899611169, 32.786688300416721 ], [ 22.577609700305665, 32.786757000026185 ], [ 22.577600999584241, 32.786833099618619 ], [ 22.577573500095752, 32.786875400045339 ], [ 22.577507799822186, 32.786898000192586 ], [ 22.577287899759401, 32.786940800293486 ], [ 22.577000899680115, 32.78695879965511 ], [ 22.576705799513192, 32.78691490013108 ], [ 22.576413500085884, 32.786888900355919 ], [ 22.576066099603072, 32.786947599711624 ], [ 22.575749600292465, 32.787045699570584 ], [ 22.575238599979969, 32.787380500086215 ], [ 22.574594899714583, 32.787590199624944 ], [ 22.572988299902626, 32.787729999687684 ], [ 22.572105800232386, 32.78779319965205 ], [ 22.571875200234061, 32.787742399999367 ], [ 22.571789300328565, 32.787726599546225 ], [ 22.57168609993608, 32.787734499644053 ], [ 22.571421899610744, 32.787790900004531 ], [ 22.570754000238324, 32.787957800389968 ], [ 22.568224700132568, 32.788668000156498 ], [ 22.566287400360004, 32.789447099724512 ], [ 22.566253200312538, 32.78947360042207 ], [ 22.566229100458081, 32.789504000086509 ], [ 22.566199599915794, 32.789607199654853 ], [ 22.566186899873571, 32.78963310041884 ], [ 22.566148600301215, 32.789660199832582 ], [ 22.565950199816349, 32.789715399634083 ], [ 22.565578700136911, 32.789868799773586 ], [ 22.564448400121705, 32.790575200079019 ], [ 22.564375700132103, 32.790620699655008 ], [ 22.563394000353171, 32.791416699561118 ], [ 22.562892400048678, 32.791833800238265 ], [ 22.562465999988728, 32.792338899768062 ], [ 22.56241629992342, 32.792413300340939 ], [ 22.562408299749585, 32.792494499734872 ], [ 22.562441800007395, 32.792586900049635 ], [ 22.562479400027147, 32.792674799984354 ], [ 22.562495499791986, 32.792727800215793 ], [ 22.562461900351973, 32.792814599830763 ], [ 22.562372100225975, 32.792978099848369 ], [ 22.562201099842138, 32.793379499775362 ], [ 22.562204399588239, 32.793421700405844 ], [ 22.56222789964124, 32.793455600206578 ], [ 22.56226410028577, 32.793484600107242 ], [ 22.562283200396763, 32.79351779987919 ], [ 22.562265499474506, 32.793563200104806 ], [ 22.562229900509347, 32.793582100407548 ], [ 22.562193100048432, 32.793590000443828 ], [ 22.562164599793554, 32.793613099929821 ], [ 22.562155499738484, 32.793638199571483 ], [ 22.562154800282613, 32.793718800072725 ], [ 22.562157500072868, 32.793876600177278 ], [ 22.562199100236253, 32.794180999556161 ], [ 22.56226479989537, 32.794433499828912 ], [ 22.562373399968621, 32.794709699559256 ], [ 22.562543700261287, 32.794984800017943 ], [ 22.562601399744889, 32.795041699617386 ], [ 22.562673799754116, 32.795072800075033 ], [ 22.562770400365853, 32.795097599723903 ], [ 22.562858899953639, 32.795146000137137 ], [ 22.562896500321028, 32.795188300224567 ], [ 22.562919299989431, 32.795237299669161 ], [ 22.562910499897836, 32.795279599884346 ], [ 22.56288170022556, 32.795319599983884 ], [ 22.562780800338892, 32.795348399727175 ], [ 22.562773400032253, 32.795363899721011 ], [ 22.562774799652701, 32.795383899634459 ], [ 22.562798599507229, 32.795405900039718 ], [ 22.562979600534231, 32.795484200059128 ], [ 22.563058099748339, 32.795502800096422 ], [ 22.563162000499371, 32.795481999741874 ], [ 22.563278700006624, 32.795412599685811 ], [ 22.563313500168622, 32.795416000193441 ], [ 22.563336299906364, 32.795446500118757 ], [ 22.56331559996795, 32.795489299783647 ], [ 22.563219700508203, 32.795556400034798 ], [ 22.563151900089665, 32.795585699589822 ], [ 22.563090900401818, 32.795651099544614 ], [ 22.5630775005312, 32.795721499921505 ], [ 22.563119799630091, 32.795830299918997 ], [ 22.563169400384268, 32.79590130005559 ], [ 22.563226399910643, 32.795945299693784 ], [ 22.563321600080748, 32.795962200161242 ], [ 22.563361800503692, 32.795984200418651 ], [ 22.563376599647839, 32.796024200113358 ], [ 22.563344400442297, 32.796084000384859 ], [ 22.563328300447026, 32.796147100020846 ], [ 22.563343000098023, 32.796186600390811 ], [ 22.563369899753461, 32.796205700159362 ], [ 22.563458400363224, 32.796237299900802 ], [ 22.563607199859526, 32.796276799678203 ], [ 22.563660200216624, 32.796300399650313 ], [ 22.563705099670251, 32.796351200078512 ], [ 22.563819100514358, 32.796596899879489 ], [ 22.563812399965297, 32.796692799812604 ], [ 22.563835199492011, 32.796761499862889 ], [ 22.563853999874684, 32.796897899812613 ], [ 22.563851299644146, 32.796980200126313 ], [ 22.563845900320239, 32.797021299841418 ], [ 22.563789199608532, 32.797055600297618 ], [ 22.563727600318622, 32.797032799561947 ], [ 22.563638500244689, 32.796977500358118 ], [ 22.563500800038657, 32.796932199745058 ], [ 22.563318299644738, 32.796872700110427 ], [ 22.563267500432325, 32.796864199643643 ], [ 22.563214300010163, 32.796849500424443 ], [ 22.563101700006474, 32.796947499886926 ], [ 22.56305340032544, 32.797030999897665 ], [ 22.563034600388519, 32.797094099827397 ], [ 22.563036599526018, 32.797218099804645 ], [ 22.56303859997125, 32.797573199698753 ], [ 22.563054100405292, 32.7976661996383 ], [ 22.56307750041719, 32.79769210038657 ], [ 22.563117799720899, 32.797699999640528 ], [ 22.563211000157924, 32.797689299990225 ], [ 22.563553599483413, 32.797636300059651 ], [ 22.563644799596158, 32.797639199973808 ], [ 22.563687699829913, 32.797656100264767 ], [ 22.563697800421089, 32.797704499605821 ], [ 22.563699100376969, 32.797767099664291 ], [ 22.563648799493755, 32.798291899949469 ], [ 22.563648200462033, 32.798364000267185 ], [ 22.563645100155419, 32.798384299875885 ], [ 22.56362939997199, 32.798398999837929 ], [ 22.563593799618779, 32.79840010012844 ], [ 22.563516099680758, 32.798349899602186 ], [ 22.56327870024446, 32.798169600436019 ], [ 22.563136500080969, 32.798073699803737 ], [ 22.562962200469013, 32.797955399887591 ], [ 22.562919900314611, 32.797943500260246 ], [ 22.562881700264981, 32.797951399956837 ], [ 22.562851500052098, 32.798031999749234 ], [ 22.562656400117085, 32.798187600168021 ], [ 22.562582700223565, 32.798307699741585 ], [ 22.562530399606477, 32.79844690020456 ], [ 22.56250760039277, 32.798645300270643 ], [ 22.562535699922069, 32.798820599927538 ], [ 22.562573900153801, 32.798902900265389 ], [ 22.562631600113111, 32.798944599587806 ], [ 22.562724800467166, 32.798955300304847 ], [ 22.562803900260651, 32.798933899688677 ], [ 22.563116400346107, 32.798853800263231 ], [ 22.563275999582284, 32.798828999716022 ], [ 22.563618021431321, 32.798838045802725 ], [ 22.563693948492006, 32.798905957889644 ], [ 22.563775895742214, 32.79897925500309 ], [ 22.563594681074203, 32.799118733769355 ], [ 22.563311637580135, 32.799292295873727 ], [ 22.562910115188284, 32.799501684463678 ], [ 22.562689163939556, 32.799616907291693 ], [ 22.562497799869266, 32.799716700122794 ], [ 22.562471999957271, 32.799703500404 ], [ 22.562443199553126, 32.799658700323747 ], [ 22.562311100097492, 32.799487399712774 ], [ 22.562271500342618, 32.799455799661757 ], [ 22.562216500226437, 32.799451299851171 ], [ 22.561607763622163, 32.799669847402626 ], [ 22.561692608338198, 32.799816617724311 ], [ 22.561815767648728, 32.799980835841517 ], [ 22.561863800476271, 32.799956300410294 ], [ 22.562187700372363, 32.799808599583812 ], [ 22.562272200135215, 32.799776499996824 ], [ 22.562317799475718, 32.799767499789006 ], [ 22.562340600171623, 32.799773100348133 ], [ 22.56235869970126, 32.799793399648337 ], [ 22.562351300129677, 32.79982269999266 ], [ 22.561781299866702, 32.800089300442501 ], [ 22.561638364018446, 32.800166389762829 ], [ 22.561367299211657, 32.799974593378799 ], [ 22.561280925357618, 32.799882602418442 ], [ 22.56121882620457, 32.799791395525496 ], [ 22.561102100025892, 32.799877400363506 ], [ 22.560350999517869, 32.79998790000365 ], [ 22.560382071838312, 32.800112419788405 ], [ 22.560417971743203, 32.800226517150485 ], [ 22.560445772722833, 32.800362193036499 ], [ 22.5604461479222, 32.800383665957291 ], [ 22.560447898821103, 32.800483870815896 ], [ 22.560475825002118, 32.800626703724816 ], [ 22.560349703183917, 32.800685547997162 ], [ 22.560135207067354, 32.800537880542713 ], [ 22.559808789028626, 32.800291380422173 ], [ 22.559653742808937, 32.800127468209318 ], [ 22.559273355661006, 32.799725324920651 ], [ 22.559210471780922, 32.79965694373071 ], [ 22.558726949465949, 32.799131150676082 ], [ 22.558541900198364, 32.799001500445165 ], [ 22.558361297741971, 32.798949182706387 ], [ 22.558258227397506, 32.798871716393059 ], [ 22.558095836488988, 32.798794987308597 ], [ 22.557772426619628, 32.798720261468524 ], [ 22.557395049354419, 32.798467230156334 ], [ 22.557311177068136, 32.79851838632397 ], [ 22.557415618098208, 32.798674587349531 ], [ 22.55762287952124, 32.798893940212977 ], [ 22.557830265743608, 32.799120449757943 ], [ 22.558166771661845, 32.799459897851271 ], [ 22.558486205818959, 32.799792397978919 ], [ 22.558615035453634, 32.799880385478367 ], [ 22.558795044360444, 32.800003325728298 ], [ 22.558806921648848, 32.800013845854707 ], [ 22.558946250514861, 32.800137249956407 ], [ 22.558969661678908, 32.800294673134033 ], [ 22.558955086112693, 32.80043087703919 ], [ 22.558932036245629, 32.800567185555757 ], [ 22.558892660385272, 32.800739493949557 ], [ 22.558841936515538, 32.800747284106635 ], [ 22.558551793581991, 32.800636351433965 ], [ 22.558389399163651, 32.800559622855396 ], [ 22.558201828867372, 32.800497526395183 ], [ 22.558081199650076, 32.800567299957713 ], [ 22.558042300465264, 32.800595999944761 ], [ 22.557979999942777, 32.800622499998717 ], [ 22.557888799624095, 32.800652999807959 ], [ 22.557707699610933, 32.800660799970927 ], [ 22.557553500228902, 32.800657499810008 ], [ 22.55750450019719, 32.800662000296228 ], [ 22.557442899742345, 32.800682299642276 ], [ 22.557367100023029, 32.800722800185632 ], [ 22.557301999960121, 32.800749900238515 ], [ 22.557209799591224, 32.800767900453494 ], [ 22.557149199756434, 32.800770200063042 ], [ 22.557086500340521, 32.800773599951256 ], [ 22.557042499677735, 32.800789399668716 ], [ 22.556968800387793, 32.800834499841727 ], [ 22.55660269762831, 32.801096116878156 ], [ 22.560591596736909, 32.811629753762034 ], [ 22.568574795935866, 32.809211398376092 ], [ 22.589820545978892, 32.802772321532061 ], [ 22.611063095349749, 32.796329727380275 ], [ 22.622508889790268, 32.792856503627057 ], [ 22.632302441775096, 32.789883617726638 ], [ 22.653538582984673, 32.783433994378449 ], [ 22.710551178985504, 32.766096529395803 ], [ 22.703920290746545, 32.745537350361531 ], [ 22.703355620168818, 32.74568271109267 ], [ 22.703081853831019, 32.745763987382396 ], [ 22.702996332060327, 32.745868689669614 ], [ 22.702978374783484, 32.745890675118375 ], [ 22.702936937241386, 32.74593896364388 ], [ 22.702782806941396, 32.746000715863602 ], [ 22.702641543014821, 32.745996670240551 ], [ 22.702639362145746, 32.745996699874524 ], [ 22.70258508261789, 32.745997437420684 ], [ 22.702381209083036, 32.746041967575955 ], [ 22.702324868062085, 32.746093276847368 ], [ 22.702221608535709, 32.746187313729308 ], [ 22.701682601325096, 32.746427300147893 ], [ 22.701267793068865, 32.74651645311237 ], [ 22.701022511206503, 32.746470391935588 ], [ 22.700941898464254, 32.746455253709129 ], [ 22.70080188072853, 32.746516811954521 ], [ 22.700211198171466, 32.746638178284343 ], [ 22.699994452145763, 32.746748502122216 ], [ 22.699636554625901, 32.746860741202838 ], [ 22.699589507649826, 32.746876839871 ], [ 22.699327944902716, 32.74696634472398 ], [ 22.698912452071411, 32.747019705207869 ], [ 22.698567987747804, 32.747095964188908 ], [ 22.698224088740275, 32.747202043397841 ], [ 22.698048553300115, 32.747252148636882 ], [ 22.697766247727483, 32.747255974053722 ], [ 22.697603921785625, 32.747258173383543 ], [ 22.697476884033293, 32.747259894452263 ], [ 22.697385474949769, 32.747279030234608 ], [ 22.697053765896055, 32.74728352327957 ], [ 22.696870266694081, 32.747286008424275 ], [ 22.696624719156489, 32.747366888630125 ], [ 22.696413894093073, 32.74741746852866 ], [ 22.696294931683827, 32.747472771522702 ], [ 22.696041308625478, 32.747500067474036 ], [ 22.695770673361572, 32.747582275002074 ], [ 22.695753526253373, 32.74758748379822 ], [ 22.695749681993654, 32.74759390420494 ], [ 22.695685096919522, 32.747701759104352 ], [ 22.695552018479017, 32.747757251535454 ], [ 22.6953505099568, 32.7479270198709 ], [ 22.695159839216412, 32.747923633438255 ], [ 22.695142011703812, 32.747909043627047 ], [ 22.695095302411094, 32.747870814970227 ], [ 22.694791822209524, 32.747874920173984 ], [ 22.694537744572866, 32.747878356539417 ], [ 22.694404326308018, 32.747915955775994 ], [ 22.694319239891449, 32.747931962604376 ], [ 22.694165154149232, 32.747960950032635 ], [ 22.69402388811546, 32.747956893864838 ], [ 22.693896171723519, 32.747922826414246 ], [ 22.693873298124526, 32.747914987784149 ], [ 22.693661686729357, 32.747842474804784 ], [ 22.69344289861488, 32.747845431939027 ], [ 22.693125979097662, 32.747885509726103 ], [ 22.69297557212866, 32.74791654202442 ], [ 22.692661862283611, 32.747981266859625 ], [ 22.692528330167313, 32.748012899519559 ], [ 22.69231659858756, 32.748015759375264 ], [ 22.692097621276055, 32.747982664681906 ], [ 22.691902762433781, 32.747997339181573 ], [ 22.691121992533976, 32.748147478785377 ], [ 22.690600396522154, 32.748324523927479 ], [ 22.690419134988367, 32.748386048186248 ], [ 22.690137035319104, 32.748475760634328 ], [ 22.690083564411761, 32.748470468848296 ], [ 22.689882415768366, 32.74845055924866 ], [ 22.68970368155647, 32.74840643651757 ], [ 22.689439376301998, 32.748316935074854 ], [ 22.689386277772005, 32.748303491011725 ], [ 22.689304425179493, 32.748282767456011 ], [ 22.689090378773255, 32.748228573877242 ], [ 22.688737754823293, 32.748172475906586 ], [ 22.688160087732374, 32.748087193792642 ], [ 22.687917429699024, 32.74802245340954 ], [ 22.687533815259712, 32.747895180323439 ], [ 22.68717716200057, 32.747849870326036 ], [ 22.687031491540662, 32.747898284619566 ], [ 22.686907764050577, 32.74793940540539 ], [ 22.686719296554401, 32.74805290558249 ], [ 22.686611556306392, 32.748179637607272 ], [ 22.686547579188666, 32.748380948447611 ], [ 22.686561040345467, 32.748645647639869 ], [ 22.686523144838468, 32.748882402426808 ], [ 22.686418775669331, 32.749188062287409 ], [ 22.68587682838788, 32.749649947259137 ], [ 22.685598432606348, 32.749777991429028 ], [ 22.685171326451435, 32.749974430231163 ], [ 22.684080792228503, 32.750321983491808 ], [ 22.683555352695834, 32.7505366538728 ], [ 22.683356243215773, 32.750593263379123 ], [ 22.683264635116842, 32.750619308395002 ], [ 22.683144025802424, 32.750606800213042 ], [ 22.683111847005183, 32.750603463394086 ], [ 22.682996295934803, 32.750540584825494 ], [ 22.682961408177313, 32.750487361763511 ], [ 22.683001198397339, 32.75035080735541 ], [ 22.683028485403998, 32.750225159039132 ], [ 22.683035541855435, 32.750149896262414 ], [ 22.683000236891179, 32.750074485478677 ], [ 22.68284616987625, 32.749990647786184 ], [ 22.682727193468505, 32.749970768478875 ], [ 22.682355881423685, 32.750047343861596 ], [ 22.682068860990956, 32.750101310272427 ], [ 22.681648344992581, 32.750264451191882 ], [ 22.681304726072199, 32.750462353954099 ], [ 22.680943628674097, 32.750631854593074 ], [ 22.680623263878548, 32.750714900772273 ], [ 22.680031738169514, 32.750794422956545 ], [ 22.679794053013605, 32.750768974063099 ], [ 22.679463739695521, 32.750773402047898 ], [ 22.67870879608277, 32.750742634530525 ], [ 22.678512147936289, 32.750626270798975 ], [ 22.678235768562335, 32.750570315118431 ], [ 22.678032093421539, 32.750626734760786 ], [ 22.677983252353535, 32.750718962711069 ], [ 22.677936637719014, 32.75080698677727 ], [ 22.677905486233485, 32.751028137934419 ], [ 22.677820992589581, 32.75108086601049 ], [ 22.677807792970142, 32.751089104057286 ], [ 22.677753656654794, 32.751106264526811 ], [ 22.677708644598646, 32.751072534161835 ], [ 22.677569168885697, 32.75097596608191 ], [ 22.677554755747046, 32.75096798142048 ], [ 22.677369419982973, 32.750865290733152 ], [ 22.67729573652819, 32.750819506674418 ], [ 22.677280132270891, 32.750809810763442 ], [ 22.677230342154303, 32.750817980285362 ], [ 22.677172132377105, 32.750827531482479 ], [ 22.677121775115907, 32.750835794234966 ], [ 22.677035002903281, 32.750914510225805 ], [ 22.677016065581405, 32.751034079481073 ], [ 22.677019475269351, 32.751215991044376 ], [ 22.677019355203086, 32.751397948945325 ], [ 22.676992744437481, 32.751484808427591 ], [ 22.676944064938905, 32.751524237687434 ], [ 22.676789794015562, 32.751579995016868 ], [ 22.676602978908551, 32.751594426404871 ], [ 22.676481805593319, 32.751592745915914 ], [ 22.67638406687313, 32.751591389416667 ], [ 22.67635086202613, 32.75158553472609 ], [ 22.675990949327932, 32.751522076657267 ], [ 22.675887657587769, 32.751472749171043 ], [ 22.675631780029438, 32.751380718434625 ], [ 22.675188463992242, 32.751458235703311 ], [ 22.67471164200553, 32.751631652298734 ], [ 22.673967392871422, 32.751850400698594 ], [ 22.673399368455406, 32.752054859808567 ], [ 22.673069533670848, 32.752160682931148 ], [ 22.672779507156022, 32.75235665385653 ], [ 22.672698757241449, 32.752568921159913 ], [ 22.67256705447598, 32.752774709229215 ], [ 22.672395765052421, 32.752902276852581 ], [ 22.672215068373127, 32.752979857715218 ], [ 22.671834996769618, 32.753042201307451 ], [ 22.671584200558506, 32.752995435496508 ], [ 22.67147825429252, 32.753003428404263 ], [ 22.671123130660632, 32.753030221817568 ], [ 22.670943568785443, 32.753168636915611 ], [ 22.670899830058875, 32.753204321792204 ], [ 22.670814224940315, 32.753274166650698 ], [ 22.670641995340397, 32.753351631463232 ], [ 22.67054856032177, 32.753338559435157 ], [ 22.670399201431643, 32.753279700527216 ], [ 22.670292526450208, 32.753238168173446 ], [ 22.670118694195562, 32.753229747294448 ], [ 22.669852428002617, 32.75326193208501 ], [ 22.669501798155171, 32.753313138063213 ], [ 22.669373653244019, 32.753483081262409 ], [ 22.669143936089501, 32.753657956343673 ], [ 22.668946242527621, 32.753692375154053 ], [ 22.668726592410664, 32.753730617087079 ], [ 22.668654150517447, 32.753743229229208 ], [ 22.6686017804907, 32.753739907775874 ], [ 22.668420895165898, 32.753728438024403 ], [ 22.668209825883814, 32.753691742032125 ], [ 22.667874704793732, 32.753633478270899 ], [ 22.667808927268478, 32.753622042770864 ], [ 22.667778847366119, 32.753641897459019 ], [ 22.667637362367241, 32.753735289812887 ], [ 22.667463496143245, 32.753952373020375 ], [ 22.66735021865988, 32.754011152096439 ], [ 22.667164147198349, 32.754027946085586 ], [ 22.666962674216869, 32.754038741353284 ], [ 22.666897543899228, 32.75404223155914 ], [ 22.666680359979889, 32.753980689952257 ], [ 22.66662128864337, 32.753996594528473 ], [ 22.666372674124503, 32.754063531434873 ], [ 22.665949673949289, 32.754323299862556 ], [ 22.665609237926123, 32.754467426211896 ], [ 22.665155323190721, 32.754623693475907 ], [ 22.664830559223024, 32.754735497701986 ], [ 22.66474933406467, 32.754872991519989 ], [ 22.664662184680051, 32.755020513918346 ], [ 22.664161612433436, 32.755209717668372 ], [ 22.663662676681312, 32.755259297619176 ], [ 22.663501448678243, 32.755235733878315 ], [ 22.663348352614857, 32.755213358017066 ], [ 22.663043141202674, 32.754974005566005 ], [ 22.662882942909896, 32.755015505889801 ], [ 22.662922986394101, 32.755118779349871 ], [ 22.662930399991112, 32.755157465978016 ], [ 22.662955825469432, 32.755290158181253 ], [ 22.662950747599965, 32.755472779377598 ], [ 22.662850969251245, 32.755574328959071 ], [ 22.661871086496038, 32.755792732585725 ], [ 22.661451500287107, 32.755950700381987 ], [ 22.661222199723927, 32.756029700258765 ], [ 22.661108199671013, 32.756048900143981 ], [ 22.661019700147946, 32.756030799575896 ], [ 22.660840699605423, 32.755940600087996 ], [ 22.660722000477502, 32.755845299794316 ], [ 22.660682400157839, 32.755815400416992 ], [ 22.660635499817133, 32.755825500302784 ], [ 22.660605299835538, 32.755855400423833 ], [ 22.66060769957457, 32.755975299837615 ], [ 22.660594600326331, 32.756074800438128 ], [ 22.660564400103464, 32.756131199712058 ], [ 22.6605241997772, 32.756170699761391 ], [ 22.660315600298016, 32.756294200090828 ], [ 22.660114499933325, 32.756381599879454 ], [ 22.660052100038694, 32.75638210021588 ], [ 22.660005199686744, 32.756363000377718 ], [ 22.659960900504398, 32.756317899927744 ], [ 22.659927399773906, 32.75630040019449 ], [ 22.659887800359865, 32.756298100052689 ], [ 22.659744300360916, 32.756333099664346 ], [ 22.659572700299368, 32.756427800209273 ], [ 22.658916900155667, 32.756643199924333 ], [ 22.658636599903527, 32.756728899724123 ], [ 22.658470299545989, 32.756861999814411 ], [ 22.658344199927313, 32.756960699756057 ], [ 22.658252999505176, 32.756999599755126 ], [ 22.65818189993314, 32.757008099760249 ], [ 22.65812020023731, 32.756993999593163 ], [ 22.65801159982318, 32.756951099618725 ], [ 22.657908299647563, 32.756935299604038 ], [ 22.657872800220513, 32.756939300369552 ], [ 22.657821200192391, 32.756966899937623 ], [ 22.657763499682908, 32.757048099856135 ], [ 22.657720600085138, 32.757071799822477 ], [ 22.65767569996137, 32.75708079977251 ], [ 22.657551600262309, 32.757093199770708 ], [ 22.65739199964132, 32.757169899646236 ], [ 22.657147900521647, 32.757307499586197 ], [ 22.657059400249022, 32.757351500324063 ], [ 22.656626900166991, 32.757676000243421 ], [ 22.656339200127615, 32.757930800053209 ], [ 22.655582899860132, 32.7589101998255 ], [ 22.655561249912928, 32.758958362303666 ], [ 22.655350399819131, 32.759427399966 ], [ 22.655325399766522, 32.759483099783246 ], [ 22.655294500083365, 32.759633099741308 ], [ 22.655294500094712, 32.759691699886268 ], [ 22.655297143264345, 32.759695347482491 ], [ 22.655332099522511, 32.759743599852143 ], [ 22.65552650040615, 32.75987499972387 ], [ 22.655618400046276, 32.759949999795332 ], [ 22.655702199790305, 32.760031200185431 ], [ 22.65602990120783, 32.760383244293457 ], [ 22.656672627122614, 32.761073703492315 ], [ 22.656833199902561, 32.761246199670069 ], [ 22.656923799616255, 32.761345100420961 ], [ 22.657081199636224, 32.761463599996809 ], [ 22.657145291120166, 32.76150661502475 ], [ 22.65717030038839, 32.761523399833003 ], [ 22.657278999646238, 32.761629299649805 ], [ 22.657279797511233, 32.761632897655403 ], [ 22.657298400272502, 32.761716800194804 ], [ 22.657294769900059, 32.761783388781637 ], [ 22.657291699483128, 32.761839699857653 ], [ 22.657277500323097, 32.761865500275185 ], [ 22.657254199747491, 32.761888800130578 ], [ 22.657255700386553, 32.761920300392312 ], [ 22.657233299810091, 32.761942399614298 ], [ 22.657165400518995, 32.76196080038487 ], [ 22.657037699954007, 32.761980000262518 ], [ 22.656992000254021, 32.76197640001341 ], [ 22.656925299777974, 32.761917200290029 ], [ 22.656859699681682, 32.761878500026356 ], [ 22.656832200333795, 32.761852800194447 ], [ 22.656787199637343, 32.761757799600723 ], [ 22.656770999591576, 32.761688100121837 ], [ 22.65677560018219, 32.761638599917113 ], [ 22.656780600198601, 32.761582599740997 ], [ 22.656765600309207, 32.761543399772286 ], [ 22.656722299836439, 32.761495800244532 ], [ 22.656725600506785, 32.761477600146748 ], [ 22.656664000469299, 32.76142720044416 ], [ 22.656610799892615, 32.761442599770767 ], [ 22.656472600387314, 32.761514000031326 ], [ 22.656389299988504, 32.761581200098185 ], [ 22.655893300267024, 32.76107751328297 ], [ 22.655770123919762, 32.761136412975034 ], [ 22.654175518998997, 32.760432036663033 ], [ 22.653879634838461, 32.760507110661408 ], [ 22.653500870354094, 32.760603212956788 ], [ 22.65346063395344, 32.760871012262953 ], [ 22.653121548149848, 32.760883903918277 ], [ 22.65256175737591, 32.760942925149614 ], [ 22.652986200310135, 32.764252200000413 ], [ 22.653185342926733, 32.764335079029614 ], [ 22.654246850452953, 32.764783555977971 ], [ 22.654313012853514, 32.764811508344195 ], [ 22.656454899368761, 32.763341866018038 ], [ 22.65669762647148, 32.763456627537586 ], [ 22.657096768626648, 32.763353509489683 ], [ 22.657813555869854, 32.763017099775446 ], [ 22.658109983439161, 32.762858066243361 ], [ 22.658267611308574, 32.762677005685532 ], [ 22.658402585531636, 32.762587257013926 ], [ 22.65844337456894, 32.762560134905165 ], [ 22.658538492430711, 32.762511149933864 ], [ 22.658682406328005, 32.762504471581131 ], [ 22.658721936895709, 32.762503948166916 ], [ 22.658810353277218, 32.762550504021313 ], [ 22.658845165613151, 32.762600155205774 ], [ 22.658878304819364, 32.762711873922754 ], [ 22.658834233988795, 32.762772115529977 ], [ 22.658686219747384, 32.762862369225765 ], [ 22.658452664217815, 32.762994767095172 ], [ 22.657942926955958, 32.763177532908344 ], [ 22.657879081363014, 32.763199979628482 ], [ 22.65733863306906, 32.763450535092481 ], [ 22.656879581532291, 32.763673762388159 ], [ 22.656825900144721, 32.763638099981293 ], [ 22.656733500521472, 32.763702899783603 ], [ 22.656689642715147, 32.763738039368491 ], [ 22.656619300416132, 32.76379440038653 ], [ 22.656548599740368, 32.763892099946865 ], [ 22.656470600240233, 32.763996000140644 ], [ 22.65636719983052, 32.764074000359699 ], [ 22.6563316079637, 32.764097776437481 ], [ 22.65434489983884, 32.76542489977961 ], [ 22.654273199621141, 32.765321799979567 ], [ 22.653986800040911, 32.765736799969041 ], [ 22.653868300019358, 32.76584140020686 ], [ 22.653545155304485, 32.766079884479218 ], [ 22.653222008839879, 32.766318367062482 ], [ 22.652668300019133, 32.766727000449016 ], [ 22.652620000296945, 32.766817000309395 ], [ 22.652505000042009, 32.766910700381899 ], [ 22.651991600322543, 32.767275399849495 ], [ 22.651343699707756, 32.767623199930284 ], [ 22.651088800139473, 32.767845299678832 ], [ 22.650998950644535, 32.767886500124817 ], [ 22.650957322967496, 32.767989810281478 ], [ 22.651017812108563, 32.768053444025021 ], [ 22.651170824506316, 32.768080062949309 ], [ 22.651348987118347, 32.768092032227251 ], [ 22.651458850427986, 32.768076265931647 ], [ 22.651644029548077, 32.768009393385405 ], [ 22.651813191323942, 32.767992844886614 ], [ 22.651865605876623, 32.768078061084246 ], [ 22.65186732481682, 32.768171105207372 ], [ 22.651741313186744, 32.768230038496498 ], [ 22.651614374884957, 32.768238871684353 ], [ 22.651224692441517, 32.768244009169152 ], [ 22.650850764330009, 32.768184506805255 ], [ 22.650628130355685, 32.768058579628786 ], [ 22.650474193323728, 32.767981859109035 ], [ 22.650147187806066, 32.767939633948096 ], [ 22.649820183627295, 32.767897407909004 ], [ 22.649642824928911, 32.767821361006732 ], [ 22.649396162635654, 32.768005433290462 ], [ 22.649695754495994, 32.768042226649648 ], [ 22.649706054683762, 32.7680506609952 ], [ 22.649790392219099, 32.768119728264367 ], [ 22.649818051800494, 32.768241066604034 ], [ 22.649829031819237, 32.768376942527311 ], [ 22.64982425878361, 32.768577456048156 ], [ 22.649559247790318, 32.768910258951351 ], [ 22.649419062350486, 32.769119715041271 ], [ 22.649302838843447, 32.769250106551631 ], [ 22.648847359865819, 32.769363487788226 ], [ 22.648643781067655, 32.769351849518507 ], [ 22.648465748078394, 32.769347033228101 ], [ 22.648029585017902, 32.769589019374386 ], [ 22.64782439306563, 32.769949666591579 ], [ 22.647713706109695, 32.770380660777995 ], [ 22.647618378574716, 32.770725545388871 ], [ 22.647215829217732, 32.770952767852137 ], [ 22.64672549539916, 32.77147466072352 ], [ 22.646671334509612, 32.77175457239548 ], [ 22.646698859410002, 32.771868754686544 ], [ 22.646710758211018, 32.772054731031815 ], [ 22.646577979034969, 32.77220681506649 ], [ 22.646519203659278, 32.772236223521112 ], [ 22.646290466301188, 32.772239230169632 ], [ 22.64618867367918, 32.772233408648589 ], [ 22.646011162047003, 32.772257218837872 ], [ 22.645911345970639, 32.772358755874748 ], [ 22.645661804802739, 32.772612598594328 ], [ 22.645613872622452, 32.772770725335675 ], [ 22.64554052435707, 32.772929186873704 ], [ 22.645547628178228, 32.772981047481018 ], [ 22.645560102871006, 32.773072108725906 ], [ 22.645587890324098, 32.773200604813603 ], [ 22.645622168596386, 32.773340750432368 ], [ 22.645624544437634, 32.773350461706983 ], [ 22.64565285805784, 32.773507587572276 ], [ 22.645543399829567, 32.773749699977465 ], [ 22.645453499515355, 32.773811800022585 ], [ 22.64532010014744, 32.773845000439692 ], [ 22.64514770017691, 32.773860300386723 ], [ 22.645002899976998, 32.773888400167031 ], [ 22.644922400456732, 32.773958399810851 ], [ 22.644683700311141, 32.774260599682933 ], [ 22.644662299809745, 32.774300600148607 ], [ 22.644650199839027, 32.774351900342907 ], [ 22.644654199773722, 32.774514299918955 ], [ 22.644663600311972, 32.77459550038563 ], [ 22.644661600231618, 32.774625299777213 ], [ 22.644639500506411, 32.774662000292786 ], [ 22.644524100354378, 32.774717200262202 ], [ 22.6436014003719, 32.775071900050762 ], [ 22.643578753961577, 32.775084761816629 ], [ 22.643505781810884, 32.775134077381267 ], [ 22.643492156239962, 32.775143320426061 ], [ 22.643462518889589, 32.77516342609556 ], [ 22.643414957783769, 32.775223667684898 ], [ 22.643377015293606, 32.775277615753076 ], [ 22.643341353035328, 32.775323311128105 ], [ 22.643290754760287, 32.775350700564317 ], [ 22.643202284886897, 32.77536917535825 ], [ 22.643196213248824, 32.775370442838401 ], [ 22.643118286662869, 32.775367353343775 ], [ 22.643083735525629, 32.775341081953037 ], [ 22.643063403609069, 32.77529406575465 ], [ 22.643049992418149, 32.775226400499804 ], [ 22.643048783532407, 32.775160631536643 ], [ 22.643057268877278, 32.775092679032852 ], [ 22.64307829541033, 32.775045120270967 ], [ 22.643096738330254, 32.774989371732694 ], [ 22.643084587523763, 32.774941892853583 ], [ 22.643083629415635, 32.77493814984593 ], [ 22.643013599902087, 32.774894500352261 ], [ 22.642914299741847, 32.774872899686493 ], [ 22.642643900205911, 32.774857100189095 ], [ 22.642317999758536, 32.77482550026339 ], [ 22.642114199651708, 32.774774799740122 ], [ 22.641498600034897, 32.774545799715611 ], [ 22.641219599524447, 32.774434200088017 ], [ 22.641109699498539, 32.77441390033858 ], [ 22.640990299476304, 32.774445500353323 ], [ 22.640793200350036, 32.774482699885894 ], [ 22.640638899499688, 32.774473699744739 ], [ 22.640441800194552, 32.774403799790569 ], [ 22.639907999662196, 32.774172600246374 ], [ 22.639763200459225, 32.774064399997521 ], [ 22.639689399608795, 32.773968500346989 ], [ 22.63962979961325, 32.773876599641589 ], [ 22.63952309966513, 32.773824199770097 ], [ 22.639246899958245, 32.773755400016384 ], [ 22.639026900507293, 32.773728300301343 ], [ 22.638820399510696, 32.773749700018534 ], [ 22.638742599824194, 32.773734000020475 ], [ 22.638710400139377, 32.773718200335445 ], [ 22.638698700294484, 32.773706599631197 ], [ 22.638693500246625, 32.773690999569418 ], [ 22.638693999693274, 32.773638399571261 ], [ 22.638687299575913, 32.773628500307531 ], [ 22.638670499825448, 32.773624000370901 ], [ 22.638608200381903, 32.773631300202624 ], [ 22.638533700309189, 32.773666599975392 ], [ 22.638527399986675, 32.773675599645735 ], [ 22.638529099946009, 32.773688899617795 ], [ 22.638573299825143, 32.773720399859194 ], [ 22.638601299864742, 32.77375520018257 ], [ 22.638629599593472, 32.773805300299415 ], [ 22.638638000022741, 32.773854900434067 ], [ 22.638612199478519, 32.773889600096467 ], [ 22.63855080030714, 32.773914399737905 ], [ 22.638438200507043, 32.773912100017633 ], [ 22.638308100237769, 32.77382530034982 ], [ 22.638198100182152, 32.773667400205852 ], [ 22.638023800232862, 32.773325799683967 ], [ 22.637921699494751, 32.773208699690741 ], [ 22.637794499621634, 32.77315770009146 ], [ 22.637087700178409, 32.773069800105901 ], [ 22.634960700291646, 32.773081100006038 ], [ 22.633150200329688, 32.773013399845922 ], [ 22.63250379995511, 32.773078799727784 ], [ 22.632240899489389, 32.773092300433802 ], [ 22.631932499880989, 32.773071999671288 ], [ 22.63146230042009, 32.772982600221376 ], [ 22.631278000494035, 32.772958200157632 ], [ 22.631020499574046, 32.77295360043388 ], [ 22.63066280035374, 32.772972999663764 ], [ 22.630341899864977, 32.773056299622731 ], [ 22.629993300424616, 32.773196100043243 ], [ 22.62978399955006, 32.773234399804529 ], [ 22.629596299506431, 32.773227700168313 ], [ 22.629376299746077, 32.773178000275394 ], [ 22.629105399597719, 32.772954799773487 ], [ 22.628910700329971, 32.772834800029756 ], [ 22.62869510040715, 32.772765299595477 ], [ 22.628378599997603, 32.772717999933164 ], [ 22.628184100476787, 32.772723600336903 ], [ 22.628027200333491, 32.772758600418676 ], [ 22.627879700107258, 32.77293219955547 ], [ 22.627839399892135, 32.772975099971219 ], [ 22.627798500252354, 32.772986900085151 ], [ 22.627706700411771, 32.772985199733121 ], [ 22.627565899975494, 32.772957000016547 ], [ 22.62753099992382, 32.772932199783618 ], [ 22.627516199984967, 32.772893900000987 ], [ 22.627488100017139, 32.772780000125159 ], [ 22.627438499674408, 32.772678499584323 ], [ 22.627404899613776, 32.772641299977472 ], [ 22.627296300268515, 32.77260179990494 ], [ 22.626708899722946, 32.772537500177648 ], [ 22.626157700141814, 32.772585999711829 ], [ 22.626075899900798, 32.772607500076965 ], [ 22.626002099880022, 32.772650299976348 ], [ 22.625892200069689, 32.772728100219979 ], [ 22.625820399651509, 32.772737099892169 ], [ 22.625753400299278, 32.772736600427024 ], [ 22.625481800251091, 32.772681900215531 ], [ 22.625389199858361, 32.772677899632718 ], [ 22.625285999590794, 32.772688699928224 ], [ 22.625155199816543, 32.772737700069833 ], [ 22.625114300368221, 32.772743300417766 ], [ 22.625067399480848, 32.772732599762179 ], [ 22.624966800002166, 32.772677399674592 ], [ 22.624918499476887, 32.772654300396781 ], [ 22.624851499832609, 32.77263339993771 ], [ 22.62356800045837, 32.772538699721117 ], [ 22.621956000061441, 32.772620999722676 ], [ 22.621863499619291, 32.772636799589783 ], [ 22.62178970039982, 32.772692000234677 ], [ 22.621675699916835, 32.772808199573795 ], [ 22.621587199808438, 32.772894999797295 ], [ 22.621538899827421, 32.77290850000734 ], [ 22.62150539961301, 32.772896100279631 ], [ 22.621417600302554, 32.772857800429556 ], [ 22.621205700427012, 32.772830200014766 ], [ 22.621010500119105, 32.772828999679284 ], [ 22.620846300299576, 32.772875800323128 ], [ 22.620663199589536, 32.773075399684515 ], [ 22.620571999686518, 32.773177999705311 ], [ 22.620492899751159, 32.77319380016403 ], [ 22.620419100394372, 32.773173500291144 ], [ 22.620208600293964, 32.773013399743562 ], [ 22.620055700399227, 32.772915300413914 ], [ 22.619845099879914, 32.772862299946624 ], [ 22.619444100284387, 32.772818299913119 ], [ 22.618290799671549, 32.772796900060229 ], [ 22.617354700301195, 32.772792400209518 ], [ 22.616443400304945, 32.772910100166513 ], [ 22.615750699932551, 32.772929999736967 ], [ 22.615225000493126, 32.773128400408694 ], [ 22.615074800336707, 32.773222000390483 ], [ 22.615021200445387, 32.773324599584825 ], [ 22.615014499565177, 32.773400200230029 ], [ 22.615082900209988, 32.773624600088702 ], [ 22.615092200368608, 32.77380160031656 ], [ 22.615026499612679, 32.773933600335866 ], [ 22.614812000179239, 32.774127500159558 ], [ 22.6145061997208, 32.774359799728288 ], [ 22.614270099905603, 32.774526700283509 ], [ 22.614144099737839, 32.77456949955284 ], [ 22.614064999743448, 32.774547000420228 ], [ 22.614004599699026, 32.774492800356882 ], [ 22.613910700471894, 32.774325999553156 ], [ 22.6137551999695, 32.77402830014082 ], [ 22.613557317831454, 32.773717559947734 ], [ 22.612875165046553, 32.773482938943815 ], [ 22.611957606159617, 32.773351570892402 ], [ 22.610313005576245, 32.773315453407314 ], [ 22.608502056276148, 32.773453266836974 ], [ 22.605385889802175, 32.77357915408998 ], [ 22.604290688267419, 32.773936820231825 ], [ 22.603580997208816, 32.774171012953417 ], [ 22.603333449819665, 32.774252700742878 ], [ 22.603104100343256, 32.774325999945681 ], [ 22.60275679977099, 32.774394700305677 ], [ 22.602381300325398, 32.774367700232688 ], [ 22.601761730519062, 32.774613499220358 ], [ 22.601527074982727, 32.77475968111127 ], [ 22.600966535515443, 32.775005481749091 ], [ 22.600619939454884, 32.775210364004948 ], [ 22.600058027973805, 32.775379815025772 ], [ 22.599617130567573, 32.775366355677605 ], [ 22.598864543642076, 32.775614599626593 ], [ 22.597715725996693, 32.775820167090629 ], [ 22.594578329180269, 32.776661962109799 ], [ 22.594162601737889, 32.776799070489126 ], [ 22.594130799727335, 32.776825799734837 ], [ 22.593822300234432, 32.777150599972359 ], [ 22.593566200105357, 32.77748999965646 ], [ 22.59308069951835, 32.777950000061779 ], [ 22.592764199631127, 32.778218400282135 ], [ 22.592257300120352, 32.778480000096806 ], [ 22.591787899547622, 32.778617600027737 ], [ 22.591610799636452, 32.778726900200013 ], [ 22.591414999520179, 32.778886999642651 ], [ 22.591212500517745, 32.779117100197176 ], [ 22.591075700320253, 32.779338099675059 ], [ 22.591048899767085, 32.779512800223266 ], [ 22.591097200457035, 32.779737199670173 ], [ 22.591197799686917, 32.779919899777219 ], [ 22.591212500196008, 32.779972900398853 ], [ 22.591201800207912, 32.780031499996234 ], [ 22.591140099694741, 32.780080499880384 ], [ 22.591074399568505, 32.780121700195259 ], [ 22.591014700506218, 32.780129000265482 ], [ 22.590979200362227, 32.780111600351056 ], [ 22.59092350043187, 32.780061900251972 ], [ 22.590827600082712, 32.77996159959774 ], [ 22.59072840039207, 32.779917600125543 ], [ 22.590531300076265, 32.779925499623801 ], [ 22.590182600405388, 32.779984099849074 ], [ 22.589502600360845, 32.780262599599943 ], [ 22.589034700078642, 32.780540000297897 ], [ 22.588510200444389, 32.780879400288889 ], [ 22.588357300218966, 32.781039500211072 ], [ 22.588279500068985, 32.781193999934352 ], [ 22.588141399741627, 32.781477000309728 ], [ 22.587980500054687, 32.781764499814514 ], [ 22.587956299829816, 32.781844599962341 ], [ 22.587954999717638, 32.781913299832588 ], [ 22.587991899668733, 32.78198999974277 ], [ 22.587993199786307, 32.782030599640564 ], [ 22.587992500225646, 32.782081300296582 ], [ 22.587807500148731, 32.782417300428499 ], [ 22.587780699516582, 32.782506400446799 ], [ 22.587785899742709, 32.782563699642758 ], [ 22.587794100040121, 32.782602299976858 ], [ 22.587816899475676, 32.782637200412871 ], [ 22.588031400424839, 32.782783799711488 ], [ 22.588058299984905, 32.782818700420563 ], [ 22.588069699877952, 32.782846099742862 ], [ 22.588069000186447, 32.782875100084702 ], [ 22.588012700184152, 32.782974900350176 ], [ 22.587955000215391, 32.783105099677421 ], [ 22.5878893002361, 32.783217299685987 ], [ 22.587824199963734, 32.783270299638851 ], [ 22.587721599965896, 32.783308600101869 ], [ 22.587529899691443, 32.783365600387761 ], [ 22.587480200444499, 32.783395499652528 ], [ 22.587449655098247, 32.78343190611271 ], [ 22.587419741248628, 32.783467559571207 ], [ 22.587574294073494, 32.783738165689236 ], [ 22.587999591866215, 32.784143225874402 ], [ 22.588150191117514, 32.784351314829344 ], [ 22.588142115432738, 32.784532778932167 ], [ 22.587996435119205, 32.78460144448443 ], [ 22.587803867955664, 32.784575250069423 ], [ 22.587447540508087, 32.784236133206882 ], [ 22.58702510934086, 32.783914036220793 ], [ 22.586938683682881, 32.783819677112675 ] ] ] ] } },
{ "type": "Feature", "properties": { "obj_type": "Lake", "NAM": "Unknown", "HYP": "Perennial", "det_method": "Photo-interpretation", "or_src_id": "1", "emsn_id": "EMSN177", "fwc_type": "FLEX", "aoi_id": "1", "name": "Derna", "country": "Libya" }, "geometry": { "type": "MultiPolygon", "coordinates": [ [ [ [ 22.644664943837878, 32.645457541208202 ], [ 22.644968109864102, 32.645302015471231 ], [ 22.644977980015881, 32.645300711790206 ], [ 22.645520803527049, 32.6453699589743 ], [ 22.645928621299586, 32.645460066476325 ], [ 22.646179572983826, 32.645609502936423 ], [ 22.646228888471594, 32.645837946841681 ], [ 22.646232735807274, 32.646047896830275 ], [ 22.646371242046772, 32.646217898033797 ], [ 22.646755454890879, 32.646251039716837 ], [ 22.64691232243101, 32.64619170866775 ], [ 22.647179537296058, 32.645997292684726 ], [ 22.647718865570535, 32.645875666910825 ], [ 22.648125286905191, 32.645889421657039 ], [ 22.648669166653065, 32.646015914780882 ], [ 22.648975540869497, 32.645496434981204 ], [ 22.649634097683702, 32.644495052609088 ], [ 22.649356030240337, 32.644097797588337 ], [ 22.648786449626979, 32.643799826816199 ], [ 22.648513640206588, 32.643688864098863 ], [ 22.647946866649168, 32.643543580290043 ], [ 22.647292307686673, 32.643533081763401 ], [ 22.646796710729284, 32.643577766900222 ], [ 22.646099831547719, 32.643720545244229 ], [ 22.645695518822873, 32.64382130241372 ], [ 22.644635593867243, 32.643854287031516 ], [ 22.643931374521785, 32.643596239576581 ], [ 22.64345100349027, 32.64323980200475 ], [ 22.642586437699219, 32.642850209571492 ], [ 22.64188362688957, 32.642668495874766 ], [ 22.641183607889015, 32.642639469679736 ], [ 22.640348584253331, 32.642631294379413 ], [ 22.640125784001153, 32.642786934053127 ], [ 22.639974491657807, 32.643151638932665 ], [ 22.640254955683488, 32.643682521118102 ], [ 22.640439958757923, 32.643928285549485 ], [ 22.640603447965841, 32.644231604574365 ], [ 22.640612161540208, 32.64470876403383 ], [ 22.63995698477704, 32.645900966275477 ], [ 22.639602301934548, 32.646249237850817 ], [ 22.639476697324184, 32.646785425692556 ], [ 22.639639144901089, 32.64703148575893 ], [ 22.640025798863352, 32.647198252869345 ], [ 22.640477694056614, 32.647230528378827 ], [ 22.641061810686328, 32.647089255189087 ], [ 22.641441143474122, 32.646855203559589 ], [ 22.641955484684871, 32.646600292467923 ], [ 22.642223409764309, 32.646444059962469 ], [ 22.642763446422734, 32.646360628481617 ], [ 22.643440934611633, 32.64638994031916 ], [ 22.643664786244653, 32.646291554624732 ], [ 22.64404201284627, 32.645942976547552 ], [ 22.644240507107686, 32.645692194181166 ], [ 22.644664943837878, 32.645457541208202 ] ] ] ] } },
{ "type": "Feature", "properties": { "obj_type": "Lake", "NAM": "Unknown", "HYP": "Perennial", "det_method": "Photo-interpretation", "or_src_id": "1", "emsn_id": "EMSN177", "fwc_type": "FLEX", "aoi_id": "1", "name": "Derna", "country": "Libya" }, "geometry": { "type": "MultiPolygon", "coordinates": [ [ [ [ 22.614470641432156, 32.641198468508058 ], [ 22.614388628012865, 32.641302239781538 ], [ 22.613922094148066, 32.6417091521771 ], [ 22.61348596795882, 32.641924761329385 ], [ 22.613061802981758, 32.64217839705303 ], [ 22.612883557998188, 32.64230477912291 ], [ 22.612666704018427, 32.642794388866704 ], [ 22.612566900107101, 32.64314219967271 ], [ 22.6139254565119, 32.643030863949072 ], [ 22.616204000407393, 32.642844099993532 ], [ 22.61637630160406, 32.642670306390947 ], [ 22.616833266975789, 32.642358963111782 ], [ 22.616972371354539, 32.642252171102172 ], [ 22.617231082289074, 32.641895652485722 ], [ 22.617236178619233, 32.641551948399794 ], [ 22.617163177859684, 32.641256977497115 ], [ 22.617021642136734, 32.640915161616107 ], [ 22.616892933033739, 32.640659089933237 ], [ 22.616763709569998, 32.640374389078822 ], [ 22.616668325534611, 32.640089251315757 ], [ 22.616648361392116, 32.639912083629667 ], [ 22.616641474397152, 32.63985095867065 ], [ 22.616533609782994, 32.639499163198153 ], [ 22.616404389255997, 32.639214460932912 ], [ 22.616309349991582, 32.638948409699708 ], [ 22.616213968047056, 32.63866327235128 ], [ 22.615949573890362, 32.638389856084281 ], [ 22.615778673437948, 32.638296600328061 ], [ 22.615620424542822, 32.638279545949288 ], [ 22.615509693092481, 32.638395518292533 ], [ 22.615423749914441, 32.638635262078779 ], [ 22.615416588685431, 32.638864447610594 ], [ 22.615452827663784, 32.638997618787378 ], [ 22.615556912695599, 32.639139461944502 ], [ 22.615637468199026, 32.639394882355489 ], [ 22.615431915617286, 32.639884350309259 ], [ 22.61515966175013, 32.640326636302937 ], [ 22.614470641432156, 32.641198468508058 ] ] ] ] } },
{ "type": "Feature", "properties": { "obj_type": "River", "NAM": "Unknown", "HYP": "Intermittent", "det_method": "Photo-interpretation", "or_src_id": "1", "emsn_id": "EMSN177", "fwc_type": "FLEX", "aoi_id": "1", "name": "Derna", "country": "Libya" }, "geometry": { "type": "MultiPolygon", "coordinates": [ [ [ [ 22.560794855382639, 32.799337852983484 ], [ 22.560686613977531, 32.799244505300805 ], [ 22.560095951438942, 32.798868843185765 ], [ 22.56004301442578, 32.798818766650719 ], [ 22.559819174298013, 32.79862110113946 ], [ 22.559570785796634, 32.798473854797678 ], [ 22.559406643909337, 32.798296922495169 ], [ 22.559219703626646, 32.798270614434671 ], [ 22.559090960347774, 32.798179150400898 ], [ 22.558952618895148, 32.79802337290419 ], [ 22.558694759100181, 32.797818970251505 ], [ 22.558437650889577, 32.797657512012101 ], [ 22.558045200338849, 32.797512056467397 ], [ 22.557550557919598, 32.797339233818995 ], [ 22.557133311132908, 32.797229877742268 ], [ 22.556663846335049, 32.797042420287561 ], [ 22.556262676781497, 32.796882749321725 ], [ 22.555852786418676, 32.7967088663856 ], [ 22.555398778961081, 32.796435303280489 ], [ 22.554802693453343, 32.796341869176423 ], [ 22.555114208268041, 32.797164695874542 ], [ 22.556077616240803, 32.797450615417333 ], [ 22.557212088540386, 32.797858896770052 ], [ 22.55745124870856, 32.797963308366292 ], [ 22.557995243503509, 32.798049607674479 ], [ 22.558299188084035, 32.798142473109685 ], [ 22.558386016183633, 32.798260710296454 ], [ 22.558543881439196, 32.798401926388415 ], [ 22.558778910001916, 32.7985123521661 ], [ 22.559057563185071, 32.798693825710799 ], [ 22.559180639912949, 32.798865303600166 ], [ 22.559268822602011, 32.79906108003005 ], [ 22.559429398524372, 32.799357374709814 ], [ 22.559652286566319, 32.799581301539845 ], [ 22.559765594547521, 32.799597787869679 ], [ 22.559891569408734, 32.799530593276408 ], [ 22.560003835488004, 32.799487433469601 ], [ 22.560207325325639, 32.799813916530674 ], [ 22.560350999517869, 32.79998790000365 ], [ 22.561102100025892, 32.799877400363506 ], [ 22.56121882620457, 32.799791395525496 ], [ 22.561026259304178, 32.799537417417064 ], [ 22.560794855382639, 32.799337852983484 ] ] ] ] } },
{ "type": "Feature", "properties": { "obj_type": "River", "NAM": "Wadi Bu Musafir", "HYP": "Intermittent", "det_method": "Ancillary data", "or_src_id": "994", "emsn_id": "EMSN177", "fwc_type": "FLEX", "aoi_id": "1", "name": "Derna", "country": "Libya" }, "geometry": { "type": "MultiPolygon", "coordinates": [ [ [ [ 22.5884513094977, 32.743026022358841 ], [ 22.588013489246265, 32.743654411704824 ], [ 22.587839443481919, 32.743871390143504 ], [ 22.587686779562997, 32.744338664413142 ], [ 22.587465507803643, 32.745236353571983 ], [ 22.58738922876854, 32.746189477268764 ], [ 22.587443129597034, 32.746840270898986 ], [ 22.587525578035063, 32.747190021079518 ], [ 22.587744557409863, 32.747595314689313 ], [ 22.588594489527825, 32.74822885893775 ], [ 22.589180243079536, 32.748678658073359 ], [ 22.589397072484573, 32.748962271272454 ], [ 22.58988783610085, 32.749564565818901 ], [ 22.590323837469185, 32.750263008953539 ], [ 22.590385392504043, 32.750548590018283 ], [ 22.590236046953063, 32.750884576131568 ], [ 22.589888642777442, 32.751199211240113 ], [ 22.589205612924143, 32.751697079697102 ], [ 22.588915362410116, 32.751866110453712 ], [ 22.588557572231291, 32.752032029282688 ], [ 22.587983131179321, 32.752125219693539 ], [ 22.587528286813345, 32.752178145360865 ], [ 22.586955385570622, 32.752295144153045 ], [ 22.586650437256665, 32.752380600074147 ], [ 22.586442552391404, 32.75243885436916 ], [ 22.586128941649413, 32.75266952919263 ], [ 22.585768350574781, 32.753038012850133 ], [ 22.585618454069881, 32.753344171191237 ], [ 22.585601723434625, 32.753386092632404 ], [ 22.585205185017635, 32.754379657030107 ], [ 22.584889902988525, 32.75541937855337 ], [ 22.584439192980156, 32.756121895968995 ], [ 22.583779606362093, 32.756512052834083 ], [ 22.583254698127817, 32.756852777961065 ], [ 22.582603694195914, 32.757090093044013 ], [ 22.581523170061047, 32.757313737259011 ], [ 22.580446013461337, 32.75772823846755 ], [ 22.57988888892703, 32.758164810084978 ], [ 22.579603159112612, 32.758617048923746 ], [ 22.579588996584278, 32.759094498809603 ], [ 22.57941114727139, 32.759898558117364 ], [ 22.579062359177076, 32.760618863048514 ], [ 22.5782091796546, 32.761565066232635 ], [ 22.577247092070881, 32.762102182251596 ], [ 22.576283477863338, 32.762553400554019 ], [ 22.575761027443093, 32.763037245508038 ], [ 22.574643095349614, 32.764349482281638 ], [ 22.574446000013261, 32.764705140791769 ], [ 22.574416147110142, 32.76493460701505 ], [ 22.574568529515265, 32.765247690673142 ], [ 22.574889836837492, 32.765530015150183 ], [ 22.575334385356893, 32.765753516474589 ], [ 22.575991695275984, 32.765869338841775 ], [ 22.576488182149625, 32.765834455393744 ], [ 22.576995626816281, 32.765780340905906 ], [ 22.577413045456733, 32.765746449155287 ], [ 22.577708910100839, 32.765866814219471 ], [ 22.577724582742206, 32.766114797892037 ], [ 22.577604039674267, 32.766326315745545 ], [ 22.577302095964956, 32.766501935453014 ], [ 22.576988856094857, 32.766677697558059 ], [ 22.576608179365145, 32.766873397899808 ], [ 22.576182150479042, 32.767060122648765 ], [ 22.575115475373842, 32.76743626578633 ], [ 22.574634025704825, 32.767683868850867 ], [ 22.574514604335779, 32.767799387344077 ], [ 22.574299886070381, 32.768117085728655 ], [ 22.574244616475823, 32.768346870349916 ], [ 22.574189221684978, 32.76856949790556 ], [ 22.574189653905396, 32.76857907096165 ], [ 22.574274098823295, 32.768764709049101 ], [ 22.574699238654102, 32.769248568901595 ], [ 22.575364523635614, 32.769735373477253 ], [ 22.576127902196728, 32.770578893005073 ], [ 22.577415302967101, 32.771905012580405 ], [ 22.57767145534395, 32.772414853681774 ], [ 22.578139091506181, 32.773303845606428 ], [ 22.578332131463441, 32.773838343480527 ], [ 22.578429239649044, 32.774012332755916 ], [ 22.578725130870158, 32.774452465632393 ], [ 22.579131798336519, 32.77492699683998 ], [ 22.579492186454324, 32.775180178394379 ], [ 22.579959935155383, 32.775274505577677 ], [ 22.580665921859627, 32.775423097917674 ], [ 22.581795412051793, 32.775446607681438 ], [ 22.582108381250613, 32.775414018598724 ], [ 22.582660223013811, 32.775471477689116 ], [ 22.583425140456793, 32.775597832109149 ], [ 22.583971174521928, 32.775805699118933 ], [ 22.584042918892116, 32.775859397111809 ], [ 22.584250174049167, 32.776095239678291 ], [ 22.584549146863001, 32.776707135977638 ], [ 22.584681295874365, 32.777469096947918 ], [ 22.584656053959058, 32.7782760024621 ], [ 22.584377667217296, 32.779463154342068 ], [ 22.584213578098012, 32.780405452563144 ], [ 22.584251859767761, 32.781362346224412 ], [ 22.584369483470876, 32.781623357377278 ], [ 22.584619571060188, 32.781787237124007 ], [ 22.584832557534554, 32.781850167044084 ], [ 22.585325164116821, 32.782388019694231 ], [ 22.585730729117767, 32.782955608531829 ], [ 22.586214619673246, 32.783479250591341 ], [ 22.586495899599591, 32.784030799827249 ], [ 22.586502599724177, 32.783974399659577 ], [ 22.586542799905377, 32.783880800007978 ], [ 22.586621900532752, 32.783801900432906 ], [ 22.58671450030992, 32.783763600387879 ], [ 22.586849899922772, 32.78376580005186 ], [ 22.586912987250599, 32.783776642694562 ], [ 22.586766565235092, 32.78353967281469 ], [ 22.586687095628417, 32.783439259146647 ], [ 22.586513399051711, 32.783202825703903 ], [ 22.586274621892649, 32.782874145796626 ], [ 22.585948185865668, 32.78264098451799 ], [ 22.585579899091297, 32.782263832219471 ], [ 22.585125107998334, 32.781787546307655 ], [ 22.584788858184918, 32.781304986549074 ], [ 22.584757625942899, 32.780969955638163 ], [ 22.584669300887519, 32.780768233791065 ], [ 22.584671108593305, 32.780399664245095 ], [ 22.584830897824951, 32.77953378327252 ], [ 22.585030985248792, 32.778562074166608 ], [ 22.585076016584935, 32.778215658072554 ], [ 22.585087254343211, 32.777654723546071 ], [ 22.58506647007254, 32.777279135976357 ], [ 22.584955990951947, 32.776624288160647 ], [ 22.584845009461372, 32.776339330067401 ], [ 22.584740666484251, 32.776030424690681 ], [ 22.584566460447249, 32.775764164069564 ], [ 22.584244096151505, 32.775505743510756 ], [ 22.583936594879692, 32.775288895120539 ], [ 22.583358691757446, 32.774956146836892 ], [ 22.582818629610813, 32.774766098475261 ], [ 22.582437695003296, 32.774788809650168 ], [ 22.581987846789225, 32.774907843733068 ], [ 22.581763291608731, 32.774988236478109 ], [ 22.581432304723961, 32.775040143258586 ], [ 22.581213225715004, 32.775030977588578 ], [ 22.580873489899982, 32.774987538795841 ], [ 22.580590237571698, 32.77494338630197 ], [ 22.580292969618437, 32.774905376245869 ], [ 22.579953445460088, 32.77487386386376 ], [ 22.57976734912685, 32.774733030228589 ], [ 22.579614974581066, 32.774502282691316 ], [ 22.579387467428774, 32.774415663347263 ], [ 22.579273028565812, 32.774333584236231 ], [ 22.579148896263845, 32.774102479080526 ], [ 22.578975027679604, 32.773854103830459 ], [ 22.578793783499567, 32.773587923427414 ], [ 22.578460696857256, 32.773120816396741 ], [ 22.578301162724344, 32.772884191066865 ], [ 22.578188522682876, 32.772503793610092 ], [ 22.578083891666665, 32.772176987784945 ], [ 22.577728898294204, 32.771668393467202 ], [ 22.577412050152923, 32.771320396637442 ], [ 22.576673092698577, 32.770661520208371 ], [ 22.576183134093949, 32.770106892535381 ], [ 22.575706461226495, 32.769504368301014 ], [ 22.575227253150455, 32.769158407803374 ], [ 22.574975957532892, 32.768922931713313 ], [ 22.574842999251526, 32.768590513524401 ], [ 22.574778642334238, 32.768143880102123 ], [ 22.5749352369237, 32.767813786843391 ], [ 22.575298892019067, 32.767586686610287 ], [ 22.576118583478344, 32.767299557552569 ], [ 22.577298039431941, 32.766912440825038 ], [ 22.577959413552222, 32.766617748134955 ], [ 22.578110979927327, 32.766243566815824 ], [ 22.578049283525186, 32.765948435631408 ], [ 22.577864180947572, 32.765702586220257 ], [ 22.577443059172623, 32.765526526369108 ], [ 22.576977430829942, 32.765389207616138 ], [ 22.57633343688968, 32.76538776782737 ], [ 22.57592647326944, 32.765373797038968 ], [ 22.575516820601042, 32.765207131437101 ], [ 22.575196521184253, 32.76498206932046 ], [ 22.575190805829092, 32.76465759629049 ], [ 22.575386888295327, 32.764244676872465 ], [ 22.576117224014077, 32.763376400667511 ], [ 22.57662669745179, 32.762797262763883 ], [ 22.577532659818161, 32.762279950173784 ], [ 22.578115947087255, 32.762043512869525 ], [ 22.578640568567401, 32.761683722030185 ], [ 22.579015995958766, 32.761192173436548 ], [ 22.579555444539601, 32.760393102160748 ], [ 22.579774255891181, 32.759989434686467 ], [ 22.579900686812973, 32.759472385937308 ], [ 22.579990537317894, 32.758803072870883 ], [ 22.580164333891318, 32.758409517530175 ], [ 22.580442813106831, 32.758186459904159 ], [ 22.580833895345513, 32.757942889771201 ], [ 22.581383770130149, 32.757735496501098 ], [ 22.581978818499472, 32.757527529555368 ], [ 22.582688493326206, 32.757413566613153 ], [ 22.583127783092593, 32.757341198850369 ], [ 22.583575324838456, 32.757096906881593 ], [ 22.584280430403027, 32.756725266574485 ], [ 22.584683297338241, 32.756510171888337 ], [ 22.585137559412694, 32.756008062385639 ], [ 22.585263785360663, 32.755481466957093 ], [ 22.585452529768702, 32.754658170916983 ], [ 22.585750791328135, 32.753888221175416 ], [ 22.585967249774022, 32.75340096784231 ], [ 22.586026579377275, 32.75326741409377 ], [ 22.586122754499414, 32.753117049129962 ], [ 22.58633080795115, 32.752905609575755 ], [ 22.586546347948396, 32.752730650817398 ], [ 22.586559015584641, 32.752715987393877 ], [ 22.586839169640516, 32.752603749041583 ], [ 22.587361046386128, 32.752410693541535 ], [ 22.587465073862219, 32.752372210697573 ], [ 22.588100226954637, 32.75235819559002 ], [ 22.588685916225892, 32.752350979955935 ], [ 22.589103725267826, 32.752254194516013 ], [ 22.589663282967518, 32.75202536367388 ], [ 22.590222654255694, 32.751719970736083 ], [ 22.590680872347622, 32.751284610027106 ], [ 22.590843272743427, 32.75088879961109 ], [ 22.590747969137887, 32.750293419926152 ], [ 22.590412475071794, 32.749689158290579 ], [ 22.590020097227153, 32.749061752421419 ], [ 22.58925900823683, 32.748343569217774 ], [ 22.588646026786424, 32.747791502202766 ], [ 22.588136915155783, 32.7472681841165 ], [ 22.587875714556063, 32.74687058573992 ], [ 22.587863014628109, 32.746154838225166 ], [ 22.58796622032008, 32.745287281917633 ], [ 22.588203790736024, 32.744353590510066 ], [ 22.588528082735277, 32.743533344419319 ], [ 22.588761259431568, 32.743186752154784 ], [ 22.589154348580145, 32.742853211936499 ], [ 22.591307844185202, 32.741050432170596 ], [ 22.591855598473437, 32.740413476717706 ], [ 22.59191443963379, 32.739911593668474 ], [ 22.591703549583713, 32.739484727397432 ], [ 22.590993072721929, 32.738591704567185 ], [ 22.590554382218887, 32.7384156134828 ], [ 22.59052060022994, 32.738697928786358 ], [ 22.591194144342154, 32.739419605637217 ], [ 22.591528347423658, 32.74011217841219 ], [ 22.591349284189306, 32.740522520566167 ], [ 22.590528736140456, 32.741062709504703 ], [ 22.589644365097442, 32.741825634401138 ], [ 22.588751984579194, 32.742664256358701 ], [ 22.5884513094977, 32.743026022358841 ] ] ] ] } },
{ "type": "Feature", "properties": { "obj_type": "River", "NAM": "Wadi Al Humayyir", "HYP": "Intermittent", "det_method": "Photo-interpretation", "or_src_id": "1", "emsn_id": "EMSN177", "fwc_type": "FLEX", "aoi_id": "1", "name": "Derna", "country": "Libya" }, "geometry": { "type": "MultiPolygon", "coordinates": [ [ [ [ 22.533210755558823, 32.71643711202762 ], [ 22.532497503377961, 32.716139024034696 ], [ 22.531833442970264, 32.715937983394817 ], [ 22.531804735164123, 32.715929292171488 ], [ 22.531752323184744, 32.715929932543901 ], [ 22.531197941197966, 32.715936704671265 ], [ 22.531049721690628, 32.715957354655124 ], [ 22.530634703691298, 32.716015174265401 ], [ 22.530546403508616, 32.716070138026637 ], [ 22.53034141834938, 32.71619773458896 ], [ 22.530217267676562, 32.716366298135036 ], [ 22.530128151007172, 32.716461137499252 ], [ 22.530092504277761, 32.716499072687327 ], [ 22.530065503865689, 32.716570994020614 ], [ 22.530011501851241, 32.716714836684233 ], [ 22.529920359994836, 32.7171633988442 ], [ 22.529884848722158, 32.717563553897172 ], [ 22.529986224814952, 32.718540739958598 ], [ 22.52986282914194, 32.719580328013421 ], [ 22.529407314106596, 32.720182485701223 ], [ 22.528992093077107, 32.720664830411309 ], [ 22.528126697552949, 32.721236185783418 ], [ 22.527242500632337, 32.721533329038763 ], [ 22.526545311033747, 32.721632951528001 ], [ 22.526752691957913, 32.72218175090196 ], [ 22.526928488926767, 32.722157617625051 ], [ 22.52732967824717, 32.722093070306173 ], [ 22.527912498332924, 32.721918919943164 ], [ 22.528569676720629, 32.721552948543398 ], [ 22.52893191590351, 32.721274095783073 ], [ 22.529307246600958, 32.720935421437723 ], [ 22.529486836986365, 32.720706523321404 ], [ 22.529706114261923, 32.720322023536134 ], [ 22.529898020275116, 32.719963970484976 ], [ 22.529924982257594, 32.719913665652136 ], [ 22.530019284371637, 32.719650011292543 ], [ 22.53003634859639, 32.719574440229202 ], [ 22.530111140881438, 32.71924320226136 ], [ 22.530145530844162, 32.718777435514852 ], [ 22.530188123248884, 32.717965539699321 ], [ 22.530305756562722, 32.717415233162249 ], [ 22.530384924840302, 32.717092102346108 ], [ 22.530549373627263, 32.716803727614419 ], [ 22.530567971555495, 32.716782762166552 ], [ 22.530784787005658, 32.716538348927401 ], [ 22.530824614082448, 32.71651723606881 ], [ 22.531176446384876, 32.71633072250566 ], [ 22.531385538667937, 32.716274123245171 ], [ 22.531499584347788, 32.716243251898753 ], [ 22.531965061927718, 32.716225632998885 ], [ 22.532283219342045, 32.716313898223511 ], [ 22.532562031527707, 32.716468908497347 ], [ 22.533329772356169, 32.716793616134787 ], [ 22.534555018285094, 32.717458747487278 ], [ 22.536375431883659, 32.718259757403054 ], [ 22.537532806400773, 32.718257500911974 ], [ 22.53915013117269, 32.717915491091141 ], [ 22.540433480519443, 32.717852001335707 ], [ 22.541099604887229, 32.71801086141059 ], [ 22.541398619970614, 32.718162301254864 ], [ 22.541515825270107, 32.71841143126808 ], [ 22.541496016861419, 32.718900885298851 ], [ 22.541365365686168, 32.719511021839814 ], [ 22.541115276649869, 32.720478192669034 ], [ 22.540954553131446, 32.721332058452923 ], [ 22.540933939221574, 32.721508962481813 ], [ 22.540980791450696, 32.721770889377915 ], [ 22.541040826173582, 32.721878359987485 ], [ 22.54112643035533, 32.722031601812688 ], [ 22.541343674336176, 32.722151159233881 ], [ 22.542026244748698, 32.722443450280558 ], [ 22.542944676987645, 32.722661242175718 ], [ 22.543993164582481, 32.72256242265275 ], [ 22.544585146975262, 32.722512174989333 ], [ 22.545008520474411, 32.722506957660812 ], [ 22.545502350377983, 32.722658371625656 ], [ 22.54624192024232, 32.723307895049935 ], [ 22.547151467774512, 32.724358614892708 ], [ 22.547689613806458, 32.725276696295218 ], [ 22.547854132603337, 32.725811602188038 ], [ 22.547947572860906, 32.726317555720158 ], [ 22.547935990719054, 32.726872533132621 ], [ 22.547795431947904, 32.727315750148662 ], [ 22.547737077186916, 32.727614769122518 ], [ 22.547609082281326, 32.727968341262134 ], [ 22.547629173918914, 32.728314119511069 ], [ 22.547784271515503, 32.728711924062509 ], [ 22.547981710322308, 32.729109205469911 ], [ 22.548406101675113, 32.729569308162667 ], [ 22.549636380382193, 32.730508658192591 ], [ 22.551038116555734, 32.731565192232189 ], [ 22.554148350683253, 32.733859352475228 ], [ 22.555830292825512, 32.735192755999194 ], [ 22.558512453805296, 32.737211716352355 ], [ 22.559308076861701, 32.737905801564494 ], [ 22.559992249037084, 32.738684790738183 ], [ 22.560418619449774, 32.739252213592401 ], [ 22.561647651406961, 32.74131901663155 ], [ 22.562382754013363, 32.742586563566633 ], [ 22.563497807507687, 32.744589142090916 ], [ 22.564158735968068, 32.745648795751919 ], [ 22.564656406168179, 32.746656790188538 ], [ 22.564847947269111, 32.747113774866627 ], [ 22.564898223469854, 32.747566558079306 ], [ 22.564908237005032, 32.74813916176516 ], [ 22.56477354009866, 32.748510731361648 ], [ 22.564352269403329, 32.749046958796747 ], [ 22.56356604817508, 32.749707057983784 ], [ 22.562742673464157, 32.750665912270186 ], [ 22.562538213272941, 32.751086077245624 ], [ 22.562416890069539, 32.751415715390749 ], [ 22.562426055944918, 32.751940603081088 ], [ 22.562499061924235, 32.752482591696179 ], [ 22.562572380380974, 32.753042474277628 ], [ 22.562808986001343, 32.753654014047335 ], [ 22.56307341346762, 32.754241341925059 ], [ 22.563354492065599, 32.755377326327732 ], [ 22.563595071441, 32.756215519013324 ], [ 22.56356359040916, 32.757242049699826 ], [ 22.563366001637199, 32.758055880440914 ], [ 22.562904514933592, 32.758717889769954 ], [ 22.562460342844734, 32.759158942551423 ], [ 22.561998820506702, 32.7594152661473 ], [ 22.561405962505923, 32.759428621759902 ], [ 22.560632169377453, 32.759593377609221 ], [ 22.559950453922557, 32.759774879304828 ], [ 22.559079386921329, 32.760030325713608 ], [ 22.558171253538145, 32.760184805672623 ], [ 22.557275572226072, 32.760243670005373 ], [ 22.556541523864823, 32.760258757639171 ], [ 22.556023818195676, 32.760127973080841 ], [ 22.555825746673449, 32.760106568755155 ], [ 22.555433863961852, 32.75990262722199 ], [ 22.554847350173372, 32.759062746475024 ], [ 22.554287011451287, 32.758103218384299 ], [ 22.553956080999757, 32.757749367409005 ], [ 22.553647054353078, 32.757437006139327 ], [ 22.553276985637851, 32.757268582040481 ], [ 22.552787123863695, 32.757113574158872 ], [ 22.552426084112813, 32.757058388920129 ], [ 22.552298712768462, 32.757042069108586 ], [ 22.551981371703835, 32.75706389851247 ], [ 22.551675228332435, 32.757324225929842 ], [ 22.551155064998365, 32.758678968339531 ], [ 22.550766502051061, 32.760294580503128 ], [ 22.550558910619202, 32.761353119461937 ], [ 22.550203171348617, 32.762419457588599 ], [ 22.549411774000216, 32.764016186092974 ], [ 22.54899137302462, 32.764612012115286 ], [ 22.548502644069092, 32.765339931770811 ], [ 22.548167980198663, 32.765994354614577 ], [ 22.547991450278261, 32.766402219837133 ], [ 22.547460367265991, 32.767947991600536 ], [ 22.546940909829264, 32.769350434596035 ], [ 22.546774627410549, 32.769943115815039 ], [ 22.546356040232329, 32.770646296916375 ], [ 22.545843396638535, 32.771219388037657 ], [ 22.545422869347682, 32.771558296257304 ], [ 22.545734758750669, 32.772382623307514 ], [ 22.546577268331774, 32.771549292953239 ], [ 22.547434085810728, 32.770135524900837 ], [ 22.54808532181508, 32.768595428214383 ], [ 22.548367253021777, 32.767260348319859 ], [ 22.548490158113246, 32.766528598980038 ], [ 22.5490820114874, 32.765476050921265 ], [ 22.550391472538461, 32.763784618307781 ], [ 22.550918743675798, 32.76291899773917 ], [ 22.551289302910561, 32.761811906165043 ], [ 22.551481493543957, 32.760191565257763 ], [ 22.551833106198256, 32.758970160901598 ], [ 22.552192659802305, 32.758206839865586 ], [ 22.552490155975416, 32.75777360656285 ], [ 22.552894266977262, 32.757625416260879 ], [ 22.55326822331655, 32.75769237165327 ], [ 22.553682279149513, 32.758116784713152 ], [ 22.554378848067671, 32.759196329770859 ], [ 22.554851455975736, 32.76006387726067 ], [ 22.555182312919687, 32.760575226611387 ], [ 22.555830344693412, 32.760810590746019 ], [ 22.55691712983932, 32.760940271365605 ], [ 22.558727189394329, 32.760760263700782 ], [ 22.559758657448413, 32.760632880529222 ], [ 22.561394285986644, 32.760168641571532 ], [ 22.562471566777791, 32.759754300796281 ], [ 22.563090409226156, 32.759288398739528 ], [ 22.56369998595903, 32.758292835010138 ], [ 22.5639702224593, 32.757272869437429 ], [ 22.563864744400799, 32.756085775321814 ], [ 22.563588859218292, 32.754843533947039 ], [ 22.56335186766551, 32.753887170973044 ], [ 22.563242969808623, 32.753473301334772 ], [ 22.563218525558625, 32.753044059729973 ], [ 22.563212022527416, 32.752671867015714 ], [ 22.563222209888295, 32.752285147857314 ], [ 22.563128754640577, 32.751785176156204 ], [ 22.563152381359664, 32.751197834576466 ], [ 22.563448799867508, 32.750707316805538 ], [ 22.563880736153987, 32.750215107029412 ], [ 22.5643644884799, 32.749779521685035 ], [ 22.565015881604527, 32.749241612571829 ], [ 22.565243774761115, 32.748708991975413 ], [ 22.565393417596344, 32.747900529829828 ], [ 22.565395944486834, 32.747325282925416 ], [ 22.565161961491931, 32.746540704000381 ], [ 22.563800921461009, 32.744281097707415 ], [ 22.561753375968379, 32.740540933663034 ], [ 22.560122012995393, 32.738313287063683 ], [ 22.55969083603312, 32.737874787816814 ], [ 22.558915177785195, 32.7371112529908 ], [ 22.557641870105602, 32.735981622967813 ], [ 22.554654992058911, 32.733727784545479 ], [ 22.551170654417994, 32.731107753016524 ], [ 22.549127967109545, 32.729558002951251 ], [ 22.548507371107586, 32.728935665258987 ], [ 22.548363219521612, 32.728436305212128 ], [ 22.548296324366319, 32.727506441193007 ], [ 22.548458362265336, 32.726101244712531 ], [ 22.548308771781393, 32.725286948199553 ], [ 22.547644942042151, 32.724121043117314 ], [ 22.546934280866289, 32.723184805630595 ], [ 22.546247981977107, 32.722677813203312 ], [ 22.545411501238604, 32.72230153313285 ], [ 22.544712479524808, 32.722038100942619 ], [ 22.543865984526089, 32.72206284729814 ], [ 22.543308120856814, 32.722126989792407 ], [ 22.542867813972013, 32.722132409757059 ], [ 22.542657424568745, 32.722128649337932 ], [ 22.542365921046514, 32.722110660932259 ], [ 22.542059079372116, 32.722091724982292 ], [ 22.541745732350577, 32.721928531539376 ], [ 22.541602350197724, 32.721799043490094 ], [ 22.541542615805035, 32.721608866862852 ], [ 22.541536662282219, 32.721262912997894 ], [ 22.541595521679806, 32.720582067680077 ], [ 22.541813459925912, 32.719302667661069 ], [ 22.54189176649394, 32.718931813820227 ], [ 22.541916088743353, 32.718704808044379 ], [ 22.541919226054048, 32.71864718499517 ], [ 22.541770658691611, 32.718456025562126 ], [ 22.541466510550379, 32.718006350559342 ], [ 22.541138041581924, 32.717783682217004 ], [ 22.540554947820826, 32.717528344993944 ], [ 22.539905194869316, 32.717500532359665 ], [ 22.539299417395526, 32.717567631659811 ], [ 22.53861040181442, 32.717719273114071 ], [ 22.537752862039344, 32.71792070615404 ], [ 22.536893068114356, 32.717990909433631 ], [ 22.536575566420499, 32.718011085944937 ], [ 22.536271126160976, 32.717938872543115 ], [ 22.53591526369803, 32.717764253160929 ], [ 22.535827286398568, 32.717717835570717 ], [ 22.5352743069135, 32.717426077358695 ], [ 22.534675483811096, 32.717075449699742 ], [ 22.533210755558823, 32.71643711202762 ] ] ] ] } },
{ "type": "Feature", "properties": { "obj_type": "River", "NAM": "Wadi Al Manhar", "HYP": "Intermittent", "det_method": "Photo-interpretation", "or_src_id": "1", "emsn_id": "EMSN177", "fwc_type": "FLEX", "aoi_id": "1", "name": "Derna", "country": "Libya" }, "geometry": { "type": "MultiPolygon", "coordinates": [ [ [ [ 22.592514745604184, 32.670624257445553 ], [ 22.593307849723352, 32.670799131913164 ], [ 22.594099402945027, 32.671147746091343 ], [ 22.594613421736817, 32.671494398370818 ], [ 22.595188975038258, 32.671866998590623 ], [ 22.595213790320923, 32.67167577250045 ], [ 22.595031446635048, 32.671338031337257 ], [ 22.594758911876468, 32.671084959474733 ], [ 22.594216390791846, 32.67072196512256 ], [ 22.593255796108053, 32.670250925375825 ], [ 22.59218841237567, 32.670121292308295 ], [ 22.591596366698891, 32.670146702591609 ], [ 22.590020746353854, 32.670393388297832 ], [ 22.588626145136676, 32.670506510252032 ], [ 22.587681073572178, 32.670512508309692 ], [ 22.587206586220319, 32.670405158074402 ], [ 22.586657563206192, 32.670209906692584 ], [ 22.586555043999475, 32.670156315633278 ], [ 22.586547214368924, 32.67014796707624 ], [ 22.586382507995705, 32.669972359523157 ], [ 22.586289459844561, 32.66981603385085 ], [ 22.586148497434927, 32.66950281347173 ], [ 22.586051068833324, 32.669169870020539 ], [ 22.586034394085996, 32.669112887884538 ], [ 22.58594527049711, 32.668811656174455 ], [ 22.585575899937034, 32.667528900384667 ], [ 22.585357216482418, 32.666970140860421 ], [ 22.585179338469281, 32.666483178419682 ], [ 22.584947786172641, 32.666152008586813 ], [ 22.584485110085712, 32.665513527444098 ], [ 22.584374428412161, 32.665370083333912 ], [ 22.584004331724099, 32.665031557709014 ], [ 22.583810111880428, 32.664934745469182 ], [ 22.583251460036205, 32.664574520191699 ], [ 22.582896949025066, 32.664389275126773 ], [ 22.582553070340914, 32.664188422116553 ], [ 22.582361038953664, 32.664076258673383 ], [ 22.582334476663995, 32.6640097742143 ], [ 22.582329637395471, 32.663895288656917 ], [ 22.582370660805434, 32.663783866755821 ], [ 22.582383483199887, 32.663749039822697 ], [ 22.582432152050188, 32.663629106365867 ], [ 22.582395991095762, 32.663498310963305 ], [ 22.582232569722454, 32.663350028984631 ], [ 22.58204422466115, 32.663228311149091 ], [ 22.581936664366356, 32.663208190253265 ], [ 22.581822108896176, 32.663223265536622 ], [ 22.581776228843257, 32.663229304287398 ], [ 22.581700661432329, 32.663263665732146 ], [ 22.581602950434839, 32.663322170736016 ], [ 22.58151673140744, 32.663392463506632 ], [ 22.581475977324363, 32.663481273682024 ], [ 22.581469407401048, 32.663588743488702 ], [ 22.581501694503604, 32.663659929067556 ], [ 22.581451890670888, 32.663715443571988 ], [ 22.581376574900304, 32.66376412088529 ], [ 22.581241018682189, 32.663756283130965 ], [ 22.580982908792159, 32.663571446491382 ], [ 22.579885264648766, 32.662785394775632 ], [ 22.578717525563796, 32.661835989253909 ], [ 22.578370170132448, 32.661334444168773 ], [ 22.578079395628425, 32.660841730793145 ], [ 22.577899862909312, 32.660424878261473 ], [ 22.57779911819253, 32.65985327511855 ], [ 22.577713532696144, 32.659794925833133 ], [ 22.57755452836285, 32.659576183414913 ], [ 22.577502550615296, 32.659427687053906 ], [ 22.577497788432872, 32.659194373649754 ], [ 22.577134161640906, 32.658591013091417 ], [ 22.576669686777461, 32.657646646291447 ], [ 22.57531485527899, 32.65633836104773 ], [ 22.575172162889341, 32.656244695933459 ], [ 22.574759862612876, 32.656058958840802 ], [ 22.574431966327072, 32.65586022869239 ], [ 22.574089759800792, 32.655649746240179 ], [ 22.573804170962912, 32.655450484589011 ], [ 22.57364717100856, 32.655345065286497 ], [ 22.5735444650571, 32.655294669970964 ], [ 22.57350489994743, 32.65527525746397 ], [ 22.57333379918796, 32.655170014562636 ], [ 22.573167659292757, 32.654945389189194 ], [ 22.572331695152315, 32.654729158818114 ], [ 22.570259405998886, 32.653985492011095 ], [ 22.569245664769628, 32.653653419397983 ], [ 22.568142220499134, 32.653109571349709 ], [ 22.567209557280748, 32.652582443967333 ], [ 22.567090918258106, 32.652488986674996 ], [ 22.566328612147956, 32.651888479445709 ], [ 22.566267296704925, 32.651862235935084 ], [ 22.564937159892118, 32.651070162603808 ], [ 22.563791470081753, 32.650397159577487 ], [ 22.563484356456591, 32.65027092346179 ], [ 22.562142458159244, 32.649719337590618 ], [ 22.561103990013539, 32.649628785265236 ], [ 22.561028601021629, 32.649628641568405 ], [ 22.560604694014792, 32.649627835336346 ], [ 22.559774319887207, 32.649566566181988 ], [ 22.559688942282268, 32.649557448776385 ], [ 22.559053684224057, 32.649489609899156 ], [ 22.558290001573159, 32.649370228681789 ], [ 22.557713445515585, 32.649305794026908 ], [ 22.557603553380968, 32.649273522498369 ], [ 22.556966047073459, 32.649105859725992 ], [ 22.556651024311808, 32.648995220032468 ], [ 22.556096877593845, 32.64875867785441 ], [ 22.555526059692401, 32.648536658228352 ], [ 22.554945173974094, 32.64822169130484 ], [ 22.554661025196875, 32.647938842739983 ], [ 22.554389800260321, 32.647528200445656 ], [ 22.554239569970104, 32.647056317695984 ], [ 22.553928879375682, 32.64661050714075 ], [ 22.553820513442229, 32.646487398754651 ], [ 22.553604278961267, 32.645991249907468 ], [ 22.553237355425843, 32.645387321871048 ], [ 22.553214299708248, 32.645358970300315 ], [ 22.553154708955486, 32.645297089898605 ], [ 22.552823679699053, 32.644953340928282 ], [ 22.552524510991603, 32.644735674609109 ], [ 22.55242376240038, 32.644662372849751 ], [ 22.55209251623106, 32.644427828069077 ], [ 22.551739866237522, 32.644260367045064 ], [ 22.551286191553508, 32.644122789674419 ], [ 22.551113716224858, 32.644091670899599 ], [ 22.550890071866771, 32.644051319535897 ], [ 22.550628677765044, 32.644031054267323 ], [ 22.550359085458847, 32.644010151922664 ], [ 22.549287451969132, 32.643985046075684 ], [ 22.548554154420366, 32.643959886325689 ], [ 22.547439409989206, 32.643868841735518 ], [ 22.547005829762483, 32.643852408951943 ], [ 22.54543278652023, 32.644291807146722 ], [ 22.546017264659138, 32.644317240794841 ], [ 22.548896282059655, 32.644432089339816 ], [ 22.550166528837984, 32.644487999564817 ], [ 22.550963754167284, 32.644592698333675 ], [ 22.55175462221354, 32.644819177888849 ], [ 22.552395808296719, 32.645197847995753 ], [ 22.552731692781297, 32.645537336749811 ], [ 22.553150352391551, 32.646245892585732 ], [ 22.553232570936686, 32.64635053756583 ], [ 22.553877943867889, 32.647459389267432 ], [ 22.554029816417351, 32.647739458989875 ], [ 22.554411443162969, 32.648229893910596 ], [ 22.554978627802061, 32.648731173643021 ], [ 22.555576933764101, 32.649074561271242 ], [ 22.556164304239896, 32.649274897246364 ], [ 22.556863800190911, 32.649550713480622 ], [ 22.558121971683576, 32.649906664934576 ], [ 22.559846662043718, 32.65006289904656 ], [ 22.561338209286021, 32.650187535835514 ], [ 22.562594110341475, 32.650386681999549 ], [ 22.563769147908673, 32.650801599168808 ], [ 22.565408805942454, 32.651654581736345 ], [ 22.565593194658696, 32.652111179230531 ], [ 22.565970958550313, 32.652421471561219 ], [ 22.566527180022618, 32.652767798421557 ], [ 22.56751267865393, 32.653387433834482 ], [ 22.56847970003917, 32.65384070010608 ], [ 22.569203669854438, 32.654106085218473 ], [ 22.570287963133911, 32.654408720572455 ], [ 22.571216728428727, 32.654689429244286 ], [ 22.571335550692073, 32.654758275122624 ], [ 22.572734571686016, 32.655521119944929 ], [ 22.573806445948485, 32.655912597873105 ], [ 22.575276145938112, 32.656715078447895 ], [ 22.575987993825386, 32.657412513784287 ], [ 22.576392733889573, 32.657970619709161 ], [ 22.576978438217097, 32.659194640333112 ], [ 22.576941806625776, 32.660321479783185 ], [ 22.577127682538091, 32.660624602918368 ], [ 22.577312050825142, 32.660841833725769 ], [ 22.577928007196896, 32.661634748503765 ], [ 22.578802533312434, 32.662435121822952 ], [ 22.580196625981696, 32.663365137823931 ], [ 22.580764131408515, 32.663670416703361 ], [ 22.581425801633415, 32.663996173473635 ], [ 22.581789422126185, 32.664218297482407 ], [ 22.582052850699085, 32.664358159447936 ], [ 22.582202510023773, 32.664445762057078 ], [ 22.582289230795489, 32.664563988118246 ], [ 22.582362164321463, 32.664700286118695 ], [ 22.582540556046876, 32.664817354950848 ], [ 22.582633171875333, 32.66486988113985 ], [ 22.582661273124032, 32.664879742065878 ], [ 22.582739050489685, 32.664874511019093 ], [ 22.583000589216805, 32.664907007814513 ], [ 22.583248551165084, 32.664969505286365 ], [ 22.583469464874895, 32.665097968868679 ], [ 22.58368013604197, 32.665245395666545 ], [ 22.584133921422588, 32.665540352645266 ], [ 22.584798505480446, 32.666269354423761 ], [ 22.585193411940789, 32.667063951452505 ], [ 22.585569846401384, 32.668249857344598 ], [ 22.585677051819744, 32.669143208376312 ], [ 22.585791944114533, 32.66921978398063 ], [ 22.586000162443757, 32.669695979419991 ], [ 22.586129734552053, 32.670037600846115 ], [ 22.586280378259307, 32.670260016844239 ], [ 22.586451480795706, 32.670362854488118 ], [ 22.586769771618233, 32.670492466965541 ], [ 22.586952207375383, 32.670559840597122 ], [ 22.58705071516453, 32.670596218931195 ], [ 22.587144648311277, 32.670630908001677 ], [ 22.587446353841365, 32.670779819896133 ], [ 22.587478497069583, 32.670793731470205 ], [ 22.588054320146153, 32.670877674271964 ], [ 22.589189060269472, 32.67082750931467 ], [ 22.59103887308892, 32.670529629920004 ], [ 22.592514745604184, 32.670624257445553 ] ] ] ] } },
{ "type": "Feature", "properties": { "obj_type": "Reservoir", "NAM": "Unknown", "HYP": "Perennial", "det_method": "Photo-interpretation", "or_src_id": "1", "emsn_id": "EMSN177", "fwc_type": "FLEX", "aoi_id": "1", "name": "Derna", "country": "Libya" }, "geometry": { "type": "MultiPolygon", "coordinates": [ [ [ [ 22.579766199738884, 32.658882899816611 ], [ 22.5798144999812, 32.658950600360946 ], [ 22.579895399708349, 32.658909799819632 ], [ 22.579847099816405, 32.658842000088647 ], [ 22.579766199738884, 32.658882899816611 ] ] ] ] } },
{ "type": "Feature", "properties": { "obj_type": "River", "NAM": "Wadi Derna", "HYP": "Dry", "det_method": "Photo-interpretation", "or_src_id": "1", "emsn_id": "EMSN177", "fwc_type": "FLEX", "aoi_id": "1", "name": "Derna", "country": "Libya" }, "geometry": { "type": "MultiPolygon", "coordinates": [ [ [ [ 22.627976885519722, 32.746508132666293 ], [ 22.627931832894053, 32.74692911204103 ], [ 22.627945725947864, 32.747304779640324 ], [ 22.628045074742282, 32.747721098627821 ], [ 22.62807862337144, 32.748012989187657 ], [ 22.628083693487628, 32.748045692842702 ], [ 22.628102618962249, 32.748167789950095 ], [ 22.628226424522651, 32.748492267500943 ], [ 22.62830968463992, 32.748684128290272 ], [ 22.628696140350055, 32.749688798902213 ], [ 22.628779012011883, 32.749897718791715 ], [ 22.628932075148445, 32.750239362026804 ], [ 22.629141603838583, 32.750580270872319 ], [ 22.629318819039625, 32.751007507530616 ], [ 22.629439049759078, 32.751406848960443 ], [ 22.629797934505852, 32.751981174063616 ], [ 22.630134387199512, 32.752353260785476 ], [ 22.630385557384287, 32.752576695035231 ], [ 22.630622938513309, 32.752818205024916 ], [ 22.630995516275259, 32.753117614035574 ], [ 22.631266452266495, 32.753263232947063 ], [ 22.632064820309584, 32.753682375531731 ], [ 22.632358253258147, 32.753912010473535 ], [ 22.632949951685376, 32.754180962338076 ], [ 22.633634747488067, 32.754565780236987 ], [ 22.634504595522156, 32.755031702507992 ], [ 22.634977432094562, 32.755407346316616 ], [ 22.635349925989573, 32.755700776677941 ], [ 22.635553452610544, 32.756020274760004 ], [ 22.635625840129162, 32.756230631459061 ], [ 22.635800480648847, 32.756514711708128 ], [ 22.636687035065968, 32.757429029916267 ], [ 22.637424311017845, 32.758036367271281 ], [ 22.637610199982309, 32.758133200073964 ], [ 22.637857500464285, 32.758282000118797 ], [ 22.638097799851241, 32.758476099875395 ], [ 22.638419499914097, 32.758793999842787 ], [ 22.638731799488365, 32.759131300398472 ], [ 22.638997800002336, 32.759481399778814 ], [ 22.639124800297516, 32.759720999570177 ], [ 22.639248800168531, 32.759965399698579 ], [ 22.639473433474198, 32.760373287579064 ], [ 22.639650087327311, 32.760730307050103 ], [ 22.639755371855582, 32.760990261597172 ], [ 22.639874681140213, 32.761171632321521 ], [ 22.639985781197748, 32.761326977311455 ], [ 22.640190844146385, 32.761546425132913 ], [ 22.640799269175805, 32.762257121149879 ], [ 22.642814299512555, 32.764231399571266 ], [ 22.64378475602668, 32.764824768004189 ], [ 22.64422187954662, 32.765047696926466 ], [ 22.64449533687819, 32.765200906444115 ], [ 22.644784137995256, 32.765347380394047 ], [ 22.645049385558938, 32.765474563424171 ], [ 22.645345918353996, 32.765620934503083 ], [ 22.645571913630899, 32.765715965443903 ], [ 22.645696928661867, 32.765786188713015 ], [ 22.645876539712617, 32.765881828454205 ], [ 22.646032478221521, 32.765951645971484 ], [ 22.646265845285246, 32.766026978314827 ], [ 22.646475779120063, 32.766089552160288 ], [ 22.646677982204036, 32.76615222727208 ], [ 22.646896009584385, 32.766234293544677 ], [ 22.647115119127232, 32.766375145613317 ], [ 22.647232886500007, 32.766471596517832 ], [ 22.647358143450663, 32.766554881852336 ], [ 22.647552858841646, 32.766630720040858 ], [ 22.647794319973006, 32.7667255434461 ], [ 22.648128432070873, 32.766812613904882 ], [ 22.648586841118313, 32.766930714147314 ], [ 22.648651132778518, 32.766952738772993 ], [ 22.648717509052496, 32.766964560515483 ], [ 22.648802222366125, 32.766963445496586 ], [ 22.648886736640222, 32.766951594833429 ], [ 22.648954242432442, 32.766936387406368 ], [ 22.649013739512611, 32.766946343292609 ], [ 22.649073433510999, 32.766967033862535 ], [ 22.649112346279601, 32.767009475306466 ], [ 22.649164031671681, 32.767055328282581 ], [ 22.649219622976101, 32.767083232199745 ], [ 22.64930075951321, 32.767117959154959 ], [ 22.649323692881918, 32.76715188579238 ], [ 22.649119311306169, 32.7674027540602 ], [ 22.649036710587492, 32.767518384757302 ], [ 22.648975908164399, 32.767590774723459 ], [ 22.648954989599211, 32.767681730482664 ], [ 22.648973692086663, 32.767776937603827 ], [ 22.649009249234993, 32.767867149902486 ], [ 22.649072340878472, 32.767918818013463 ], [ 22.649118048880378, 32.767946852075589 ], [ 22.649236823332618, 32.767954834187123 ], [ 22.649333008317903, 32.767963112722256 ], [ 22.649390188254486, 32.768000540600923 ], [ 22.649396162635654, 32.768005433290462 ], [ 22.649642824928911, 32.767821361006732 ], [ 22.649516296417868, 32.767793656385749 ], [ 22.649391258169668, 32.767752349166564 ], [ 22.64930028122345, 32.767720138319312 ], [ 22.649242838547913, 32.767668395945883 ], [ 22.649247077213371, 32.767591977664836 ], [ 22.649273819364513, 32.767510491058616 ], [ 22.649328621564994, 32.767419089112792 ], [ 22.649367714407422, 32.76739471059463 ], [ 22.649434604338769, 32.767346104066405 ], [ 22.649508990498287, 32.767397623239695 ], [ 22.649804774172402, 32.767508271160459 ], [ 22.649969873502727, 32.767577686101433 ], [ 22.650191271479535, 32.767636814193423 ], [ 22.650378873727853, 32.767701160098007 ], [ 22.650533154470256, 32.767750035902438 ], [ 22.650537973629817, 32.767751562478693 ], [ 22.650720015471769, 32.767820753161914 ], [ 22.650909099980833, 32.767927699621069 ], [ 22.651088800139473, 32.767845299678832 ], [ 22.651343699707756, 32.767623199930284 ], [ 22.651991600322543, 32.767275399849495 ], [ 22.65233405939253, 32.767032130774069 ], [ 22.652505000042009, 32.766910700381899 ], [ 22.652610795107293, 32.766824500319508 ], [ 22.652620000296945, 32.766817000309395 ], [ 22.652668300019133, 32.766727000449016 ], [ 22.652894545972188, 32.766560032730204 ], [ 22.652785424946881, 32.766545845077445 ], [ 22.652696675853822, 32.766557755131771 ], [ 22.652637443277548, 32.766562116310453 ], [ 22.652578144552791, 32.766562898633481 ], [ 22.652539892806441, 32.766556243869772 ], [ 22.652472057308877, 32.76655355906199 ], [ 22.652383109755579, 32.766554732411308 ], [ 22.652311236800287, 32.766562839876556 ], [ 22.652205545249537, 32.766574972161337 ], [ 22.652151480273915, 32.766581407901512 ], [ 22.652137908111264, 32.766583023658384 ], [ 22.652058092311922, 32.766619870638671 ], [ 22.652004160843582, 32.766589043738975 ], [ 22.651960145127795, 32.766592526577483 ], [ 22.651879271507408, 32.766572116690675 ], [ 22.651768816243862, 32.766555675623252 ], [ 22.651568420926335, 32.766486728404189 ], [ 22.651474576610703, 32.766452170459637 ], [ 22.651385299730162, 32.766435449835107 ], [ 22.651339037971727, 32.766453957306069 ], [ 22.651305748089452, 32.766486611662863 ], [ 22.651241333280986, 32.766496953451949 ], [ 22.650965116273539, 32.766394455044626 ], [ 22.650917600175681, 32.7663449690696 ], [ 22.65086565007115, 32.766284802405309 ], [ 22.650805756882253, 32.766253376206755 ], [ 22.650737591306623, 32.766232797195542 ], [ 22.650597883170384, 32.766238217880641 ], [ 22.650483787145038, 32.766254039155029 ], [ 22.650361615684723, 32.766291444030841 ], [ 22.650209663238307, 32.766322081714172 ], [ 22.650027532537617, 32.766324480918733 ], [ 22.649883522300126, 32.76632637777557 ], [ 22.649680214459874, 32.766329055399581 ], [ 22.649404200162149, 32.766289800367652 ], [ 22.64919389995789, 32.766257500085565 ], [ 22.648477436255128, 32.766150216485478 ], [ 22.647880738462227, 32.7659600121913 ], [ 22.647631547281001, 32.765865290578908 ], [ 22.647390329343189, 32.765783530562004 ], [ 22.647148990444716, 32.765695238181422 ], [ 22.646892311388761, 32.765613679582934 ], [ 22.646697840383968, 32.765550903150682 ], [ 22.646293556406228, 32.765432084472913 ], [ 22.646090752989412, 32.76533675098112 ], [ 22.645771869697832, 32.765236407882711 ], [ 22.645476419252507, 32.765148823119112 ], [ 22.645242934938679, 32.76506695729541 ], [ 22.645055835571693, 32.764984480994343 ], [ 22.644736594203092, 32.764864540359497 ], [ 22.644393680477471, 32.764718776602578 ], [ 22.644111772342775, 32.764526478626969 ], [ 22.643728767866218, 32.764302839137621 ], [ 22.642879847749438, 32.763741524992355 ], [ 22.641692951887254, 32.762500211692618 ], [ 22.640634296895293, 32.761272753255305 ], [ 22.640316695577727, 32.760819580273463 ], [ 22.640161264037374, 32.760498385030388 ], [ 22.639874486534467, 32.759993222013442 ], [ 22.639650450353237, 32.759480707212987 ], [ 22.639465022700634, 32.759225409869011 ], [ 22.639190816616342, 32.759057182481023 ], [ 22.639007313647081, 32.758906857867764 ], [ 22.63879825169262, 32.758594596824636 ], [ 22.63856590376307, 32.758244459027772 ], [ 22.638395213177073, 32.758074601679347 ], [ 22.638144908890741, 32.757967073192987 ], [ 22.637787824030479, 32.757745039969059 ], [ 22.637616232167002, 32.75762796636419 ], [ 22.637243504494073, 32.757322614685741 ], [ 22.636857317171259, 32.75705323305705 ], [ 22.636500020865732, 32.7568192672747 ], [ 22.636355575376946, 32.756642178911875 ], [ 22.636233000472306, 32.756378228596738 ], [ 22.636186722266526, 32.756164062525421 ], [ 22.636141788966988, 32.755762027980502 ], [ 22.636009936772361, 32.755501253332881 ], [ 22.635691509513251, 32.755075870851776 ], [ 22.635261024064082, 32.754699676087441 ], [ 22.634461323936211, 32.754208980974248 ], [ 22.633977211779424, 32.753988594264783 ], [ 22.633465957834911, 32.753828217006117 ], [ 22.633338867206813, 32.75381076128081 ], [ 22.633018126378708, 32.753738600928173 ], [ 22.632804284800887, 32.753626844027998 ], [ 22.632550057102463, 32.753534184432937 ], [ 22.632377999874187, 32.753417399779345 ], [ 22.631588099995231, 32.752925800414666 ], [ 22.630902499944941, 32.752404700151025 ], [ 22.630108600498826, 32.751540800314359 ], [ 22.629706299523932, 32.750846000235548 ], [ 22.629686364084701, 32.750515085734534 ], [ 22.629632153256981, 32.750019432797608 ], [ 22.629627460461375, 32.74976176887111 ], [ 22.629416020436381, 32.749315887549798 ], [ 22.629127096039618, 32.748956920396971 ], [ 22.628995925542775, 32.748576811639182 ], [ 22.628785186494785, 32.748169101009239 ], [ 22.628742449686975, 32.747682843288466 ], [ 22.628513821295844, 32.746912640433045 ], [ 22.628076731947367, 32.74624414696077 ], [ 22.627976885519722, 32.746508132666293 ] ] ] ] } }
]
}
