{
"type": "FeatureCollection",
"name": "P03EXP03_industryA",
"crs": { "type": "name", "properties": { "name": "urn:ogc:def:crs:OGC:1.3:CRS84" } },
"features": [
{ "type": "Feature", "properties": { "obj_type": "Processing facility", "NAM": "Derna Power Plant", "FUN": "Fully functional", "det_method": "Ancillary data", "or_src_id": "994", "emsn_id": "EMSN177", "fwc_type": "FLEX", "aoi_id": "1", "name": "Derna", "country": "Libya", "exp03": "yes", "exp03_clas": "0.5-1" }, "geometry": { "type": "MultiPolygon", "coordinates": [ [ [ [ 22.586625400000059, 32.781432 ], [ 22.587324500000022, 32.782289900000023 ], [ 22.588311, 32.780742 ], [ 22.587221100000022, 32.780346500000064 ], [ 22.586625400000059, 32.781432 ] ] ] ] } },
{ "type": "Feature", "properties": { "obj_type": "Dam", "NAM": "Abu Mansour Dam", "FUN": "Destroyed", "det_method": "Ancillary data", "or_src_id": "994", "emsn_id": "EMSN177", "fwc_type": "FLEX", "aoi_id": "1", "name": "Derna", "country": "Libya", "exp03": "yes", "exp03_clas": "0.5-1" }, "geometry": { "type": "MultiPolygon", "coordinates": [ [ [ [ 22.575812600000063, 32.660043600000051 ], [ 22.57582240000005, 32.660082 ], [ 22.576182800000026, 32.660066100000051 ], [ 22.576933800000063, 32.66017 ], [ 22.577322700000025, 32.660093200000063 ], [ 22.577570900000069, 32.660001 ], [ 22.578194400000029, 32.659490300000073 ], [ 22.578264200000035, 32.659341300000051 ], [ 22.578307100000075, 32.659047700000031 ], [ 22.578317800000036, 32.658880600000032 ], [ 22.578354200000035, 32.658747500000061 ], [ 22.578331200000036, 32.658722500000067 ], [ 22.578146200000049, 32.65874290000005 ], [ 22.577486300000032, 32.658566700000051 ], [ 22.577084600000035, 32.658786700000064 ], [ 22.576094300000022, 32.65929390000008 ], [ 22.575858200000027, 32.659691300000077 ], [ 22.575812600000063, 32.660043600000051 ] ] ] ] } },
{ "type": "Feature", "properties": { "obj_type": "Extraction mine", "NAM": "Unknown", "FUN": "Fully functional", "det_method": "Ancillary data", "or_src_id": "994", "emsn_id": "EMSN177", "fwc_type": "FLEX", "aoi_id": "1", "name": "Derna", "country": "Libya", "exp03": "yes", "exp03_clas": "2-5" }, "geometry": { "type": "MultiPolygon", "coordinates": [ [ [ [ 22.566683, 32.642764200000045 ], [ 22.567585400000041, 32.643383300000039 ], [ 22.567859899000041, 32.64354613900008 ], [ 22.568286393000051, 32.643741269000031 ], [ 22.568730560000063, 32.643979131000037 ], [ 22.569054788000074, 32.644132581000065 ], [ 22.569361598000057, 32.644257612000047 ], [ 22.569567138000025, 32.644398225000032 ], [ 22.569671241000037, 32.644674735000024 ], [ 22.569797854000058, 32.64501103200007 ], [ 22.56980085500004, 32.645182816000045 ], [ 22.570055177000029, 32.645650961000058 ], [ 22.570318218000068, 32.645734763000064 ], [ 22.570622782000044, 32.645730952000065 ], [ 22.570960436000064, 32.645683771000051 ], [ 22.571348099000033, 32.645593007000059 ], [ 22.571748924000076, 32.645287301000053 ], [ 22.571761837000054, 32.645058045000042 ], [ 22.571655057000044, 32.644758695000064 ], [ 22.571361659000047, 32.644433045000028 ], [ 22.571001582000065, 32.644165503000067 ], [ 22.570845048000024, 32.643924048000031 ], [ 22.570669592000058, 32.643568283000036 ], [ 22.570337403000053, 32.643131922000066 ], [ 22.570152241000073, 32.643016338000052 ], [ 22.569657067000037, 32.642764799000076 ], [ 22.569347762000064, 32.642496617000063 ], [ 22.569430359000023, 32.642381037000064 ], [ 22.569562715000075, 32.642207560000031 ], [ 22.569509706000076, 32.642079358000046 ], [ 22.56942035700007, 32.641808424000033 ], [ 22.569487285000037, 32.641764632000047 ], [ 22.569975058000068, 32.641634144000079 ], [ 22.570161064000047, 32.641584384000055 ], [ 22.57078583200007, 32.641504975000032 ], [ 22.570966189000046, 32.641173394000077 ], [ 22.571166468000058, 32.641013384000075 ], [ 22.571329654000067, 32.640667699000062 ], [ 22.571141789000023, 32.640569822000032 ], [ 22.570804656000064, 32.640645633000076 ], [ 22.570518779000054, 32.640749440000036 ], [ 22.57027765600003, 32.640509043000066 ], [ 22.570084540000039, 32.640110543000048 ], [ 22.570071486000074, 32.640077704000078 ], [ 22.569942934000039, 32.639754353000058 ], [ 22.569898975000058, 32.639558875000034 ], [ 22.569814497000039, 32.639183221000053 ], [ 22.570063029000039, 32.638879426000074 ], [ 22.57060645100006, 32.638597950000076 ], [ 22.570338200000037, 32.63845340000006 ], [ 22.569501400000036, 32.637893200000065 ], [ 22.569216457000039, 32.637645770000063 ], [ 22.56629107200007, 32.638463524000031 ], [ 22.566824800000063, 32.639630800000077 ], [ 22.566470500000037, 32.64002540000007 ], [ 22.565783900000042, 32.64028280000008 ], [ 22.565620256000045, 32.640349005000076 ], [ 22.565493460000027, 32.640400302000046 ], [ 22.565712942000062, 32.640766524000071 ], [ 22.565888373000064, 32.641122297000038 ], [ 22.565997374000062, 32.641550491000032 ], [ 22.566683, 32.642764200000045 ] ] ] ] } },
{ "type": "Feature", "properties": { "obj_type": "Breakwater", "NAM": "Unknown", "FUN": "Fully functional", "det_method": "Ancillary data", "or_src_id": "994", "emsn_id": "EMSN177", "fwc_type": "FLEX", "aoi_id": "1", "name": "Derna", "country": "Libya", "exp03": "no", "exp03_clas": null }, "geometry": { "type": "MultiPolygon", "coordinates": [ [ [ [ 22.657879081000033, 32.763199980000024 ], [ 22.657942927000079, 32.763177533000032 ], [ 22.658452664000038, 32.762994767000066 ], [ 22.65868622000005, 32.762862369000061 ], [ 22.658834234000039, 32.762772116000065 ], [ 22.65887830500003, 32.762711874000047 ], [ 22.658845166000049, 32.76260015500003 ], [ 22.658810353000035, 32.762550504000046 ], [ 22.658721937000053, 32.762503948000074 ], [ 22.658682406000025, 32.762504472000046 ], [ 22.658538492000048, 32.76251115000008 ], [ 22.658443375000047, 32.762560135000058 ], [ 22.658267611000042, 32.762677006000047 ], [ 22.658109983000031, 32.762858066000035 ], [ 22.657813556000065, 32.76301710000007 ], [ 22.657096769000077, 32.763353509000069 ], [ 22.656697626000039, 32.763456628000029 ], [ 22.656714800000032, 32.763487800000064 ], [ 22.656825900000058, 32.763638100000037 ], [ 22.656879582000045, 32.763673762000053 ], [ 22.657338633000052, 32.763450535000061 ], [ 22.657879081000033, 32.763199980000024 ] ] ] ] } },
{ "type": "Feature", "properties": { "obj_type": "Breakwater", "NAM": "Unknown", "FUN": "Fully functional", "det_method": "Ancillary data", "or_src_id": "994", "emsn_id": "EMSN177", "fwc_type": "FLEX", "aoi_id": "1", "name": "Derna", "country": "Libya", "exp03": "no", "exp03_clas": null }, "geometry": { "type": "MultiPolygon", "coordinates": [ [ [ [ 22.656363500000055, 32.761546500000065 ], [ 22.656389300000058, 32.761581200000023 ], [ 22.656472600000029, 32.761514 ], [ 22.656610800000067, 32.761442600000066 ], [ 22.656664, 32.761427200000071 ], [ 22.656725601000062, 32.761477600000035 ], [ 22.656722300000069, 32.761495800000034 ], [ 22.656765600000028, 32.76154340000005 ], [ 22.656780600000047, 32.761582600000054 ], [ 22.65677560000006, 32.761638600000026 ], [ 22.656771, 32.761688100000072 ], [ 22.656787200000053, 32.761757800000055 ], [ 22.656832200000053, 32.761852800000042 ], [ 22.656859700000041, 32.76187850000008 ], [ 22.656925300000069, 32.761917200000028 ], [ 22.656992, 32.761976400000037 ], [ 22.657037700000046, 32.76198 ], [ 22.657165401000043, 32.761960800000054 ], [ 22.65723330000003, 32.761942400000066 ], [ 22.657255700000064, 32.761920300000043 ], [ 22.657254200000068, 32.761888800000065 ], [ 22.657277500000077, 32.761865500000056 ], [ 22.657291699000041, 32.761839700000053 ], [ 22.657298400000059, 32.761716800000045 ], [ 22.657279, 32.761629300000038 ], [ 22.657170300000075, 32.761523400000044 ], [ 22.65708120000005, 32.76146360000007 ], [ 22.656923800000072, 32.761345100000028 ], [ 22.656833200000051, 32.761246200000073 ], [ 22.656363500000055, 32.761546500000065 ] ] ] ] } },
{ "type": "Feature", "properties": { "obj_type": "Dam", "NAM": "Al Bilad Dam", "FUN": "Destroyed", "det_method": "Photo-interpretation", "or_src_id": "1", "emsn_id": "EMSN177", "fwc_type": "FLEX", "aoi_id": "1", "name": "Derna", "country": "Libya", "exp03": "yes", "exp03_clas": "2-5" }, "geometry": { "type": "MultiPolygon", "coordinates": [ [ [ [ 22.631542614000068, 32.752680969000039 ], [ 22.631067743000074, 32.753285154000025 ], [ 22.631111573000055, 32.753453789000048 ], [ 22.631235286000049, 32.753520785000035 ], [ 22.631452302000071, 32.753450521000048 ], [ 22.631889120000039, 32.752944323000065 ], [ 22.631922558000042, 32.752894122000043 ], [ 22.631892828000048, 32.752733689000024 ], [ 22.631833319000066, 32.752695694000067 ], [ 22.631764282000063, 32.752653333000069 ], [ 22.631548976000033, 32.752674720000073 ], [ 22.631542614000068, 32.752680969000039 ] ] ] ] } }
]
}
