{
"type": "FeatureCollection",
"name": "P03EXP03_transportA",
"crs": { "type": "name", "properties": { "name": "urn:ogc:def:crs:OGC:1.3:CRS84" } },
"features": [
{ "type": "Feature", "properties": { "obj_type": "Harbours, dams and other waterworks", "info": "Harbour", "NAM": "Derna Port", "FUN": "Fully functional", "TRS": "Maritime", "det_method": "Photo-interpretation", "or_src_id": "1", "emsn_id": "EMSN177", "fwc_type": "FLEX", "aoi_id": "1", "name": "Derna", "country": "Libya", "exp03": "yes", "exp03_clas": "2-5" }, "geometry": { "type": "MultiPolygon", "coordinates": [ [ [ [ 22.652894546000027, 32.766560033000076 ], [ 22.653080579000061, 32.766422742000032 ], [ 22.653222009000046, 32.766318367000054 ], [ 22.653545155000074, 32.766079884000078 ], [ 22.653868300000056, 32.765841400000056 ], [ 22.653986800000041, 32.76573680000007 ], [ 22.654273200000034, 32.765321800000038 ], [ 22.654344900000069, 32.765424900000028 ], [ 22.656331608000073, 32.764097776000028 ], [ 22.656367200000034, 32.764074 ], [ 22.656470600000034, 32.763996 ], [ 22.656548600000065, 32.763892100000078 ], [ 22.656583950000027, 32.763843250000036 ], [ 22.656619300000045, 32.763794400000052 ], [ 22.65668964300005, 32.763738039000032 ], [ 22.656733501000076, 32.763702900000055 ], [ 22.656825900000058, 32.763638100000037 ], [ 22.656879582000045, 32.763673762000053 ], [ 22.657338633000052, 32.763450535000061 ], [ 22.657879081000033, 32.763199980000024 ], [ 22.657942927000079, 32.763177533000032 ], [ 22.658452664000038, 32.762994767000066 ], [ 22.65868622000005, 32.762862369000061 ], [ 22.658834234000039, 32.762772116000065 ], [ 22.65887830500003, 32.762711874000047 ], [ 22.658845166000049, 32.76260015500003 ], [ 22.658810353000035, 32.762550504000046 ], [ 22.658721937000053, 32.762503948000074 ], [ 22.658682406000025, 32.762504472000046 ], [ 22.658538492000048, 32.76251115000008 ], [ 22.658443375000047, 32.762560135000058 ], [ 22.658402586000022, 32.762587257000064 ], [ 22.657999049000068, 32.762320635000037 ], [ 22.657444600000076, 32.76195430000007 ], [ 22.657411100000047, 32.761916087000031 ], [ 22.657294770000078, 32.761783389000072 ], [ 22.657298400000059, 32.761716800000045 ], [ 22.657279798000047, 32.761632898000073 ], [ 22.657279, 32.761629300000038 ], [ 22.657170300000075, 32.761523400000044 ], [ 22.65708120000005, 32.76146360000007 ], [ 22.656923800000072, 32.761345100000028 ], [ 22.656833200000051, 32.761246200000073 ], [ 22.656672623000077, 32.761073699000065 ], [ 22.656029901000068, 32.760383244000025 ], [ 22.655702200000064, 32.760031200000071 ], [ 22.655618400000037, 32.75995 ], [ 22.655526500000065, 32.759875 ], [ 22.655332100000066, 32.759743600000036 ], [ 22.655297143000041, 32.759695347000047 ], [ 22.654928100000063, 32.759686800000054 ], [ 22.653108433000057, 32.760174307000057 ], [ 22.653108928000051, 32.760201123000058 ], [ 22.653025723000042, 32.760240880000026 ], [ 22.652953247000028, 32.760261881000076 ], [ 22.652754399000059, 32.760321776000069 ], [ 22.65279227700006, 32.76044584300007 ], [ 22.651645003000056, 32.76080889900004 ], [ 22.651246800000024, 32.761644300000057 ], [ 22.651173800000038, 32.761621700000035 ], [ 22.651119300000062, 32.76174640000005 ], [ 22.651080161000039, 32.761913259000039 ], [ 22.65093487200005, 32.762151419000077 ], [ 22.650904030000049, 32.76223150800007 ], [ 22.650884200000064, 32.762320900000077 ], [ 22.650774435000073, 32.762793068000065 ], [ 22.650764417000062, 32.762862404000032 ], [ 22.650776308000047, 32.762974812000039 ], [ 22.650925800000039, 32.763333200000034 ], [ 22.651301600000068, 32.763806800000054 ], [ 22.651602500000024, 32.764298200000042 ], [ 22.652049900000065, 32.76541960000003 ], [ 22.651965300000029, 32.765969200000029 ], [ 22.652310100000022, 32.76634087900004 ], [ 22.652310527000054, 32.766341341000043 ], [ 22.652508746000024, 32.766555011000037 ], [ 22.652539893000039, 32.766556244000071 ], [ 22.652578145000064, 32.766562899000064 ], [ 22.65263744300006, 32.766562116000046 ], [ 22.652696676000062, 32.766557755000065 ], [ 22.652785425000047, 32.766545845000053 ], [ 22.652894546000027, 32.766560033000076 ] ] ] ] } }
]
}
