{
"type": "FeatureCollection",
"name": "P03EXP03_industryL",
"crs": { "type": "name", "properties": { "name": "urn:ogc:def:crs:OGC:1.3:CRS84" } },
"features": [
{ "type": "Feature", "properties": { "obj_type": "Dam", "FUN": "Fully functional", "det_method": "Ancillary data", "or_src_id": "994", "emsn_id": "EMSN177", "fwc_type": "FLEX", "aoi_id": "1", "name": "Derna", "country": "Libya", "exp03": "no", "exp03_clas": null }, "geometry": { "type": "MultiLineString", "coordinates": [ [ [ 22.614723401000049, 32.633673900000076 ], [ 22.616257700000062, 32.633574500000066 ] ] ] } },
{ "type": "Feature", "properties": { "obj_type": "Dam", "FUN": "Fully functional", "det_method": "Ancillary data", "or_src_id": "994", "emsn_id": "EMSN177", "fwc_type": "FLEX", "aoi_id": "1", "name": "Derna", "country": "Libya", "exp03": "no", "exp03_clas": null }, "geometry": { "type": "MultiLineString", "coordinates": [ [ [ 22.612566900000047, 32.643142200000057 ], [ 22.616204, 32.642844100000048 ] ] ] } },
{ "type": "Feature", "properties": { "obj_type": "Dam", "FUN": "Fully functional", "det_method": "Ancillary data", "or_src_id": "994", "emsn_id": "EMSN177", "fwc_type": "FLEX", "aoi_id": "1", "name": "Derna", "country": "Libya", "exp03": "no", "exp03_clas": null }, "geometry": { "type": "MultiLineString", "coordinates": [ [ [ 22.617319800000075, 32.64941170000003 ], [ 22.618067564000057, 32.650218653000024 ] ] ] } },
{ "type": "Feature", "properties": { "obj_type": "Dam", "FUN": "Fully functional", "det_method": "Ancillary data", "or_src_id": "994", "emsn_id": "EMSN177", "fwc_type": "FLEX", "aoi_id": "1", "name": "Derna", "country": "Libya", "exp03": "no", "exp03_clas": null }, "geometry": { "type": "MultiLineString", "coordinates": [ [ [ 22.605067500000075, 32.650269900000069 ], [ 22.605144346000031, 32.649978737000026 ] ], [ [ 22.605180173000065, 32.649842988000046 ], [ 22.605217700000026, 32.649700800000062 ] ] ] } },
{ "type": "Feature", "properties": { "obj_type": "Dam", "FUN": "Fully functional", "det_method": "Ancillary data", "or_src_id": "994", "emsn_id": "EMSN177", "fwc_type": "FLEX", "aoi_id": "1", "name": "Derna", "country": "Libya", "exp03": "no", "exp03_clas": null }, "geometry": { "type": "MultiLineString", "coordinates": [ [ [ 22.604134100000067, 32.654393600000049 ], [ 22.604239198000073, 32.654139231000045 ] ], [ [ 22.604276661000029, 32.654048558000056 ], [ 22.60434870000006, 32.653874200000075 ] ] ] } },
{ "type": "Feature", "properties": { "obj_type": "Dam", "FUN": "Fully functional", "det_method": "Ancillary data", "or_src_id": "994", "emsn_id": "EMSN177", "fwc_type": "FLEX", "aoi_id": "1", "name": "Derna", "country": "Libya", "exp03": "no", "exp03_clas": null }, "geometry": { "type": "MultiLineString", "coordinates": [ [ [ 22.600711600000068, 32.652541800000051 ], [ 22.600846571000034, 32.652468870000064 ] ], [ [ 22.600860675000035, 32.652461249000055 ], [ 22.601071, 32.652347600000041 ] ] ] } },
{ "type": "Feature", "properties": { "obj_type": "Dam", "FUN": "Fully functional", "det_method": "Photo-interpretation", "or_src_id": "1", "emsn_id": "EMSN177", "fwc_type": "FLEX", "aoi_id": "1", "name": "Derna", "country": "Libya", "exp03": "no", "exp03_clas": null }, "geometry": { "type": "MultiLineString", "coordinates": [ [ [ 22.648426821000044, 32.64671131800003 ], [ 22.648959200000036, 32.645870500000058 ], [ 22.649570700000027, 32.644937700000071 ], [ 22.650109800000052, 32.644086300000026 ], [ 22.650482700000055, 32.643508100000076 ] ] ] } },
{ "type": "Feature", "properties": { "obj_type": "Dam", "FUN": "Fully functional", "det_method": "Ancillary data", "or_src_id": "994", "emsn_id": "EMSN177", "fwc_type": "FLEX", "aoi_id": "1", "name": "Derna", "country": "Libya", "exp03": "no", "exp03_clas": null }, "geometry": { "type": "MultiLineString", "coordinates": [ [ [ 22.601586, 32.736644400000046 ], [ 22.601614300000051, 32.736550600000044 ], [ 22.601632900000027, 32.736477500000035 ] ] ] } },
{ "type": "Feature", "properties": { "obj_type": "Dam", "FUN": "Fully functional", "det_method": "Ancillary data", "or_src_id": "994", "emsn_id": "EMSN177", "fwc_type": "FLEX", "aoi_id": "1", "name": "Derna", "country": "Libya", "exp03": "no", "exp03_clas": null }, "geometry": { "type": "MultiLineString", "coordinates": [ [ [ 22.600891300000058, 32.736484200000064 ], [ 22.600891300000058, 32.736378200000047 ], [ 22.600899300000037, 32.736297 ] ] ] } },
{ "type": "Feature", "properties": { "obj_type": "Dam", "FUN": "Fully functional", "det_method": "Ancillary data", "or_src_id": "994", "emsn_id": "EMSN177", "fwc_type": "FLEX", "aoi_id": "1", "name": "Derna", "country": "Libya", "exp03": "no", "exp03_clas": null }, "geometry": { "type": "MultiLineString", "coordinates": [ [ [ 22.600081300000056, 32.736353400000041 ], [ 22.600090800000032, 32.736242700000048 ], [ 22.600094700000056, 32.736161600000059 ] ] ] } },
{ "type": "Feature", "properties": { "obj_type": "Dam", "FUN": "Fully functional", "det_method": "Ancillary data", "or_src_id": "994", "emsn_id": "EMSN177", "fwc_type": "FLEX", "aoi_id": "1", "name": "Derna", "country": "Libya", "exp03": "no", "exp03_clas": null }, "geometry": { "type": "MultiLineString", "coordinates": [ [ [ 22.579786100000035, 32.666549900000064 ], [ 22.579706700000031, 32.666250700000035 ] ] ] } },
{ "type": "Feature", "properties": { "obj_type": "Dam", "FUN": "Fully functional", "det_method": "Ancillary data", "or_src_id": "994", "emsn_id": "EMSN177", "fwc_type": "FLEX", "aoi_id": "1", "name": "Derna", "country": "Libya", "exp03": "no", "exp03_clas": null }, "geometry": { "type": "MultiLineString", "coordinates": [ [ [ 22.583363, 32.662355800000057 ], [ 22.583577600000069, 32.662644900000032 ] ] ] } },
{ "type": "Feature", "properties": { "obj_type": "Dam", "FUN": "Fully functional", "det_method": "Ancillary data", "or_src_id": "994", "emsn_id": "EMSN177", "fwc_type": "FLEX", "aoi_id": "1", "name": "Derna", "country": "Libya", "exp03": "no", "exp03_clas": null }, "geometry": { "type": "MultiLineString", "coordinates": [ [ [ 22.582598197000038, 32.661900139000068 ], [ 22.582668400000045, 32.66196750000006 ] ], [ [ 22.58241890000005, 32.661728100000062 ], [ 22.582582383000045, 32.66188496500007 ] ] ] } },
{ "type": "Feature", "properties": { "obj_type": "Dam", "FUN": "Fully functional", "det_method": "Ancillary data", "or_src_id": "994", "emsn_id": "EMSN177", "fwc_type": "FLEX", "aoi_id": "1", "name": "Derna", "country": "Libya", "exp03": "yes", "exp03_clas": "0.5-1" }, "geometry": { "type": "MultiLineString", "coordinates": [ [ [ 22.618067564000057, 32.650218653000024 ], [ 22.618081600000039, 32.650233800000024 ] ] ] } },
{ "type": "Feature", "properties": { "obj_type": "Dam", "FUN": "Fully functional", "det_method": "Ancillary data", "or_src_id": "994", "emsn_id": "EMSN177", "fwc_type": "FLEX", "aoi_id": "1", "name": "Derna", "country": "Libya", "exp03": "yes", "exp03_clas": "0.001-0.2" }, "geometry": { "type": "MultiLineString", "coordinates": [ [ [ 22.605144346000031, 32.649978737000026 ], [ 22.605180173000065, 32.649842988000046 ] ] ] } },
{ "type": "Feature", "properties": { "obj_type": "Dam", "FUN": "Fully functional", "det_method": "Ancillary data", "or_src_id": "994", "emsn_id": "EMSN177", "fwc_type": "FLEX", "aoi_id": "1", "name": "Derna", "country": "Libya", "exp03": "yes", "exp03_clas": "0.001-0.2" }, "geometry": { "type": "MultiLineString", "coordinates": [ [ [ 22.604239198000073, 32.654139231000045 ], [ 22.604276661000029, 32.654048558000056 ] ] ] } },
{ "type": "Feature", "properties": { "obj_type": "Dam", "FUN": "Fully functional", "det_method": "Ancillary data", "or_src_id": "994", "emsn_id": "EMSN177", "fwc_type": "FLEX", "aoi_id": "1", "name": "Derna", "country": "Libya", "exp03": "yes", "exp03_clas": "0.001-0.2" }, "geometry": { "type": "MultiLineString", "coordinates": [ [ [ 22.600846571000034, 32.652468870000064 ], [ 22.600860675000035, 32.652461249000055 ] ] ] } },
{ "type": "Feature", "properties": { "obj_type": "Dam", "FUN": "Fully functional", "det_method": "Ancillary data", "or_src_id": "994", "emsn_id": "EMSN177", "fwc_type": "FLEX", "aoi_id": "1", "name": "Derna", "country": "Libya", "exp03": "yes", "exp03_clas": "0.5-1" }, "geometry": { "type": "MultiLineString", "coordinates": [ [ [ 22.578223900000069, 32.666235100000051 ], [ 22.57823019500006, 32.666194285000074 ] ] ] } },
{ "type": "Feature", "properties": { "obj_type": "Dam", "FUN": "Fully functional", "det_method": "Ancillary data", "or_src_id": "994", "emsn_id": "EMSN177", "fwc_type": "FLEX", "aoi_id": "1", "name": "Derna", "country": "Libya", "exp03": "yes", "exp03_clas": "1-2" }, "geometry": { "type": "MultiLineString", "coordinates": [ [ [ 22.57823019500006, 32.666194285000074 ], [ 22.578242700000033, 32.666113200000041 ] ] ] } },
{ "type": "Feature", "properties": { "obj_type": "Dam", "FUN": "Fully functional", "det_method": "Ancillary data", "or_src_id": "994", "emsn_id": "EMSN177", "fwc_type": "FLEX", "aoi_id": "1", "name": "Derna", "country": "Libya", "exp03": "yes", "exp03_clas": "0.001-0.2" }, "geometry": { "type": "MultiLineString", "coordinates": [ [ [ 22.582582383000045, 32.66188496500007 ], [ 22.582598197000038, 32.661900139000068 ] ] ] } },
{ "type": "Feature", "properties": { "obj_type": "Power Line", "FUN": "Fully functional", "det_method": "Ancillary data", "or_src_id": "994", "emsn_id": "EMSN177", "fwc_type": "FLEX", "aoi_id": "1", "name": "Derna", "country": "Libya", "exp03": "no", "exp03_clas": null }, "geometry": { "type": "MultiLineString", "coordinates": [ [ [ 22.658911619000037, 32.715607820000059 ], [ 22.658307603000026, 32.714947154000072 ], [ 22.658267314000057, 32.714903086000049 ], [ 22.658253157000047, 32.714887601000044 ], [ 22.65822657700005, 32.714858529000026 ], [ 22.658185841000034, 32.714813971000069 ], [ 22.657884900000056, 32.714484800000037 ], [ 22.657658400000059, 32.712347600000044 ], [ 22.657552376000069, 32.711304856000027 ], [ 22.657545502000062, 32.711237252000046 ], [ 22.657323200000064, 32.709050800000057 ], [ 22.657077300000026, 32.706557600000053 ], [ 22.656769200000042, 32.703602800000056 ], [ 22.656460886000048, 32.70085698500003 ], [ 22.656450775000053, 32.700766926000028 ], [ 22.656446, 32.70072440000007 ], [ 22.656445746000031, 32.700721896000061 ], [ 22.656160800000066, 32.697910200000024 ], [ 22.656148870000038, 32.697794567000074 ], [ 22.656139578000023, 32.697704498000064 ], [ 22.656134931000054, 32.697659463000036 ], [ 22.656130285000074, 32.697614428000065 ], [ 22.656125639000038, 32.697569393000038 ], [ 22.655833400000063, 32.694736600000056 ], [ 22.655548399000054, 32.691950500000075 ], [ 22.655478214000027, 32.691264474000036 ], [ 22.655473607000033, 32.691219439000065 ], [ 22.655464393000045, 32.691129368000077 ], [ 22.655245401000059, 32.688988700000039 ], [ 22.654955800000039, 32.686184300000036 ], [ 22.654751249000071, 32.684204368000053 ], [ 22.654673100000025, 32.683447900000033 ], [ 22.654352700000061, 32.68039710000005 ], [ 22.654191425000079, 32.678879979000044 ], [ 22.654177064000066, 32.678744880000067 ], [ 22.654021700000044, 32.677283300000056 ], [ 22.653703900000039, 32.674294400000065 ], [ 22.653657832000079, 32.673836226000049 ], [ 22.653653303000056, 32.673791189000042 ], [ 22.653648775000079, 32.673746152000035 ], [ 22.653549153000029, 32.672755346000031 ], [ 22.653544625000052, 32.672710309000024 ], [ 22.653388, 32.671152500000062 ], [ 22.653230109000049, 32.669647901000076 ], [ 22.653225383000063, 32.669602867000037 ], [ 22.653215931000034, 32.669512799000074 ], [ 22.653168673000039, 32.669062457000052 ], [ 22.653163947000053, 32.669017423000071 ], [ 22.653051100000027, 32.667942 ], [ 22.652792412000053, 32.665324414000054 ], [ 22.652783510000063, 32.665234338000062 ], [ 22.652774608000072, 32.665144263000059 ], [ 22.652741200000037, 32.664806200000044 ], [ 22.653192571000034, 32.664597599000047 ], [ 22.65321816200003, 32.664585772000066 ], [ 22.653293014000042, 32.664551179000057 ], [ 22.653323890000024, 32.664536910000038 ], [ 22.655743800000039, 32.663418500000034 ], [ 22.658081527000036, 32.662338078000062 ], [ 22.658114302000058, 32.662322930000073 ], [ 22.658134388000065, 32.66231364600003 ], [ 22.658214746000056, 32.662276506000069 ], [ 22.658292972000027, 32.662240351000037 ], [ 22.658826200000078, 32.661993900000027 ], [ 22.661831500000062, 32.660604900000067 ], [ 22.663732614000025, 32.659723163000024 ], [ 22.663737467000033, 32.659720912000068 ], [ 22.663832706000051, 32.659676740000066 ], [ 22.663843180000072, 32.659671882000055 ], [ 22.663896037000029, 32.659647366000058 ], [ 22.664032890000044, 32.659583892000057 ], [ 22.664160319000075, 32.659524788000056 ], [ 22.664266032000057, 32.659475757000052 ], [ 22.664433253000027, 32.65939819700003 ], [ 22.664688882000064, 32.659279631000061 ], [ 22.664733524000042, 32.659258924000028 ], [ 22.665108500000031, 32.659085 ], [ 22.666327408000029, 32.658519687000023 ], [ 22.666335090000075, 32.658516125000062 ], [ 22.666380264000054, 32.658495174000052 ], [ 22.666433119000033, 32.658470660000035 ], [ 22.666435191000062, 32.658469699000079 ], [ 22.666535291000059, 32.658423273000039 ], [ 22.668156600000032, 32.657671300000061 ], [ 22.669181549000029, 32.657195912000077 ], [ 22.669234403000075, 32.65717139700007 ], [ 22.669237957000064, 32.657169749000047 ], [ 22.669287256000075, 32.657146882000063 ], [ 22.669551524000042, 32.657024308000075 ], [ 22.669604378000031, 32.656999793000068 ], [ 22.669638346000056, 32.656984037000029 ], [ 22.671414900000059, 32.65616 ], [ 22.674524100000042, 32.654717800000071 ], [ 22.674650482000061, 32.654659184000025 ] ] ] } },
{ "type": "Feature", "properties": { "obj_type": "Power Line", "FUN": "Fully functional", "det_method": "Ancillary data", "or_src_id": "994", "emsn_id": "EMSN177", "fwc_type": "FLEX", "aoi_id": "1", "name": "Derna", "country": "Libya", "exp03": "no", "exp03_clas": null }, "geometry": { "type": "MultiLineString", "coordinates": [ [ [ 22.658911619000037, 32.715607820000059 ], [ 22.658717478000028, 32.713724634000073 ], [ 22.658712836000063, 32.713679599000045 ], [ 22.658710461000055, 32.713656571000058 ], [ 22.658671052000045, 32.713274287000047 ], [ 22.658666410000023, 32.713229253000065 ], [ 22.658647839000025, 32.713049114000057 ], [ 22.658638555000039, 32.712959045000048 ], [ 22.658633913000074, 32.712914011000066 ], [ 22.65861998500003, 32.712778907000029 ], [ 22.658615342000076, 32.712733872000058 ], [ 22.658593800000062, 32.712524900000062 ], [ 22.658554975000072, 32.712148422000041 ], [ 22.658541043000071, 32.712013318000061 ], [ 22.658527111000069, 32.711878214000023 ], [ 22.658522467000068, 32.711833180000042 ], [ 22.65837386000004, 32.710392072000047 ], [ 22.65836921600004, 32.710347037000076 ], [ 22.658359928000039, 32.710256968000067 ], [ 22.658355284000038, 32.710211933000039 ], [ 22.658259300000054, 32.709281100000055 ], [ 22.65795490000005, 32.706328400000075 ], [ 22.657733087000054, 32.704177285000071 ], [ 22.657719156000041, 32.704042181000034 ], [ 22.657615800000031, 32.703039800000056 ], [ 22.657269800000051, 32.699589500000059 ], [ 22.657259324000051, 32.699493550000057 ], [ 22.657254408000028, 32.699448519000043 ], [ 22.657249491000073, 32.69940348800003 ], [ 22.657116747000032, 32.698187646000065 ], [ 22.657101999000076, 32.698052553000025 ], [ 22.657043003000069, 32.697512178000068 ], [ 22.657038086000057, 32.697467147000054 ], [ 22.656988924000075, 32.697016835000056 ], [ 22.656979092000029, 32.69692677300003 ], [ 22.656974176000062, 32.696881742000073 ], [ 22.656932501000028, 32.6965 ], [ 22.656880350000051, 32.695981058000029 ], [ 22.656866773000047, 32.695845949000045 ], [ 22.656639100000064, 32.693580300000065 ], [ 22.656504679000022, 32.692243037000026 ], [ 22.656495626000037, 32.692152964000059 ], [ 22.656405089000032, 32.691252236000025 ], [ 22.656382455000028, 32.691027054000074 ], [ 22.656378600000039, 32.690988700000048 ], [ 22.656373384000062, 32.69093698100005 ], [ 22.656309792000059, 32.690306474000067 ], [ 22.656305250000059, 32.69026143800005 ], [ 22.656304256000055, 32.69025158900007 ], [ 22.656296165000072, 32.690171366000072 ], [ 22.656291622000026, 32.690126329000066 ], [ 22.656059299000049, 32.687822800000049 ], [ 22.655713800000058, 32.684472500000027 ], [ 22.655686422000031, 32.684192027000051 ], [ 22.655407900000057, 32.681338600000061 ], [ 22.655076700000052, 32.67818630000005 ], [ 22.654921143000024, 32.676705731000027 ], [ 22.654911680000055, 32.676615663000064 ], [ 22.654739500000062, 32.674976800000024 ], [ 22.654652283000075, 32.674138787000061 ], [ 22.654642909000074, 32.674048718000051 ], [ 22.654502304000061, 32.672697682000035 ], [ 22.65449761800005, 32.672652648000053 ], [ 22.654488245000039, 32.672562579000044 ], [ 22.654484039000067, 32.672522164000043 ], [ 22.654483558000038, 32.672517544000073 ], [ 22.654478872000027, 32.672472510000034 ], [ 22.654474186000073, 32.672427475000063 ], [ 22.654397500000073, 32.671690600000034 ], [ 22.654276753000033, 32.670445839000024 ], [ 22.654268015000071, 32.670355761000053 ], [ 22.654176269000061, 32.669409947000076 ], [ 22.654171900000051, 32.669364909000024 ], [ 22.654158793000079, 32.669229792000067 ], [ 22.654156287000035, 32.669203955000057 ], [ 22.654145687000039, 32.669094676000043 ], [ 22.654119474000026, 32.668824443000062 ], [ 22.654115105000074, 32.668779405000066 ], [ 22.654112001000044, 32.668747400000029 ], [ 22.654105796000067, 32.668689334000078 ], [ 22.65388925700006, 32.666662852000059 ], [ 22.653884445000074, 32.666617819000066 ], [ 22.653874822000034, 32.666527753000025 ], [ 22.653865198000062, 32.666437687000041 ], [ 22.653841139000065, 32.666212522000023 ], [ 22.653799400000025, 32.665821900000026 ], [ 22.657106342000077, 32.664383444000066 ], [ 22.657133800000054, 32.664371500000073 ], [ 22.657148660000075, 32.664365025000052 ], [ 22.66082380000006, 32.662763400000074 ], [ 22.661020003000033, 32.662677904000077 ], [ 22.661178662000054, 32.662608767000052 ], [ 22.66248476100003, 32.662039616000072 ], [ 22.66250081000004, 32.662032623000073 ], [ 22.664008500000023, 32.661375600000042 ], [ 22.664510446000065, 32.66115715400008 ], [ 22.664513346000035, 32.661155891000078 ], [ 22.667377400000078, 32.65990940000006 ], [ 22.670116134000068, 32.658718828000076 ], [ 22.670169016000045, 32.658695839000075 ], [ 22.670181367000055, 32.658690469000078 ], [ 22.670288377000077, 32.658643949000066 ], [ 22.670327664000069, 32.658626869000045 ], [ 22.670644959000072, 32.658488929000043 ], [ 22.670697841000049, 32.658465939000052 ], [ 22.670823423000058, 32.658411344000058 ], [ 22.670909370000061, 32.658373979000032 ], [ 22.670930432000034, 32.658364823000056 ], [ 22.670962252000038, 32.658350989000041 ], [ 22.670982700000025, 32.658342100000027 ], [ 22.671015132000036, 32.658327869000061 ], [ 22.671120889000065, 32.658281462000048 ], [ 22.671142907000046, 32.658271801000069 ], [ 22.671354883000049, 32.658178785000075 ], [ 22.671438157000068, 32.658142243000043 ], [ 22.671460870000033, 32.65813227700005 ], [ 22.671491035000031, 32.658119040000031 ], [ 22.671649669000033, 32.658049431000052 ], [ 22.671672845000046, 32.658039260000066 ], [ 22.671702546000063, 32.65802622700005 ], [ 22.67438020000003, 32.656851200000062 ], [ 22.675233964000029, 32.656472822000069 ] ] ] } },
{ "type": "Feature", "properties": { "obj_type": "Power Line", "FUN": "Fully functional", "det_method": "Ancillary data", "or_src_id": "994", "emsn_id": "EMSN177", "fwc_type": "FLEX", "aoi_id": "1", "name": "Derna", "country": "Libya", "exp03": "no", "exp03_clas": null }, "geometry": { "type": "MultiLineString", "coordinates": [ [ [ 22.65898628900004, 32.716330645000028 ], [ 22.658809657000063, 32.716133236000076 ], [ 22.658591771000033, 32.715889718000028 ], [ 22.658552945000054, 32.71584632400004 ], [ 22.658537299000045, 32.71582883800005 ], [ 22.658233929000062, 32.715489776000027 ], [ 22.658154176000039, 32.715400639000052 ], [ 22.657438100000036, 32.714600300000029 ], [ 22.657243873000027, 32.71279710500005 ], [ 22.657234172000074, 32.712707041000044 ], [ 22.657229321000045, 32.712662009000042 ], [ 22.657219620000035, 32.712571945000036 ], [ 22.65713850000003, 32.71181880000006 ], [ 22.656860300000062, 32.709051400000078 ], [ 22.656705868000074, 32.707573070000024 ], [ 22.656696459000045, 32.70748300200006 ], [ 22.656564740000078, 32.706222051000054 ], [ 22.65655533100005, 32.706131984000024 ], [ 22.656545923000067, 32.706041916000061 ], [ 22.656541957000059, 32.706003942000052 ], [ 22.656541219000076, 32.705996882000079 ], [ 22.656512600000042, 32.705722900000069 ], [ 22.65626670000006, 32.703368100000034 ], [ 22.656047399000045, 32.701268311000035 ], [ 22.656037993000041, 32.701178243000072 ], [ 22.655943100000059, 32.70026960000007 ], [ 22.655637, 32.697339700000043 ], [ 22.655539359000045, 32.696404634000032 ], [ 22.655529954000031, 32.696314566000069 ], [ 22.655525252000075, 32.696269532000031 ], [ 22.655520550000062, 32.69622449700006 ], [ 22.655511145000048, 32.69613442900004 ], [ 22.655506442000046, 32.696089395000058 ], [ 22.655324300000075, 32.694345 ], [ 22.655002300000035, 32.691262300000062 ], [ 22.654688800000031, 32.688260600000035 ], [ 22.654613152000024, 32.687532903000033 ], [ 22.65459910800007, 32.687397799000053 ], [ 22.654598250000049, 32.687389536000069 ], [ 22.654594427000063, 32.687352765000071 ], [ 22.654437600000051, 32.685844100000054 ], [ 22.654267774000061, 32.684210746000076 ], [ 22.654138899000031, 32.682971200000054 ], [ 22.653810800000031, 32.67981530000003 ], [ 22.653508544000033, 32.676904745000058 ], [ 22.65350386700004, 32.676859710000031 ], [ 22.653481800000066, 32.676647200000048 ], [ 22.653274792000047, 32.674653008000064 ], [ 22.653265443000066, 32.674562939000054 ], [ 22.653246745000047, 32.674382800000046 ], [ 22.653242070000033, 32.674337765000075 ], [ 22.653237395000076, 32.674292731000037 ], [ 22.653232719000073, 32.674247696000066 ], [ 22.653157600000043, 32.673524 ], [ 22.652831500000048, 32.67038320000006 ], [ 22.652767889000074, 32.669789280000032 ], [ 22.652753419000078, 32.669654182000045 ], [ 22.652710012000057, 32.669248886000048 ], [ 22.652700366000033, 32.669158820000064 ], [ 22.652518500000042, 32.667460700000049 ], [ 22.652422623000064, 32.66650179100003 ], [ 22.652395605000038, 32.666231569000047 ], [ 22.652305547000026, 32.665330826000059 ], [ 22.652287535000028, 32.665150678000032 ], [ 22.652229300000045, 32.664568200000076 ], [ 22.652828873000033, 32.664286716000049 ], [ 22.65283936700007, 32.664281789000029 ], [ 22.652927703000046, 32.664240317000065 ], [ 22.65305079500007, 32.664182528000026 ], [ 22.653103651000038, 32.664157713000066 ], [ 22.653125362000026, 32.664147520000029 ], [ 22.65352650400007, 32.663959190000071 ], [ 22.653579361000027, 32.663934374000064 ], [ 22.653718334000075, 32.663869128000044 ], [ 22.655453, 32.663054700000032 ], [ 22.657332093000036, 32.662172407000071 ], [ 22.657374888000049, 32.662152314000025 ], [ 22.657543510000039, 32.662073138000039 ], [ 22.657572534000053, 32.662059510000063 ], [ 22.658591400000034, 32.661581100000035 ], [ 22.661619500000029, 32.660159400000055 ], [ 22.66282876300005, 32.659590325000067 ], [ 22.662881613000025, 32.659565454000074 ], [ 22.66300513300007, 32.65950732500005 ], [ 22.663093013000037, 32.659465968000063 ], [ 22.66477179900005, 32.658675900000048 ], [ 22.664779969000051, 32.658672056000057 ], [ 22.664837050000074, 32.65864519400003 ], [ 22.66487858000005, 32.658625651000079 ], [ 22.664889899000059, 32.658620325000072 ], [ 22.665075807000051, 32.658532841000067 ], [ 22.665101296000046, 32.658520847000034 ], [ 22.665312691000054, 32.658421368000063 ], [ 22.665365540000039, 32.658396498000059 ], [ 22.665371643000071, 32.658393626000077 ], [ 22.665418389000024, 32.658371628000054 ], [ 22.666686752000032, 32.657774748000065 ], [ 22.666739600000028, 32.657749877000072 ], [ 22.666752202000055, 32.657743947000029 ], [ 22.66679244900007, 32.657725007000067 ], [ 22.666949423000062, 32.657651135000037 ], [ 22.667003841000053, 32.657625526000061 ], [ 22.667784800000049, 32.657258 ], [ 22.668228571000043, 32.657047883000075 ], [ 22.668272156000057, 32.65702724700003 ], [ 22.668377845000066, 32.656977205000032 ], [ 22.668430690000037, 32.656952184000033 ], [ 22.668620554000029, 32.656862286000035 ], [ 22.668747755000027, 32.656802058000039 ], [ 22.668906287000027, 32.656726994000053 ], [ 22.668914538000024, 32.656723088000035 ], [ 22.669306517000052, 32.656537488000026 ], [ 22.669404511000039, 32.656491088000053 ], [ 22.671010800000033, 32.655730500000061 ], [ 22.674000700000079, 32.65432560000005 ], [ 22.674471933000063, 32.654104182000026 ] ] ] } },
{ "type": "Feature", "properties": { "obj_type": "Power Line", "FUN": "Fully functional", "det_method": "Ancillary data", "or_src_id": "994", "emsn_id": "EMSN177", "fwc_type": "FLEX", "aoi_id": "1", "name": "Derna", "country": "Libya", "exp03": "no", "exp03_clas": null }, "geometry": { "type": "MultiLineString", "coordinates": [ [ [ 22.65898628900004, 32.716330645000028 ], [ 22.658939700000076, 32.715880200000072 ], [ 22.658931043000052, 32.715796225000076 ], [ 22.65892175700003, 32.715706156000067 ], [ 22.658911619000037, 32.715607820000059 ] ] ] } },
{ "type": "Feature", "properties": { "obj_type": "Power Line", "FUN": "Fully functional", "det_method": "Ancillary data", "or_src_id": "994", "emsn_id": "EMSN177", "fwc_type": "FLEX", "aoi_id": "1", "name": "Derna", "country": "Libya", "exp03": "no", "exp03_clas": null }, "geometry": { "type": "MultiLineString", "coordinates": [ [ [ 22.665386200000057, 32.718593600000077 ], [ 22.667351300000064, 32.719415800000036 ] ] ] } },
{ "type": "Feature", "properties": { "obj_type": "Power Line", "FUN": "Fully functional", "det_method": "Ancillary data", "or_src_id": "994", "emsn_id": "EMSN177", "fwc_type": "FLEX", "aoi_id": "1", "name": "Derna", "country": "Libya", "exp03": "no", "exp03_clas": null }, "geometry": { "type": "MultiLineString", "coordinates": [ [ [ 22.664638500000024, 32.719381200000043 ], [ 22.664471121000076, 32.719378250000034 ], [ 22.664257666000026, 32.719374487000039 ], [ 22.664044210000043, 32.719370724000044 ], [ 22.66383075400006, 32.719366961000048 ], [ 22.662324800000079, 32.719340400000078 ], [ 22.661567362000028, 32.718512167000029 ], [ 22.661485869000046, 32.718423055000073 ], [ 22.660975545000042, 32.71786502100008 ], [ 22.660915417000069, 32.717799270000057 ], [ 22.660793178000063, 32.717665602000068 ], [ 22.660757748000037, 32.717626859000063 ], [ 22.660752433000027, 32.717621046000033 ], [ 22.66071168600007, 32.717576490000056 ], [ 22.660426465000057, 32.717264596000064 ], [ 22.660376606000057, 32.717210073000047 ], [ 22.660322157000053, 32.717150532000062 ], [ 22.66030422800003, 32.717130927000028 ], [ 22.659997400000066, 32.716795400000024 ], [ 22.659041307000052, 32.715749670000037 ], [ 22.658960961000048, 32.715661789000023 ], [ 22.658911619000037, 32.715607820000059 ] ] ] } },
{ "type": "Feature", "properties": { "obj_type": "Power Line", "FUN": "Fully functional", "det_method": "Ancillary data", "or_src_id": "994", "emsn_id": "EMSN177", "fwc_type": "FLEX", "aoi_id": "1", "name": "Derna", "country": "Libya", "exp03": "no", "exp03_clas": null }, "geometry": { "type": "MultiLineString", "coordinates": [ [ [ 22.664742500000045, 32.719497500000045 ], [ 22.664473702000066, 32.719517158000031 ], [ 22.664420428000028, 32.719521053000051 ], [ 22.664260606000028, 32.719532741000023 ], [ 22.664154057000076, 32.719540533000043 ], [ 22.661995, 32.719698400000027 ], [ 22.661341171000061, 32.718966124000076 ], [ 22.661261583000055, 32.718876987000044 ], [ 22.661261028000069, 32.718876365000028 ], [ 22.66122179000007, 32.71883241900008 ], [ 22.660465719000058, 32.717985612000064 ], [ 22.660389395000038, 32.717900128000053 ], [ 22.660280442000044, 32.717778098000053 ], [ 22.660266754000077, 32.717762767000067 ], [ 22.659831800000063, 32.71727560000005 ], [ 22.659735688000069, 32.717168186000038 ], [ 22.659709397000029, 32.717138803000068 ], [ 22.659629641000038, 32.717049667000026 ], [ 22.659626742000057, 32.717046427000071 ], [ 22.659589762000053, 32.717005099000062 ], [ 22.659310616000027, 32.716693122000038 ], [ 22.65919098300003, 32.716559417000042 ], [ 22.659190961000036, 32.716559393000068 ], [ 22.659151106000024, 32.716514849000077 ], [ 22.65898628900004, 32.716330645000028 ] ] ] } },
{ "type": "Feature", "properties": { "obj_type": "Power Line", "FUN": "Fully functional", "det_method": "Ancillary data", "or_src_id": "994", "emsn_id": "EMSN177", "fwc_type": "FLEX", "aoi_id": "1", "name": "Derna", "country": "Libya", "exp03": "no", "exp03_clas": null }, "geometry": { "type": "MultiLineString", "coordinates": [ [ [ 22.668906401000072, 32.742610100000036 ], [ 22.665264600000057, 32.743319600000063 ], [ 22.662223400000073, 32.743909200000076 ], [ 22.659114200000033, 32.744515900000067 ], [ 22.65516290000005, 32.745362100000079 ], [ 22.655975600000033, 32.742491100000052 ], [ 22.655312583000068, 32.74118799200005 ], [ 22.65528979100003, 32.741143197000042 ], [ 22.655244209000045, 32.741053607000026 ], [ 22.655221418000053, 32.741008812000075 ], [ 22.65434810000005, 32.739292300000045 ], [ 22.653277212000035, 32.737196803000074 ], [ 22.653256616000078, 32.737156500000026 ], [ 22.653233725000064, 32.737111706000064 ], [ 22.653210835000039, 32.737066912000046 ], [ 22.652929, 32.73651540000003 ], [ 22.653692, 32.734696800000052 ], [ 22.654763316000071, 32.732176061000075 ], [ 22.654782589000035, 32.732130711000025 ], [ 22.654784216000053, 32.732126882000045 ], [ 22.654801862000056, 32.732085360000042 ], [ 22.655717500000037, 32.729930800000034 ], [ 22.656793400000026, 32.727407 ], [ 22.657542482000053, 32.725645521000047 ], [ 22.657561768000051, 32.725600170000064 ], [ 22.657600339000055, 32.725509468000041 ], [ 22.657619624000063, 32.725464117000058 ], [ 22.657870100000025, 32.724875100000077 ], [ 22.657947317000037, 32.724693151000054 ], [ 22.658024301000069, 32.724511749000044 ], [ 22.658695300000034, 32.722930600000041 ], [ 22.659461700000065, 32.721160600000076 ], [ 22.65974249900006, 32.720506500000056 ], [ 22.66102212800007, 32.720593807000057 ], [ 22.66102614700003, 32.720594081000058 ], [ 22.661186391000058, 32.720605013000068 ], [ 22.661400050000054, 32.720619590000069 ], [ 22.661453465000022, 32.720623234000072 ], [ 22.661989500000061, 32.720659800000078 ], [ 22.662292, 32.72006 ], [ 22.662723564000032, 32.720071891000032 ], [ 22.662937060000047, 32.720077773000071 ], [ 22.664684400000056, 32.720125900000028 ], [ 22.664755369000034, 32.719867845000067 ], [ 22.664767816000051, 32.719822584000042 ], [ 22.664792711000075, 32.719732062000048 ], [ 22.664797455000041, 32.719714814000042 ], [ 22.664828700000044, 32.719601200000056 ] ] ] } },
{ "type": "Feature", "properties": { "obj_type": "Power Line", "FUN": "Fully functional", "det_method": "Ancillary data", "or_src_id": "994", "emsn_id": "EMSN177", "fwc_type": "FLEX", "aoi_id": "1", "name": "Derna", "country": "Libya", "exp03": "no", "exp03_clas": null }, "geometry": { "type": "MultiLineString", "coordinates": [ [ [ 22.702517500000056, 32.743988 ], [ 22.703332787000022, 32.743715276000046 ] ] ] } },
{ "type": "Feature", "properties": { "obj_type": "Power Line", "FUN": "Fully functional", "det_method": "Ancillary data", "or_src_id": "994", "emsn_id": "EMSN177", "fwc_type": "FLEX", "aoi_id": "1", "name": "Derna", "country": "Libya", "exp03": "no", "exp03_clas": null }, "geometry": { "type": "MultiLineString", "coordinates": [ [ [ 22.626973899000063, 32.754796400000032 ], [ 22.626978100000031, 32.75168130000003 ], [ 22.626433358000043, 32.750810842000078 ], [ 22.626418651000051, 32.750787342000024 ], [ 22.625499900000023, 32.749319200000059 ], [ 22.628072451000037, 32.74782514900005 ], [ 22.628125257000022, 32.747794480000039 ], [ 22.62817289700007, 32.747766811000076 ], [ 22.628178063000064, 32.747763811000027 ], [ 22.628389285000026, 32.747641135000038 ], [ 22.628442091000068, 32.747610466000026 ], [ 22.630669100000034, 32.746317 ], [ 22.63348940000003, 32.744757200000038 ], [ 22.63594420000004, 32.743363300000055 ], [ 22.636553824000032, 32.742246105000049 ], [ 22.63660339200004, 32.742155266000054 ], [ 22.636752095000077, 32.741882747000034 ], [ 22.636768243000063, 32.741853153000079 ], [ 22.636801662000039, 32.741791908000039 ], [ 22.636819873000036, 32.741758534000041 ], [ 22.637297333000049, 32.74088351100005 ], [ 22.637322116000064, 32.740838091000057 ], [ 22.637336165000022, 32.740812343000073 ], [ 22.637346899000079, 32.740792672000055 ], [ 22.637569947000031, 32.740383893000057 ], [ 22.637594730000046, 32.740338473000065 ], [ 22.637669078000044, 32.740202213000032 ], [ 22.637693861000059, 32.74015679300004 ], [ 22.637824700000067, 32.739917 ], [ 22.641088269000022, 32.738825874000042 ], [ 22.641154481000058, 32.738803736000079 ], [ 22.641476700000055, 32.738696 ], [ 22.64225499500003, 32.738435815000059 ], [ 22.642467126000042, 32.738364897000054 ], [ 22.644900100000029, 32.737551500000052 ], [ 22.648417800000061, 32.736400100000026 ], [ 22.651165500000047, 32.735468500000025 ], [ 22.652190500000074, 32.733389400000078 ], [ 22.652598430000069, 32.732561910000072 ], [ 22.652604498000073, 32.732549602000063 ], [ 22.652619078000043, 32.732520025000042 ], [ 22.652621900000042, 32.732514300000048 ], [ 22.652686217000053, 32.732383852000055 ], [ 22.653858700000058, 32.730005700000049 ], [ 22.655063100000064, 32.727564100000052 ], [ 22.656446600000038, 32.724759500000062 ], [ 22.656536859000028, 32.724576511000066 ], [ 22.656564259000049, 32.724520962000042 ], [ 22.657835401000057, 32.721943800000076 ], [ 22.658769992000032, 32.720037381000054 ], [ 22.658877874000041, 32.719817311000043 ], [ 22.65926520000005, 32.719027200000028 ], [ 22.659224465000023, 32.718633391000026 ], [ 22.659219807000056, 32.718588356000055 ], [ 22.659196516000065, 32.718363185000044 ], [ 22.659191858000042, 32.718318150000073 ], [ 22.659187200000076, 32.718273116000034 ], [ 22.65898628900004, 32.716330645000028 ] ] ] } },
{ "type": "Feature", "properties": { "obj_type": "Power Line", "FUN": "Fully functional", "det_method": "Ancillary data", "or_src_id": "994", "emsn_id": "EMSN177", "fwc_type": "FLEX", "aoi_id": "1", "name": "Derna", "country": "Libya", "exp03": "no", "exp03_clas": null }, "geometry": { "type": "MultiLineString", "coordinates": [ [ [ 22.593615700000043, 32.766149800000051 ], [ 22.594882100000063, 32.761745200000064 ], [ 22.595590153000046, 32.759550234000073 ], [ 22.595633973000076, 32.759414387000049 ], [ 22.595691, 32.759237600000063 ], [ 22.596249905000036, 32.757117039000036 ], [ 22.596423600000037, 32.756458 ], [ 22.5971, 32.753860600000053 ], [ 22.597842900000046, 32.751034600000025 ], [ 22.598125559000039, 32.749957494000057 ], [ 22.598137432000044, 32.749912247000054 ], [ 22.598522700000046, 32.748444100000029 ], [ 22.599256300000036, 32.745631400000036 ], [ 22.599919035000028, 32.743125055000064 ], [ 22.59995390000006, 32.742993200000058 ], [ 22.599966779000056, 32.74294406000007 ], [ 22.600728200000049, 32.740038900000059 ], [ 22.600854689000073, 32.739550490000056 ], [ 22.600867996000034, 32.73949910400006 ], [ 22.601371700000072, 32.737554100000068 ], [ 22.601917273000026, 32.735516712000049 ], [ 22.601927613000043, 32.735478103000048 ], [ 22.601976081000032, 32.735297098000046 ], [ 22.602000315000055, 32.735206595000079 ], [ 22.602087500000039, 32.734881 ], [ 22.602398364000067, 32.733668228000056 ], [ 22.602409961000035, 32.733622983000032 ], [ 22.602433155000028, 32.733532494000031 ], [ 22.602444753000043, 32.733487249000063 ], [ 22.602456350000068, 32.73344200400004 ], [ 22.602870200000041, 32.731827400000043 ], [ 22.602968978000035, 32.731451206000031 ], [ 22.60298085900007, 32.73140595700005 ], [ 22.603028383000037, 32.731224964000035 ], [ 22.603065130000061, 32.731085018000044 ], [ 22.60366, 32.728819400000077 ], [ 22.603788603000055, 32.728329066000072 ], [ 22.603812338000068, 32.728238569000041 ], [ 22.603814324000041, 32.728230999000061 ], [ 22.60382420600007, 32.728193321000049 ], [ 22.60411397300004, 32.727088488000049 ], [ 22.604120891000036, 32.727062113000045 ], [ 22.604132758000048, 32.727016864000063 ], [ 22.604497900000069, 32.72562460000006 ], [ 22.606742703000066, 32.724922809000077 ], [ 22.606788761000075, 32.724908409000079 ], [ 22.607755700000041, 32.724606100000074 ], [ 22.610836247000066, 32.723683954000023 ], [ 22.610881505000066, 32.723670405000064 ], [ 22.611010800000031, 32.723631700000055 ], [ 22.613947, 32.722687 ], [ 22.615620900000067, 32.722143800000026 ], [ 22.617883512000049, 32.721448600000031 ], [ 22.617936566000026, 32.721432299000071 ], [ 22.618104763000076, 32.721380617000079 ], [ 22.618148781000059, 32.721367092000037 ], [ 22.618254888000024, 32.721334488000025 ], [ 22.621516300000053, 32.720332300000052 ], [ 22.624492400000065, 32.719417700000065 ], [ 22.62679625800007, 32.71870973700004 ], [ 22.626837372000068, 32.718697103000068 ], [ 22.627701, 32.718431700000053 ], [ 22.628232866000076, 32.718503665000071 ], [ 22.628500256000052, 32.71853984300003 ], [ 22.630935657000066, 32.718869332000054 ], [ 22.631067202000054, 32.718887128000063 ], [ 22.631159400000058, 32.718899600000043 ], [ 22.631227627000044, 32.718908334000048 ], [ 22.63124390400003, 32.718910418000064 ], [ 22.631281098000045, 32.718915180000067 ], [ 22.632778294000047, 32.719106823000061 ], [ 22.63288523600005, 32.719120511000028 ], [ 22.633901194000032, 32.719250544000033 ], [ 22.633954665000033, 32.719257388000074 ], [ 22.634008137000023, 32.719264231000068 ], [ 22.634061608000025, 32.719271074000062 ], [ 22.634708, 32.719353800000079 ], [ 22.638007135000066, 32.719769249000024 ], [ 22.638071868000054, 32.719777400000055 ], [ 22.638438, 32.719823500000075 ], [ 22.638927451000029, 32.719888494000031 ], [ 22.638954980000051, 32.719892149000032 ], [ 22.642137500000047, 32.720314700000074 ], [ 22.643847197000071, 32.720532745000071 ], [ 22.643900669000061, 32.720539565000024 ], [ 22.643954142000041, 32.720546384000045 ], [ 22.644007614000031, 32.720553203000065 ], [ 22.64583870000007, 32.720786700000076 ], [ 22.649355193000076, 32.721250915000041 ], [ 22.64940867100006, 32.721257974000025 ], [ 22.649462149000044, 32.721265032000076 ], [ 22.649481601000048, 32.721267600000033 ], [ 22.649515622000024, 32.72127185100004 ], [ 22.652396744000043, 32.721631814000034 ], [ 22.656941600000039, 32.722199500000045 ] ] ] } },
{ "type": "Feature", "properties": { "obj_type": "Power Line", "FUN": "Fully functional", "det_method": "Ancillary data", "or_src_id": "994", "emsn_id": "EMSN177", "fwc_type": "FLEX", "aoi_id": "1", "name": "Derna", "country": "Libya", "exp03": "no", "exp03_clas": null }, "geometry": { "type": "MultiLineString", "coordinates": [ [ [ 22.581056400000023, 32.772118100000057 ], [ 22.582001800000057, 32.769593200000031 ], [ 22.581300400000032, 32.767584800000066 ], [ 22.583408700000064, 32.766353400000071 ], [ 22.585052063000035, 32.765390402000037 ], [ 22.585104889000036, 32.765359446000048 ], [ 22.586038201000065, 32.764812513000038 ], [ 22.58605575100006, 32.764802228000065 ], [ 22.586399300000039, 32.764600900000062 ], [ 22.586832740000034, 32.764351487000056 ], [ 22.586901045000047, 32.764312182000026 ], [ 22.586912873000074, 32.764305376000038 ], [ 22.586953880000067, 32.764281779000044 ], [ 22.589564300000063, 32.762779600000044 ] ] ] } },
{ "type": "Feature", "properties": { "obj_type": "Power Line", "FUN": "Fully functional", "det_method": "Ancillary data", "or_src_id": "994", "emsn_id": "EMSN177", "fwc_type": "FLEX", "aoi_id": "1", "name": "Derna", "country": "Libya", "exp03": "no", "exp03_clas": null }, "geometry": { "type": "MultiLineString", "coordinates": [ [ [ 22.550082521000036, 32.783872049000024 ], [ 22.551039600000024, 32.783576 ], [ 22.552535102000036, 32.783162607000065 ], [ 22.552588232000062, 32.783147919000044 ], [ 22.554299700000058, 32.782674800000052 ], [ 22.556416103000061, 32.782050174000062 ], [ 22.556519124000033, 32.782019767000065 ], [ 22.556575613000064, 32.78200309500005 ], [ 22.559227809000049, 32.781220268000027 ], [ 22.559287254000026, 32.781202722000046 ], [ 22.559546475000047, 32.781126206000067 ], [ 22.559599585000058, 32.781110529000046 ], [ 22.559652696000057, 32.78109485300007 ], [ 22.559812029000057, 32.781047820000026 ], [ 22.559865139000067, 32.781032144000051 ], [ 22.559918250000067, 32.78101646600004 ], [ 22.560358200000053, 32.780886600000031 ], [ 22.562202012000057, 32.780343402000028 ], [ 22.562255123000057, 32.78032775500003 ], [ 22.562321944000075, 32.780308069000057 ], [ 22.562361343000077, 32.780296461000034 ], [ 22.563277300000038, 32.780026600000042 ], [ 22.566524, 32.779061100000035 ] ] ] } },
{ "type": "Feature", "properties": { "obj_type": "Power Line", "FUN": "Fully functional", "det_method": "Ancillary data", "or_src_id": "994", "emsn_id": "EMSN177", "fwc_type": "FLEX", "aoi_id": "1", "name": "Derna", "country": "Libya", "exp03": "no", "exp03_clas": null }, "geometry": { "type": "MultiLineString", "coordinates": [ [ [ 22.551052509000044, 32.78643489500007 ], [ 22.554636800000026, 32.785028300000079 ], [ 22.557353749000072, 32.783962230000043 ], [ 22.557406773000025, 32.783941424000034 ], [ 22.557512820000056, 32.783899812000072 ], [ 22.557968, 32.783721200000059 ], [ 22.56013179200005, 32.782860774000028 ], [ 22.560163763000048, 32.782848061000038 ], [ 22.561343800000031, 32.78237880000006 ], [ 22.563945600000068, 32.78134620000003 ], [ 22.566790959000059, 32.780225355000027 ], [ 22.566838704000077, 32.780206547000034 ], [ 22.566896994000047, 32.780183584000042 ], [ 22.567134300000077, 32.780090100000052 ], [ 22.56811637800007, 32.779702350000036 ], [ 22.568169394000051, 32.779681417000063 ], [ 22.568328443000041, 32.779618619000075 ], [ 22.568372836000037, 32.779601091000075 ], [ 22.568381459000022, 32.779597686000045 ], [ 22.568490793000024, 32.779554517000065 ], [ 22.570467800000074, 32.778773900000033 ], [ 22.570873187000075, 32.778613834000055 ], [ 22.57103223200005, 32.778551036000067 ], [ 22.573394400000041, 32.777618300000029 ], [ 22.575591687000042, 32.776766295000073 ], [ 22.575609522000036, 32.776759379000055 ], [ 22.575644706000048, 32.776745736000066 ], [ 22.576534500000037, 32.776400700000067 ], [ 22.577984511000068, 32.775827552000067 ], [ 22.578102355000055, 32.775780971000074 ], [ 22.578295406000052, 32.775704662000066 ], [ 22.578401428000063, 32.775662753000063 ], [ 22.578454439000041, 32.775641799000027 ], [ 22.578455886000029, 32.775641227000051 ], [ 22.578507449000028, 32.775620844000059 ], [ 22.579620673000022, 32.775180796000029 ], [ 22.57963430500007, 32.775175407000063 ], [ 22.579673683000067, 32.775159841000061 ], [ 22.579869988000041, 32.775082242000053 ], [ 22.579885724000064, 32.775076021000075 ], [ 22.580097765000062, 32.774992201000032 ], [ 22.582929400000069, 32.773872800000049 ], [ 22.584966112000075, 32.772763041000076 ], [ 22.585050841000054, 32.772716873000036 ], [ 22.585127825000029, 32.772674925000047 ], [ 22.585135571000023, 32.772670704000063 ], [ 22.585180693000041, 32.772646117000079 ], [ 22.585233562000042, 32.772617310000044 ], [ 22.585696600000063, 32.772365 ], [ 22.586449725000023, 32.77196616100008 ], [ 22.586602035000055, 32.771885500000053 ], [ 22.586608370000079, 32.771882144000074 ], [ 22.586661252000056, 32.771854139000027 ], [ 22.58782339000004, 32.771238675000063 ], [ 22.587877519000074, 32.771210008000025 ], [ 22.588680200000056, 32.770784900000024 ], [ 22.592029700000069, 32.768964200000028 ], [ 22.595202300000039, 32.767227400000024 ], [ 22.598598300000049, 32.765435900000057 ], [ 22.601216200000067, 32.764019 ], [ 22.604351400000041, 32.762335300000075 ], [ 22.606889701000057, 32.760165100000052 ], [ 22.609393872000055, 32.758020782000074 ], [ 22.609418020000078, 32.75800010200004 ], [ 22.609447335000027, 32.757974999000055 ], [ 22.609470581000039, 32.757955093000078 ], [ 22.609500800000035, 32.757929216000036 ], [ 22.610357896000039, 32.757195249000063 ], [ 22.611177, 32.756493800000044 ], [ 22.615670300000033, 32.754391800000064 ], [ 22.620120213000064, 32.753662955000038 ], [ 22.620279842000059, 32.753636807000078 ], [ 22.622158200000058, 32.75332910000003 ] ] ] } },
{ "type": "Feature", "properties": { "obj_type": "Power Line", "FUN": "Fully functional", "det_method": "Ancillary data", "or_src_id": "994", "emsn_id": "EMSN177", "fwc_type": "FLEX", "aoi_id": "1", "name": "Derna", "country": "Libya", "exp03": "no", "exp03_clas": null }, "geometry": { "type": "MultiLineString", "coordinates": [ [ [ 22.551167873000054, 32.786739693000072 ], [ 22.551951290000034, 32.786434115000077 ], [ 22.552057347000073, 32.786392747000036 ], [ 22.552068752000025, 32.786388298000077 ], [ 22.552110375000041, 32.786372062000055 ], [ 22.55250970000003, 32.786216300000035 ], [ 22.555334400000049, 32.785180100000048 ], [ 22.555709702000058, 32.785035321000066 ], [ 22.555717409000067, 32.785032348000072 ], [ 22.557944674000055, 32.78417311000004 ], [ 22.55800468800004, 32.784149957000068 ], [ 22.558562900000027, 32.783934600000066 ], [ 22.561352, 32.782879700000024 ], [ 22.562240424000038, 32.782540808000078 ], [ 22.562293455000031, 32.78252057900005 ], [ 22.562300032000053, 32.782518070000037 ], [ 22.56234648700007, 32.782500349000031 ], [ 22.562422250000054, 32.782471448000024 ], [ 22.564348600000073, 32.781736600000045 ], [ 22.567453300000068, 32.780552300000068 ], [ 22.570463295000025, 32.779591058000051 ], [ 22.570515972000067, 32.779574234000052 ], [ 22.570516381000061, 32.779574104000062 ], [ 22.570728723000059, 32.779506289000039 ], [ 22.570781808000049, 32.77948933600004 ], [ 22.572692868000047, 32.778878985000063 ], [ 22.572720614000048, 32.778870123000047 ], [ 22.574710068000059, 32.778234694000048 ], [ 22.57476315200006, 32.77821773900007 ], [ 22.574778243000026, 32.778212919000055 ], [ 22.574925215000064, 32.778165974000046 ], [ 22.578893407000066, 32.776898411000047 ], [ 22.578903625000066, 32.776895147000062 ], [ 22.580216114000052, 32.776475862000041 ], [ 22.580336835000026, 32.77643729600004 ], [ 22.58036308100003, 32.776428912000029 ], [ 22.580549162000068, 32.776369465000073 ], [ 22.58176480000003, 32.775981100000024 ], [ 22.582993415000033, 32.775268287000074 ], [ 22.583072873000049, 32.775222186000065 ], [ 22.583390706000046, 32.775037783000073 ], [ 22.583407988000033, 32.775027756000043 ], [ 22.583460825000031, 32.774997100000064 ], [ 22.583470164000062, 32.774991682000064 ], [ 22.585297672000024, 32.773931350000055 ], [ 22.585310115000027, 32.773924130000069 ], [ 22.586330591000035, 32.773332020000055 ], [ 22.586366831000078, 32.773310992000063 ], [ 22.58641966700003, 32.773280335000038 ], [ 22.58689518400007, 32.773004420000063 ], [ 22.586948019000033, 32.772973762000049 ], [ 22.587045680000074, 32.772917094000036 ], [ 22.587423533000049, 32.772697845000039 ], [ 22.587442950000025, 32.772686579000037 ], [ 22.587476368000068, 32.772667188000071 ], [ 22.587522403000037, 32.77264047500006 ], [ 22.587793375000047, 32.772483242000078 ], [ 22.587840216000075, 32.77245606200006 ], [ 22.588268884000058, 32.772207321000053 ], [ 22.588316933000044, 32.772179440000059 ], [ 22.588374552000062, 32.772146005000025 ], [ 22.588396385000067, 32.772133336000024 ], [ 22.588427386000035, 32.772115347000067 ], [ 22.588475838000022, 32.772087232000047 ], [ 22.588480220000065, 32.772084689000053 ], [ 22.588634742000067, 32.771995024000034 ], [ 22.588638722000042, 32.771992715000067 ], [ 22.589219892000074, 32.771655475000045 ], [ 22.589270358000078, 32.771626191000053 ], [ 22.589272726000047, 32.771624817000031 ], [ 22.589325559000031, 32.771594158000028 ], [ 22.589349810000044, 32.771580086000029 ], [ 22.589378393000061, 32.77156350000007 ], [ 22.589429261000078, 32.771533982000051 ], [ 22.589431226000045, 32.771532841000067 ], [ 22.590382672000032, 32.770980724000026 ], [ 22.590462123000066, 32.770934619000059 ], [ 22.590487885000073, 32.770919669000079 ], [ 22.590540718000057, 32.770889010000076 ], [ 22.590593550000051, 32.770858351000072 ], [ 22.59062102200005, 32.770842409000068 ], [ 22.590646383000035, 32.770827692000069 ], [ 22.59075204800007, 32.770766374000061 ], [ 22.590779922000024, 32.770750199000076 ], [ 22.591016209000031, 32.770613079000043 ], [ 22.591069041000026, 32.770582420000039 ], [ 22.591174706000061, 32.770521103000078 ], [ 22.591227538000055, 32.770490443000028 ], [ 22.596986016000074, 32.767148476000045 ], [ 22.597038844000053, 32.767117814000073 ], [ 22.598406748000059, 32.76632386700004 ], [ 22.598486191000063, 32.766277757000069 ], [ 22.598883400000034, 32.766047207000042 ], [ 22.598887803000025, 32.766044651000072 ], [ 22.598940630000072, 32.766013989000044 ], [ 22.598962842000049, 32.766001097000071 ], [ 22.599042284000063, 32.765954986000054 ], [ 22.599046283000064, 32.765952665000043 ], [ 22.599099110000054, 32.765922003000071 ], [ 22.599121726000078, 32.765908876000026 ], [ 22.599757253000064, 32.765539992000072 ], [ 22.599785852000025, 32.765523392000034 ], [ 22.602446300000054, 32.763979100000029 ], [ 22.604860200000076, 32.762578100000042 ], [ 22.606929300000047, 32.76076340000003 ], [ 22.608789, 32.759145100000069 ], [ 22.61036821600004, 32.757768527000053 ], [ 22.611401500000056, 32.756867800000066 ], [ 22.613433300000054, 32.755689100000041 ], [ 22.615572800000052, 32.755175200000053 ], [ 22.617381500000079, 32.754804800000045 ], [ 22.619559500000037, 32.754312 ], [ 22.623569700000075, 32.753414900000053 ] ] ] } }
]
}
