{
"type": "FeatureCollection",
"name": "EMSN177_FLEX_AOI01_P04MIT_MitigationP_v02",
"features": [
{ "type": "Feature", "properties": { "OBJECTID": 1, "Type": "New culvert", "UC_100": "Yes", "Comment": "Dimensions estimated based on modelled flow discharge of 100y", "fwc_type": "FLEX", "aoi_id": "1", "name": "Derna", "country": "Libya", "emsn_id": "EMSN177", "UC_500": "No", "UC_5": "No" }, "geometry": { "type": "Point", "coordinates": [ 22.5845497, 32.7799769 ] } },
{ "type": "Feature", "properties": { "OBJECTID": 2, "Type": "New culvert", "UC_100": "Yes", "Comment": "Dimensions estimated based on modelled flow discharge of 100y", "fwc_type": "FLEX", "aoi_id": "1", "name": "Derna", "country": "Libya", "emsn_id": "EMSN177", "UC_500": "No", "UC_5": "No" }, "geometry": { "type": "Point", "coordinates": [ 22.5828553, 32.6628239 ] } },
{ "type": "Feature", "properties": { "OBJECTID": 3, "Type": "New culvert", "UC_100": "Yes", "Comment": "Dimensions estimated based on modelled flow discharge of 100y", "fwc_type": "FLEX", "aoi_id": "1", "name": "Derna", "country": "Libya", "emsn_id": "EMSN177", "UC_500": "No", "UC_5": "No" }, "geometry": { "type": "Point", "coordinates": [ 22.6149166, 32.7181442 ] } },
{ "type": "Feature", "properties": { "OBJECTID": 4, "Type": "New culvert", "UC_100": "Yes", "Comment": "Dimensions estimated based on modelled flow discharge of 100y", "fwc_type": "FLEX", "aoi_id": "1", "name": "Derna", "country": "Libya", "emsn_id": "EMSN177", "UC_500": "No", "UC_5": "No" }, "geometry": { "type": "Point", "coordinates": [ 22.6513344, 32.7602121 ] } },
{ "type": "Feature", "properties": { "OBJECTID": 5, "Type": "New culvert", "UC_100": "Yes", "Comment": "Dimensions estimated based on modelled flow discharge of 100y", "fwc_type": "FLEX", "aoi_id": "1", "name": "Derna", "country": "Libya", "emsn_id": "EMSN177", "UC_500": "No", "UC_5": "No" }, "geometry": { "type": "Point", "coordinates": [ 22.6494913, 32.7583571 ] } },
{ "type": "Feature", "properties": { "OBJECTID": 6, "Type": "New culvert", "UC_100": "Yes", "Comment": "Dimensions estimated based on modelled flow discharge of 100y", "fwc_type": "FLEX", "aoi_id": "1", "name": "Derna", "country": "Libya", "emsn_id": "EMSN177", "UC_500": "No", "UC_5": "No" }, "geometry": { "type": "Point", "coordinates": [ 22.6283229, 32.7450272 ] } },
{ "type": "Feature", "properties": { "OBJECTID": 7, "Type": "New culvert", "UC_100": "Yes", "Comment": "Dimensions estimated based on modelled flow discharge of 100y", "fwc_type": "FLEX", "aoi_id": "1", "name": "Derna", "country": "Libya", "emsn_id": "EMSN177", "UC_500": "No", "UC_5": "No" }, "geometry": { "type": "Point", "coordinates": [ 22.6414395, 32.7624866 ] } },
{ "type": "Feature", "properties": { "OBJECTID": 8, "Type": "New culvert", "UC_100": "Yes", "Comment": "Dimensions estimated based on modelled flow discharge of 100y", "fwc_type": "FLEX", "aoi_id": "1", "name": "Derna", "country": "Libya", "emsn_id": "EMSN177", "UC_500": "No", "UC_5": "No" }, "geometry": { "type": "Point", "coordinates": [ 22.643063, 32.76415 ] } },
{ "type": "Feature", "properties": { "OBJECTID": 9, "Type": "New culvert", "UC_100": "Yes", "Comment": "Dimensions estimated based on modelled flow discharge of 100y", "fwc_type": "FLEX", "aoi_id": "1", "name": "Derna", "country": "Libya", "emsn_id": "EMSN177", "UC_500": "No", "UC_5": "No" }, "geometry": { "type": "Point", "coordinates": [ 22.6489605, 32.7665531 ] } },
{ "type": "Feature", "properties": { "OBJECTID": 10, "Type": "New culvert", "UC_100": "Yes", "Comment": "Dimensions estimated based on modelled flow discharge of 100y", "fwc_type": "FLEX", "aoi_id": "1", "name": "Derna", "country": "Libya", "emsn_id": "EMSN177", "UC_500": "No", "UC_5": "No" }, "geometry": { "type": "Point", "coordinates": [ 22.650456, 32.7668849 ] } },
{ "type": "Feature", "properties": { "OBJECTID": 11, "Type": "New culvert", "UC_100": "Yes", "Comment": "Dimensions estimated based on modelled flow discharge of 100y", "fwc_type": "FLEX", "aoi_id": "1", "name": "Derna", "country": "Libya", "emsn_id": "EMSN177", "UC_500": "No", "UC_5": "No" }, "geometry": { "type": "Point", "coordinates": [ 22.636311, 32.7565671 ] } },
{ "type": "Feature", "properties": { "OBJECTID": 12, "Type": "New culvert", "UC_100": "No", "Comment": "Dimensions based of the height of the bridges to ensure maximum drained flow", "fwc_type": "FLEX", "aoi_id": "1", "name": "Derna", "country": "Libya", "emsn_id": "EMSN177", "UC_500": "Yes", "UC_5": "No" }, "geometry": { "type": "Point", "coordinates": [ 22.5845497, 32.7799769 ] } },
{ "type": "Feature", "properties": { "OBJECTID": 13, "Type": "New culvert", "UC_100": "No", "Comment": "Dimensions based of the height of the bridges to ensure maximum drained flow", "fwc_type": "FLEX", "aoi_id": "1", "name": "Derna", "country": "Libya", "emsn_id": "EMSN177", "UC_500": "Yes", "UC_5": "No" }, "geometry": { "type": "Point", "coordinates": [ 22.6149166, 32.7181442 ] } },
{ "type": "Feature", "properties": { "OBJECTID": 14, "Type": "New culvert", "UC_100": "No", "Comment": "Dimensions based of the height of the bridges to ensure maximum drained flow", "fwc_type": "FLEX", "aoi_id": "1", "name": "Derna", "country": "Libya", "emsn_id": "EMSN177", "UC_500": "Yes", "UC_5": "No" }, "geometry": { "type": "Point", "coordinates": [ 22.6513344, 32.7602121 ] } },
{ "type": "Feature", "properties": { "OBJECTID": 15, "Type": "New culvert", "UC_100": "No", "Comment": "Dimensions based of the height of the bridges to ensure maximum drained flow", "fwc_type": "FLEX", "aoi_id": "1", "name": "Derna", "country": "Libya", "emsn_id": "EMSN177", "UC_500": "Yes", "UC_5": "No" }, "geometry": { "type": "Point", "coordinates": [ 22.6494913, 32.7583571 ] } },
{ "type": "Feature", "properties": { "OBJECTID": 16, "Type": "New culvert", "UC_100": "No", "Comment": "Dimensions based of the height of the bridges to ensure maximum drained flow", "fwc_type": "FLEX", "aoi_id": "1", "name": "Derna", "country": "Libya", "emsn_id": "EMSN177", "UC_500": "Yes", "UC_5": "No" }, "geometry": { "type": "Point", "coordinates": [ 22.6283229, 32.7450272 ] } },
{ "type": "Feature", "properties": { "OBJECTID": 17, "Type": "New culvert", "UC_100": "No", "Comment": "Dimensions based of the height of the bridges to ensure maximum drained flow", "fwc_type": "FLEX", "aoi_id": "1", "name": "Derna", "country": "Libya", "emsn_id": "EMSN177", "UC_500": "Yes", "UC_5": "No" }, "geometry": { "type": "Point", "coordinates": [ 22.6414395, 32.7624866 ] } },
{ "type": "Feature", "properties": { "OBJECTID": 18, "Type": "New culvert", "UC_100": "No", "Comment": "Dimensions based of the height of the bridges to ensure maximum drained flow", "fwc_type": "FLEX", "aoi_id": "1", "name": "Derna", "country": "Libya", "emsn_id": "EMSN177", "UC_500": "Yes", "UC_5": "No" }, "geometry": { "type": "Point", "coordinates": [ 22.643063, 32.76415 ] } },
{ "type": "Feature", "properties": { "OBJECTID": 19, "Type": "New culvert", "UC_100": "No", "Comment": "Dimensions based of the height of the bridges to ensure maximum drained flow", "fwc_type": "FLEX", "aoi_id": "1", "name": "Derna", "country": "Libya", "emsn_id": "EMSN177", "UC_500": "Yes", "UC_5": "No" }, "geometry": { "type": "Point", "coordinates": [ 22.6489605, 32.7665531 ] } },
{ "type": "Feature", "properties": { "OBJECTID": 20, "Type": "New culvert", "UC_100": "No", "Comment": "Dimensions based of the height of the bridges to ensure maximum drained flow", "fwc_type": "FLEX", "aoi_id": "1", "name": "Derna", "country": "Libya", "emsn_id": "EMSN177", "UC_500": "Yes", "UC_5": "No" }, "geometry": { "type": "Point", "coordinates": [ 22.650456, 32.7668849 ] } },
{ "type": "Feature", "properties": { "OBJECTID": 21, "Type": "New culvert", "UC_100": "No", "Comment": "Dimensions based of the height of the bridges to ensure maximum drained flow", "fwc_type": "FLEX", "aoi_id": "1", "name": "Derna", "country": "Libya", "emsn_id": "EMSN177", "UC_500": "Yes", "UC_5": "No" }, "geometry": { "type": "Point", "coordinates": [ 22.636311, 32.7565671 ] } },
{ "type": "Feature", "properties": { "OBJECTID": 22, "Type": "New culvert", "UC_100": "No", "Comment": "Dimensions based of the height of the bridges to ensure maximum drained flow", "fwc_type": "FLEX", "aoi_id": "1", "name": "Derna", "country": "Libya", "emsn_id": "EMSN177", "UC_500": "Yes", "UC_5": "No" }, "geometry": { "type": "Point", "coordinates": [ 22.6501177, 32.7593949 ] } },
{ "type": "Feature", "properties": { "OBJECTID": 23, "Type": "New culvert", "UC_100": "No", "Comment": "Dimensions based on the flow discharge at inlet", "fwc_type": "FLEX", "aoi_id": "1", "name": "Derna", "country": "Libya", "emsn_id": "EMSN177", "UC_500": "No", "UC_5": "Yes" }, "geometry": { "type": "Point", "coordinates": [ 22.5845497, 32.7799769 ] } },
{ "type": "Feature", "properties": { "OBJECTID": 24, "Type": "New culvert", "UC_100": "No", "Comment": "Dimensions based on the flow discharge at inlet", "fwc_type": "FLEX", "aoi_id": "1", "name": "Derna", "country": "Libya", "emsn_id": "EMSN177", "UC_500": "No", "UC_5": "Yes" }, "geometry": { "type": "Point", "coordinates": [ 22.6149166, 32.7181442 ] } },
{ "type": "Feature", "properties": { "OBJECTID": 25, "Type": "New culvert", "UC_100": "No", "Comment": "Dimensions based on the flow discharge at inlet", "fwc_type": "FLEX", "aoi_id": "1", "name": "Derna", "country": "Libya", "emsn_id": "EMSN177", "UC_500": "No", "UC_5": "Yes" }, "geometry": { "type": "Point", "coordinates": [ 22.6513344, 32.7602121 ] } },
{ "type": "Feature", "properties": { "OBJECTID": 26, "Type": "New culvert", "UC_100": "No", "Comment": "Dimensions based on the flow discharge at inlet", "fwc_type": "FLEX", "aoi_id": "1", "name": "Derna", "country": "Libya", "emsn_id": "EMSN177", "UC_500": "No", "UC_5": "Yes" }, "geometry": { "type": "Point", "coordinates": [ 22.6494913, 32.7583571 ] } },
{ "type": "Feature", "properties": { "OBJECTID": 27, "Type": "New culvert", "UC_100": "No", "Comment": "Dimensions based on the flow discharge at inlet", "fwc_type": "FLEX", "aoi_id": "1", "name": "Derna", "country": "Libya", "emsn_id": "EMSN177", "UC_500": "No", "UC_5": "Yes" }, "geometry": { "type": "Point", "coordinates": [ 22.6283229, 32.7450272 ] } },
{ "type": "Feature", "properties": { "OBJECTID": 28, "Type": "New culvert", "UC_100": "No", "Comment": "Dimensions based on the flow discharge at inlet", "fwc_type": "FLEX", "aoi_id": "1", "name": "Derna", "country": "Libya", "emsn_id": "EMSN177", "UC_500": "No", "UC_5": "Yes" }, "geometry": { "type": "Point", "coordinates": [ 22.6414395, 32.7624866 ] } },
{ "type": "Feature", "properties": { "OBJECTID": 29, "Type": "New culvert", "UC_100": "No", "Comment": "Dimensions based on the flow discharge at inlet", "fwc_type": "FLEX", "aoi_id": "1", "name": "Derna", "country": "Libya", "emsn_id": "EMSN177", "UC_500": "No", "UC_5": "Yes" }, "geometry": { "type": "Point", "coordinates": [ 22.643063, 32.76415 ] } },
{ "type": "Feature", "properties": { "OBJECTID": 30, "Type": "New culvert", "UC_100": "No", "Comment": "Dimensions based on the flow discharge at inlet", "fwc_type": "FLEX", "aoi_id": "1", "name": "Derna", "country": "Libya", "emsn_id": "EMSN177", "UC_500": "No", "UC_5": "Yes" }, "geometry": { "type": "Point", "coordinates": [ 22.6489605, 32.7665531 ] } },
{ "type": "Feature", "properties": { "OBJECTID": 31, "Type": "New culvert", "UC_100": "No", "Comment": "Dimensions based on the flow discharge at inlet", "fwc_type": "FLEX", "aoi_id": "1", "name": "Derna", "country": "Libya", "emsn_id": "EMSN177", "UC_500": "No", "UC_5": "Yes" }, "geometry": { "type": "Point", "coordinates": [ 22.650456, 32.7668849 ] } },
{ "type": "Feature", "properties": { "OBJECTID": 32, "Type": "New culvert", "UC_100": "No", "Comment": "Dimensions based on the flow discharge at inlet", "fwc_type": "FLEX", "aoi_id": "1", "name": "Derna", "country": "Libya", "emsn_id": "EMSN177", "UC_500": "No", "UC_5": "Yes" }, "geometry": { "type": "Point", "coordinates": [ 22.636311, 32.7565671 ] } },
{ "type": "Feature", "properties": { "OBJECTID": 33, "Type": "New culvert", "UC_100": "No", "Comment": "Dimensions based on the flow discharge at inlet", "fwc_type": "FLEX", "aoi_id": "1", "name": "Derna", "country": "Libya", "emsn_id": "EMSN177", "UC_500": "No", "UC_5": "Yes" }, "geometry": { "type": "Point", "coordinates": [ 22.6501177, 32.7593949 ] } }
]
}
