{
"type": "FeatureCollection",
"name": "EMSN177_FLEX_AOI01_P04MIT_MitigationL_v01",
"features": [
{ "type": "Feature", "properties": { "OBJECTID": 1, "Type": "Reconstruction", "UC_100": "Yes", "Comment": "Al Bilad Dam", "Shape_Length": 110.72462530508376, "fwc_type": "FLEX", "aoi_id": "1", "name": "Derna", "country": "Libya", "emsn_id": "EMSN177" }, "geometry": { "type": "MultiLineString", "coordinates": [ [ [ 22.630992, 32.7534579 ], [ 22.6310144, 32.7534318 ], [ 22.6310325, 32.7534243 ], [ 22.6310349, 32.7534241 ], [ 22.631046, 32.753412 ], [ 22.6310675, 32.753394 ], [ 22.6310864, 32.7533766 ], [ 22.6311077, 32.7533566 ], [ 22.6311155, 32.7533485 ], [ 22.6311337, 32.7533343 ], [ 22.6311363, 32.7533315 ], [ 22.6311591, 32.7533158 ], [ 22.631185, 32.7532907 ], [ 22.6312141, 32.7532753 ], [ 22.6312363, 32.7532606 ], [ 22.6312555, 32.753252 ], [ 22.6312606, 32.753245 ], [ 22.6312691, 32.7532227 ], [ 22.6312872, 32.7531908 ], [ 22.6313138, 32.7531641 ], [ 22.6313348, 32.7531482 ], [ 22.6313538, 32.7531268 ], [ 22.6313611, 32.7531118 ], [ 22.6313684, 32.7530977 ], [ 22.6313824, 32.7530769 ], [ 22.6314029, 32.7530553 ], [ 22.6314185, 32.7530443 ], [ 22.6314408, 32.7530213 ], [ 22.631443, 32.7530182 ], [ 22.6314519, 32.7530041 ], [ 22.6314629, 32.7529906 ], [ 22.631478, 32.7529763 ], [ 22.6314973, 32.7529535 ], [ 22.6315185, 32.7529334 ], [ 22.6315268, 32.7529181 ], [ 22.6315309, 32.7529058 ], [ 22.6315372, 32.7529003 ], [ 22.6315538, 32.7528927 ], [ 22.6315702, 32.7528816 ], [ 22.6315824, 32.7528705 ], [ 22.6316005, 32.7528543 ], [ 22.6316086, 32.752847 ], [ 22.6316184, 32.7528355 ], [ 22.6316282, 32.7528237 ], [ 22.6316378, 32.7528101 ], [ 22.6316478, 32.7528054 ], [ 22.6316514, 32.7527962 ], [ 22.6316611, 32.7527878 ], [ 22.6316646, 32.7527784 ], [ 22.6316743, 32.7527729 ], [ 22.6316799, 32.7527641 ], [ 22.6316837, 32.7527595 ], [ 22.6316928, 32.7527468 ], [ 22.6317001, 32.7527382 ], [ 22.6317092, 32.7527275 ], [ 22.6317166, 32.7527201 ], [ 22.631724, 32.7527147 ], [ 22.6317275, 32.752708 ], [ 22.6317331, 32.752705 ] ] ] } },
{ "type": "Feature", "properties": { "OBJECTID": 2, "Type": "Check dam condition", "UC_100": "Yes", "Comment": "Upstream of the catchment", "Shape_Length": 268.51150735701248, "fwc_type": "FLEX", "aoi_id": "1", "name": "Derna", "country": "Libya", "emsn_id": "EMSN177" }, "geometry": { "type": "MultiLineString", "coordinates": [ [ [ 22.6126308, 32.6431586 ], [ 22.6145869, 32.6429646 ], [ 22.6154744, 32.6428841 ] ] ] } },
{ "type": "Feature", "properties": { "OBJECTID": 3, "Type": "Check dam condition", "UC_100": "Yes", "Comment": "Upstream of the catchment", "Shape_Length": 110.77369784500713, "fwc_type": "FLEX", "aoi_id": "1", "name": "Derna", "country": "Libya", "emsn_id": "EMSN177" }, "geometry": { "type": "MultiLineString", "coordinates": [ [ [ 22.6173022, 32.649423 ], [ 22.6180554, 32.6501923 ] ] ] } },
{ "type": "Feature", "properties": { "OBJECTID": 4, "Type": "Check dam condition", "UC_100": "Yes", "Comment": "Upstream of the catchment", "Shape_Length": 25.644531848039346, "fwc_type": "FLEX", "aoi_id": "1", "name": "Derna", "country": "Libya", "emsn_id": "EMSN177" }, "geometry": { "type": "MultiLineString", "coordinates": [ [ [ 22.5797752, 32.6665106 ], [ 22.5797055, 32.6662869 ] ] ] } },
{ "type": "Feature", "properties": { "OBJECTID": 5, "Type": "New small dam", "UC_100": "Yes", "Comment": "Upstream Waterfall Derna", "Shape_Length": 44.344010731677713, "fwc_type": "FLEX", "aoi_id": "1", "name": "Derna", "country": "Libya", "emsn_id": "EMSN177" }, "geometry": { "type": "MultiLineString", "coordinates": [ [ [ 22.6170291, 32.7130742 ], [ 22.6173898, 32.7133329 ] ] ] } },
{ "type": "Feature", "properties": { "OBJECTID": 6, "Type": "Minor riverbed of 10 m", "UC_100": "Yes", "Comment": "Section 1", "Shape_Length": 3364.7569778182924, "fwc_type": "FLEX", "aoi_id": "1", "name": "Derna", "country": "Libya", "emsn_id": "EMSN177" }, "geometry": { "type": "MultiLineString", "coordinates": [ [ [ 22.6279925, 32.7467313 ], [ 22.6280979, 32.7475194 ], [ 22.6288097, 32.7490698 ], [ 22.6301581, 32.7517866 ], [ 22.6308576, 32.7526633 ], [ 22.6325884, 32.7538538 ], [ 22.6339904, 32.7545095 ], [ 22.6350489, 32.7550734 ], [ 22.6357398, 32.7554687 ], [ 22.6361131, 32.7556811 ], [ 22.6363029, 32.756068 ], [ 22.6363132, 32.7566319 ], [ 22.636397, 32.7568658 ], [ 22.6367091, 32.7574257 ], [ 22.6375142, 32.7579993 ], [ 22.6379875, 32.7583245 ], [ 22.6384073, 32.7586322 ], [ 22.6387395, 32.7589133 ], [ 22.6389972, 32.7592968 ], [ 22.6392995, 32.7597349 ], [ 22.6396361, 32.7602554 ], [ 22.6400714, 32.7608115 ], [ 22.6405739, 32.7614681 ], [ 22.6412649, 32.7622971 ], [ 22.6422433, 32.7633434 ], [ 22.6429101, 32.7640346 ], [ 22.6435383, 32.7644132 ], [ 22.6444202, 32.764945 ], [ 22.645531, 32.765483 ], [ 22.6463098, 32.7657491 ], [ 22.6473972, 32.7660775 ], [ 22.6485404, 32.7663087 ], [ 22.6490538, 32.7663765 ], [ 22.6498529, 32.7666196 ], [ 22.6504039, 32.7668138 ], [ 22.6507788, 32.7670326 ], [ 22.6510751, 32.7672973 ], [ 22.6513726, 32.7676291 ] ] ] } },
{ "type": "Feature", "properties": { "OBJECTID": 7, "Type": "Minor riverbed of 20 m", "UC_100": "Yes", "Comment": "Section 2", "Shape_Length": 425.71710902166694, "fwc_type": "FLEX", "aoi_id": "1", "name": "Derna", "country": "Libya", "emsn_id": "EMSN177" }, "geometry": { "type": "MultiLineString", "coordinates": [ [ [ 22.636397, 32.7568658 ], [ 22.6367091, 32.7574257 ], [ 22.6375142, 32.7579993 ], [ 22.6379875, 32.7583245 ], [ 22.6384073, 32.7586322 ], [ 22.6387395, 32.7589133 ], [ 22.6389972, 32.7592968 ], [ 22.6392995, 32.7597349 ] ] ] } },
{ "type": "Feature", "properties": { "OBJECTID": 8, "Type": "Slope adjustment", "UC_100": "Yes", "Comment": "Riverline", "Shape_Length": 3364.7569778182924, "fwc_type": "FLEX", "aoi_id": "1", "name": "Derna", "country": "Libya", "emsn_id": "EMSN177" }, "geometry": { "type": "MultiLineString", "coordinates": [ [ [ 22.6279925, 32.7467313 ], [ 22.6280979, 32.7475194 ], [ 22.6288097, 32.7490698 ], [ 22.6301581, 32.7517866 ], [ 22.6308576, 32.7526633 ], [ 22.6325884, 32.7538538 ], [ 22.6339904, 32.7545095 ], [ 22.6350489, 32.7550734 ], [ 22.6357398, 32.7554687 ], [ 22.6361131, 32.7556811 ], [ 22.6363029, 32.756068 ], [ 22.6363132, 32.7566319 ], [ 22.636397, 32.7568658 ], [ 22.6367091, 32.7574257 ], [ 22.6375142, 32.7579993 ], [ 22.6379875, 32.7583245 ], [ 22.6384073, 32.7586322 ], [ 22.6387395, 32.7589133 ], [ 22.6389972, 32.7592968 ], [ 22.6392995, 32.7597349 ], [ 22.6396361, 32.7602554 ], [ 22.6400714, 32.7608115 ], [ 22.6405739, 32.7614681 ], [ 22.6412649, 32.7622971 ], [ 22.6422433, 32.7633434 ], [ 22.6429101, 32.7640346 ], [ 22.6435383, 32.7644132 ], [ 22.6444202, 32.764945 ], [ 22.645531, 32.765483 ], [ 22.6463098, 32.7657491 ], [ 22.6473972, 32.7660775 ], [ 22.6485404, 32.7663087 ], [ 22.6490538, 32.7663765 ], [ 22.6498529, 32.7666196 ], [ 22.6504039, 32.7668138 ], [ 22.6507788, 32.7670326 ], [ 22.6510751, 32.7672973 ], [ 22.6513726, 32.7676291 ] ] ] } },
{ "type": "Feature", "properties": { "OBJECTID": 9, "Type": "Reconstruction", "UC_100": "Yes", "Comment": "Abu Mansour Dam: relevant for the complete catchment beyond the AOI", "Shape_Length": 282.51069702239744, "fwc_type": "FLEX", "aoi_id": "1", "name": "Derna", "country": "Libya", "emsn_id": "EMSN177" }, "geometry": { "type": "MultiLineString", "coordinates": [ [ [ 22.5757895, 32.6600751 ], [ 22.5783443, 32.6587257 ] ] ] } }
]
}
